{"type":"Feature","properties":{"GID_2":"SVK.2.3_1","GID_0":"SVK","country":"Slovakia","GID_1":"SVK.2_1","province":"Bratislavský","NL_NAME_1":"NA","county":"BratislavaIII","VARNAME_2":"NA","NL_NAME_2":"NA","TYPE_2":"Okres","ENGTYPE_2":"District","CC_2":"103","HASC_2":"SK.BL.B3","name":"Bratislava_I_I_I.county"},
"geometry":{"type": "MultiPolygon","coordinates": [[[[17.1136,48.1569,160.0145],[17.1319,48.163,145.4496],[17.1449,48.1695,131.9607],[17.1708,48.1918,134.6172],[17.1861,48.1961,133.3417],[17.2177,48.1996,129.959],[17.218,48.2023,130.5759],[17.216,48.2053,130.8619],[17.1959,48.2207,132.7116],[17.1532,48.2429,399.5913],[17.1392,48.2392,461.4135],[17.1213,48.2453,440.6944],[17.1013,48.238,402.2171],[17.0976,48.2337,429.4769],[17.0943,48.2258,364.5041],[17.0917,48.2239,408.9836],[17.0782,48.2216,393.1454],[17.0628,48.2219,353.5747],[17.0571,48.2191,295.5659],[17.0526,48.2112,334.0452],[17.0532,48.2009,241.8496],[17.0554,48.189,262.6075],[17.0658,48.1795,222.0838],[17.0653,48.1649,226.8751],[17.0871,48.1614,192.9325],[17.0969,48.1558,232.8481],[17.1136,48.1569,160.0145]]]]}}