{"type":"Feature","properties":{"GID_2":"SVK.2.2_1","GID_0":"SVK","country":"Slovakia","GID_1":"SVK.2_1","province":"Bratislavský","NL_NAME_1":"NA","county":"BratislavaII","VARNAME_2":"NA","NL_NAME_2":"NA","TYPE_2":"Okres","ENGTYPE_2":"District","CC_2":"102","HASC_2":"SK.BL.B2","name":"Bratislava_I_I.county"},
"geometry":{"type": "MultiPolygon","coordinates": [[[[17.1172,48.1378,131.0],[17.1294,48.1329,138.2578],[17.1351,48.1273,137.8139],[17.1356,48.1213,138.8298],[17.1294,48.1093,155.2534],[17.1284,48.1025,155.2273],[17.1482,48.0702,145.0831],[17.1594,48.0598,134.2362],[17.1779,48.0538,147.5101],[17.1889,48.0583,128.0],[17.194,48.0634,141.173],[17.2015,48.0757,143.2388],[17.1951,48.0826,144.0898],[17.1944,48.0876,130.2278],[17.1965,48.0895,131.9251],[17.2039,48.0911,130.8605],[17.2072,48.0982,130.783],[17.2134,48.1045,131.5272],[17.2261,48.1085,130.5603],[17.2377,48.11,130.6084],[17.2609,48.102,123.0],[17.2639,48.1041,129.4596],[17.2694,48.1139,129.1935],[17.2687,48.1202,128.9329],[17.2711,48.1242,128.8102],[17.2696,48.1266,128.7723],[17.2577,48.1282,129.8094],[17.2491,48.1373,130.8825],[17.234,48.1427,131.5176],[17.2297,48.1462,132.0588],[17.2256,48.1583,132.065],[17.2188,48.1648,130.9431],[17.2188,48.17,130.2916],[17.2115,48.1775,130.5316],[17.2095,48.1818,130.6612],[17.2102,48.1896,131.6334],[17.2177,48.1996,129.959],[17.1861,48.1961,133.3417],[17.1682,48.1905,134.7901],[17.1449,48.1695,131.9607],[17.1319,48.163,145.4496],[17.1136,48.1569,160.0145],[17.1141,48.1479,150.7182],[17.1203,48.1436,147.6263],[17.1172,48.1378,131.0]]]]}}