{"type": "Feature","bbox": [18.6312,48.4629,19.0174,48.7678],"geometry": {"type": "MultiPolygon","coordinates": [[[[18.9955,48.742,1204.178],[18.9704,48.7416,1053.0493],[18.934,48.747,946.3735],[18.9216,48.7464,909.7953],[18.9004,48.7481,756.9331],[18.8816,48.7536,886.4901],[18.8786,48.7654,880.4527],[18.8763,48.7678,828.3513],[18.8592,48.7657,657.6047],[18.8132,48.7448,638.9413],[18.8123,48.7378,644.9039],[18.7919,48.7119,707.5854],[18.7803,48.6926,904.6929],[18.7668,48.6831,577.5653],[18.7388,48.6718,621.2415],[18.7202,48.643,608.7657],[18.718,48.6317,732.9553],[18.7147,48.6277,785.4436],[18.6934,48.6264,783.5953],[18.6671,48.6344,970.7291],[18.6469,48.6377,1179.7157],[18.6375,48.6355,1204.7367],[18.6312,48.6288,1133.2726],[18.6451,48.6243,1203.1436],[18.6539,48.6145,948.499],[18.6641,48.608,922.9544],[18.6732,48.5927,667.2017],[18.6789,48.5777,666.4543],[18.692,48.5639,737.7041],[18.6932,48.5525,632.7251],[18.6905,48.5459,628.7449],[18.6908,48.5271,692.5173],[18.7051,48.522,498.4169],[18.715,48.5204,374.1263],[18.726,48.5153,220.0],[18.726,48.5125,220.0],[18.7196,48.5047,343.2897],[18.7207,48.4857,225.6618],[18.75,48.4837,334.4054],[18.767,48.4746,477.6366],[18.7836,48.4725,545.3555],[18.7966,48.4772,810.4305],[18.8038,48.4758,812.6367],[18.8042,48.4721,765.7935],[18.8073,48.4712,715.2213],[18.8134,48.4761,696.2267],[18.8188,48.4765,705.9507],[18.8458,48.4629,618.6278],[18.87,48.4636,869.4662],[18.868,48.4681,752.1348],[18.869,48.4721,844.082],[18.8783,48.4747,737.4096],[18.8871,48.4807,760.7514],[18.8731,48.4917,811.4271],[18.8716,48.495,699.9304],[18.8724,48.501,592.3504],[18.8839,48.5088,513.4979],[18.8933,48.5191,586.5641],[18.8973,48.5287,602.4183],[18.9028,48.5334,499.7118],[18.9088,48.536,614.8013],[18.9164,48.5459,565.0129],[18.9284,48.5568,561.6256],[18.9328,48.5587,579.4121],[18.9438,48.559,467.3674],[18.9473,48.5574,534.2061],[18.9499,48.5522,598.3354],[18.9585,48.5525,652.9492],[18.9656,48.5557,730.1053],[18.9784,48.5664,664.2581],[18.9922,48.5681,289.6427],[18.9985,48.5705,267.4772],[19.0085,48.5819,401.4177],[19.0093,48.5848,403.7839],[19.0074,48.5878,491.4346],[18.9924,48.5923,523.8331],[18.9884,48.5951,575.6066],[18.978,48.6161,643.3303],[18.978,48.6226,765.7393],[18.9799,48.6275,798.4705],[18.9917,48.6424,711.9365],[19.0155,48.6663,833.5188],[19.0174,48.67,892.3939],[19.0166,48.6753,799.4728],[19.0084,48.6892,903.0811],[19.004,48.7175,1178.499],[18.9955,48.742,1204.178]]]]}
,"properties": {"GID_2": "SVK.1.12_1","GID_0": "SVK","country": "Slovakia","GID_1": "SVK.1_1","province": "Banskobystrický","NL_NAME_1": "NA","county": "ŽiarnadHronom","VARNAME_2": "NA","NL_NAME_2": "NA","TYPE_2": "Okres","ENGTYPE_2": "District","CC_2": "613","HASC_2": "SK.BC.ZH","name": "Žiarnad_Hronom.county","area_km2": 548.2413,"hist_schema_id": "Elevation0-9000","hist_area_km2": {"225": 14.5732,"250": 24.1758,"275": 21.7872,"300": 23.7613,"325": 24.1932,"350": 22.2,"375": 21.694,"400": 22.4069,"425": 20.8645,"450": 22.5613,"475": 22.4643,"500": 22.3655,"525": 23.0097,"550": 22.9659,"575": 21.3947,"600": 19.8094,"625": 16.472,"650": 15.7672,"675": 13.8884,"700": 14.3492,"725": 14.3764,"750": 13.7002,"775": 15.6846,"800": 15.8042,"825": 15.4369,"850": 11.3209,"875": 10.0742,"900": 7.6116,"925": 6.9681,"950": 5.0657,"975": 3.4983,"1000": 3.0086,"1025": 2.5048,"1050": 2.2948,"1075": 1.6512,"1100": 1.819,"1125": 1.5812,"1150": 1.2173,"1175": 1.4693,"1200": 0.8256,"1225": 0.602,"1250": 0.5324,"1275": 0.3783,"1300": 0.1121}}}