{"type": "Feature","bbox": [17.2486,47.7668,17.8816,48.1664],"geometry": {"type": "MultiPolygon","coordinates": [[[[17.7007,47.7668,104.0],[17.7032,47.7697,112.5133],[17.721,47.7798,115.6285],[17.7307,47.789,111.5332],[17.7312,47.7936,114.5302],[17.7264,47.8041,109.867],[17.7266,47.8073,109.7703],[17.7292,47.8098,109.948],[17.7342,47.8109,109.4425],[17.7472,47.8086,110.0549],[17.7638,47.8113,109.6872],[17.7893,47.8215,109.247],[17.7934,47.8246,109.9022],[17.7946,47.8284,109.8004],[17.7931,47.8437,110.2295],[17.7958,47.8526,111.0453],[17.804,47.8631,110.5853],[17.8067,47.8723,110.085],[17.8119,47.8737,110.0903],[17.8226,47.8698,109.7094],[17.8369,47.8749,109.5574],[17.8476,47.8827,108.7117],[17.8615,47.8898,108.713],[17.873,47.9049,110.0639],[17.8816,47.9099,108.87],[17.8807,47.9121,110.184],[17.8709,47.9168,109.4001],[17.8687,47.9212,109.1733],[17.871,47.926,109.937],[17.8771,47.9307,110.0017],[17.8796,47.9356,109.3843],[17.8815,47.9445,110.125],[17.88,47.9526,109.9074],[17.8715,47.9565,110.9683],[17.8654,47.9668,112.0342],[17.8606,47.9698,108.6069],[17.8371,47.9763,112.2048],[17.8254,47.9911,110.5978],[17.8183,47.9976,111.8675],[17.8101,48.0031,112.1251],[17.8015,48.0047,115.5934],[17.7945,48.0124,111.148],[17.786,48.0165,113.0047],[17.771,48.0273,112.2824],[17.7673,48.0355,111.2153],[17.7627,48.0397,112.572],[17.7583,48.0473,112.5909],[17.7453,48.0487,112.8417],[17.7269,48.0548,113.3483],[17.702,48.0558,114.3681],[17.6904,48.0602,114.3513],[17.6828,48.0608,114.6167],[17.6795,48.0687,114.263],[17.6665,48.0739,114.6597],[17.6609,48.0839,115.2944],[17.6386,48.0907,129.4355],[17.617,48.0938,117.2187],[17.6159,48.0959,116.8692],[17.6165,48.1059,116.6489],[17.6131,48.1095,117.0455],[17.6074,48.108,117.0993],[17.5984,48.096,123.4226],[17.5953,48.0947,120.8702],[17.5922,48.0959,117.2858],[17.5847,48.1048,116.4959],[17.5739,48.1038,117.4954],[17.5732,48.1094,120.8988],[17.5709,48.1108,122.7284],[17.5538,48.1054,118.196],[17.5417,48.1052,118.568],[17.5399,48.1079,123.9783],[17.5459,48.114,116.965],[17.5436,48.118,119.9478],[17.535,48.1194,119.6559],[17.5286,48.1139,120.7693],[17.5236,48.1129,120.124],[17.5114,48.1184,120.6112],[17.493,48.1229,122.5631],[17.4863,48.1277,121.4394],[17.4816,48.1372,122.1645],[17.4695,48.1408,121.6786],[17.4589,48.1471,122.789],[17.4429,48.1437,124.4925],[17.402,48.1479,124.7451],[17.3997,48.1506,126.529],[17.4033,48.1572,124.8372],[17.402,48.1623,125.1764],[17.3982,48.1654,125.0849],[17.3925,48.1664,125.8396],[17.3804,48.1649,126.2619],[17.3723,48.1588,126.7044],[17.371,48.1509,126.412],[17.3727,48.1382,125.7129],[17.3701,48.1316,125.0675],[17.3503,48.1286,126.7705],[17.3381,48.1296,127.1382],[17.3297,48.125,127.4465],[17.3046,48.1215,127.5931],[17.3007,48.1197,127.7199],[17.2981,48.1129,127.3891],[17.2984,48.1096,127.5849],[17.3033,48.1039,127.3762],[17.3099,48.0916,128.8092],[17.3141,48.0897,127.8199],[17.3233,48.0905,126.3725],[17.3257,48.0882,126.1651],[17.3176,48.0839,128.4688],[17.3161,48.0765,126.5813],[17.3114,48.0716,126.5597],[17.3088,48.0634,126.5106],[17.2982,48.0546,126.6928],[17.2936,48.0531,126.853],[17.2855,48.0551,127.4733],[17.2808,48.0533,127.8058],[17.2803,48.0504,127.5454],[17.2874,48.0436,128.1438],[17.2875,48.0401,127.8583],[17.272,48.0358,127.2259],[17.2486,48.0184,131.3704],[17.2511,48.0163,129.6528],[17.2509,48.0094,137.0306],[17.2584,48.0014,133.2633],[17.2863,47.9971,128.0],[17.3122,47.9997,127.5],[17.3345,47.9979,127.5],[17.348,47.991,124.9057],[17.3678,47.9723,125.4981],[17.3762,47.9613,115.6283],[17.3792,47.9597,126.156],[17.3914,47.9638,119.9879],[17.4027,47.9559,118.0],[17.4354,47.9193,136.2794],[17.4507,47.8936,128.5925],[17.4624,47.8854,114.6217],[17.4763,47.8816,117.9467],[17.5,47.8706,116.014],[17.5135,47.8673,112.499],[17.5246,47.8678,110.0],[17.5351,47.8606,117.3479],[17.5462,47.8459,113.7759],[17.5534,47.8332,115.9111],[17.567,47.8166,109.5645],[17.5744,47.8154,111.0085],[17.5957,47.8233,118.0326],[17.609,47.8224,109.6708],[17.6344,47.8046,112.7113],[17.6829,47.7789,105.6745],[17.7007,47.7668,104.0]]]]}
,"properties": {"GID_2": "SVK.7.1_1","GID_0": "SVK","country": "Slovakia","GID_1": "SVK.7_1","province": "Trnavský","NL_NAME_1": "NA","county": "DunajskáStreda","VARNAME_2": "NA","NL_NAME_2": "NA","TYPE_2": "Okres","ENGTYPE_2": "District","CC_2": "201","HASC_2": "SK.TA.DS","name": "Dunajská_Streda.county","area_km2": 1052.0284,"hist_schema_id": "Elevation0-9000","hist_area_km2": {"100": 302.9744,"125": 748.3305,"150": 0.7234}}}