{"type": "Feature","bbox": [18.23,48.9572,18.6024,49.3199],"geometry": {"type": "MultiPolygon","coordinates": [[[[18.23,49.2972,812.0739],[18.2316,49.2909,814.7529],[18.2309,49.2775,661.1487],[18.2322,49.2728,769.4456],[18.2369,49.2686,741.4599],[18.2527,49.2638,751.9577],[18.2578,49.2587,744.7426],[18.2578,49.2511,811.587],[18.2619,49.2348,724.3339],[18.2713,49.2287,690.5302],[18.2755,49.2204,620.1796],[18.2746,49.219,620.1796],[18.269,49.2182,513.4485],[18.2686,49.2164,514.6259],[18.2784,49.2142,656.2084],[18.2862,49.2191,606.5831],[18.2914,49.2197,535.5657],[18.316,49.2168,432.246],[18.3159,49.2101,629.0508],[18.3113,49.2032,612.4874],[18.3109,49.1997,544.1897],[18.3115,49.1948,599.1261],[18.3182,49.1804,627.7252],[18.3264,49.1736,518.3039],[18.3394,49.1697,454.639],[18.3451,49.1663,431.0251],[18.3554,49.1563,382.394],[18.3563,49.1492,318.3109],[18.3593,49.142,310.1494],[18.3772,49.1312,278.0],[18.3773,49.1258,278.0],[18.3709,49.1227,278.0],[18.3701,49.1207,349.8508],[18.3846,49.1187,304.6116],[18.3888,49.1119,451.3037],[18.387,49.1089,470.8439],[18.3762,49.1022,461.4303],[18.388,49.0969,443.0665],[18.3791,49.0887,333.2664],[18.3823,49.0711,315.9205],[18.3866,49.0636,285.437],[18.3781,49.0392,397.9785],[18.391,49.0259,472.3196],[18.3971,49.0222,618.0201],[18.3959,49.0166,702.746],[18.3982,49.0129,753.7619],[18.4086,49.0079,595.5368],[18.4149,49.001,661.3287],[18.4166,48.9906,640.5686],[18.4362,48.9815,627.1481],[18.4441,48.9823,787.0514],[18.4494,48.9787,869.3733],[18.458,48.968,969.4496],[18.4578,48.9654,972.9778],[18.4545,48.9612,844.1036],[18.4565,48.9572,832.1313],[18.4829,48.9679,850.5606],[18.5058,48.9846,899.6762],[18.5188,48.9902,847.3624],[18.5655,48.9994,691.8871],[18.5698,49.0026,725.4648],[18.5823,49.02,723.3335],[18.5918,49.0278,717.9265],[18.5969,49.0342,772.8511],[18.5974,49.0462,608.9937],[18.6024,49.0562,654.9602],[18.5989,49.0721,580.4406],[18.5872,49.0795,495.4143],[18.5577,49.0862,664.0979],[18.5485,49.0893,488.7642],[18.5455,49.092,443.8383],[18.5463,49.0957,401.1175],[18.5673,49.1074,445.123],[18.5736,49.1153,483.3927],[18.5738,49.1238,652.7708],[18.5633,49.1344,573.4077],[18.5654,49.1419,631.9351],[18.5647,49.1447,658.2776],[18.5518,49.1488,766.8712],[18.551,49.1575,561.3938],[18.5483,49.1622,484.2228],[18.5324,49.1648,505.749],[18.5008,49.1818,294.2756],[18.4697,49.1901,470.6093],[18.4604,49.1969,530.7533],[18.4567,49.203,444.0816],[18.4454,49.2126,615.0085],[18.4432,49.2179,478.6574],[18.4426,49.2257,546.239],[18.4369,49.2318,456.8314],[18.4305,49.2436,549.8047],[18.4244,49.2497,641.0404],[18.4203,49.2627,880.6792],[18.3886,49.2899,840.2982],[18.3832,49.2996,944.4989],[18.3723,49.3077,872.9566],[18.3683,49.3187,1043.8726],[18.3373,49.3173,989.0687],[18.3319,49.3199,883.6932],[18.3113,49.3121,864.8916],[18.23,49.2972,812.0739]]]]}
,"properties": {"GID_2": "SVK.6.6_1","GID_0": "SVK","country": "Slovakia","GID_1": "SVK.6_1","province": "Trenčiansky","NL_NAME_1": "NA","county": "PovažskáBystrica","VARNAME_2": "NA","NL_NAME_2": "NA","TYPE_2": "Okres","ENGTYPE_2": "District","CC_2": "306","HASC_2": "SK.TC.PB","name": "Považská_Bystrica.county","area_km2": 473.1932,"hist_schema_id": "Elevation0-9000","hist_area_km2": {"275": 12.4848,"300": 17.6999,"325": 17.1237,"350": 23.4659,"375": 29.3395,"400": 32.0318,"425": 34.0314,"450": 35.7947,"475": 31.5598,"500": 29.4181,"525": 26.0703,"550": 22.3346,"575": 19.4609,"600": 16.5325,"625": 14.5189,"650": 13.8775,"675": 13.6111,"700": 12.1259,"725": 11.0972,"750": 10.5425,"775": 9.6127,"800": 8.0177,"825": 7.7132,"850": 5.8572,"875": 5.0675,"900": 4.1678,"925": 3.3914,"950": 2.7556,"975": 1.6751,"1000": 1.0248,"1025": 0.5954,"1050": 0.166,"1075": 0.0278}}}