{"type": "Feature","bbox": [20.1678,48.3342,22.3846,49.0182],"geometry": {"type": "MultiPolygon","coordinates": [[[[22.1083,48.3814,102.6383],[22.112,48.3825,102.6937],[22.1201,48.3804,104.0038],[22.1422,48.3842,103.6577],[22.136,48.3934,96.0],[22.1568,48.401,105.2983],[22.1573,48.4054,103.6124],[22.1428,48.4034,103.1157],[22.1508,48.4101,104.056],[22.1417,48.4151,105.9838],[22.1404,48.4271,102.6581],[22.1483,48.4274,102.6341],[22.1464,48.4454,101.3108],[22.153,48.4577,101.6989],[22.1584,48.4819,101.0559],[22.1631,48.5122,103.3869],[22.1624,48.5182,102.7374],[22.1697,48.5245,105.2293],[22.1678,48.5425,104.6937],[22.1738,48.5608,109.3176],[22.1731,48.5668,108.2174],[22.193,48.6036,108.6983],[22.201,48.6044,108.9767],[22.2003,48.6102,106.6686],[22.2164,48.6121,109.7537],[22.215699999999998,48.6179,109.8112],[22.2237,48.618899999999996,111.2349],[22.223,48.6247,110.7011],[22.2317,48.6198,112.2222],[22.2396,48.6208,112.9175],[22.239,48.6266,112.143],[22.2469,48.6276,114.8734],[22.2463,48.6334,113.66],[22.2536,48.6402,156.8122],[22.2614,48.6414,146.5016],[22.2602,48.6528,129.4213],[22.2751,48.6551,170.3616],[22.2749,48.6609,182.7147],[22.2817,48.662,210.3277],[22.2885,48.6688,169.5281],[22.2957,48.6701,190.1311],[22.2952,48.6757,195.6112],[22.3027,48.6771,222.2286],[22.3021,48.6826,236.8605],[22.3541,48.6976,281.3356],[22.3465,48.7112,405.129],[22.3579,48.7147,507.9937],[22.3524,48.7235,612.3491],[22.3611,48.7312,552.4106],[22.3584,48.7357,704.0871],[22.3692,48.7384,597.0188],[22.3616,48.7522,521.0245],[22.3501,48.7486,814.5959],[22.3481,48.7533,772.3573],[22.3401,48.7575,825.007],[22.3472,48.7587,864.3179],[22.3462,48.7756,916.6564],[22.3529,48.7766,879.2583],[22.3594,48.7834,945.195],[22.368,48.7854,904.1352],[22.3662,48.7903,762.3514],[22.3767,48.7932,897.5039],[22.3722,48.8025,770.3598],[22.3826,48.8054,903.344],[22.3782,48.8148,792.7668],[22.3779,48.8496,392.3758],[22.3839,48.8503,378.6927],[22.3846,48.8688,492.048],[22.3816,48.8685,434.7197],[22.374,48.8741,409.4147],[22.3677,48.8758,328.0959],[22.3564,48.8733,261.2285],[22.3124,48.8738,435.9701],[22.2995,48.8692,441.0229],[22.2857,48.8677,523.826],[22.2755,48.8623,601.2929],[22.2691,48.8625,699.4897],[22.2672,48.8645,714.1399],[22.2675,48.8733,669.775],[22.2619,48.8792,683.3319],[22.2601,48.8847,637.5544],[22.2558,48.889,619.4648],[22.2534,48.8949,621.5114],[22.2436,48.9035,891.809],[22.2406,48.9197,917.4728],[22.2277,48.928,996.9811],[22.2212,48.9298,891.7921],[22.2116,48.9288,1000.7332],[22.1997,48.9242,738.8638],[22.1646,48.8999,846.2596],[22.164,48.9011,820.9514],[22.161,48.9004,866.8896],[22.1527,48.8927,896.0614],[22.1374,48.8854,791.0256],[22.1358,48.8834,776.868],[22.135,48.8767,642.2286],[22.1371,48.867,610.9785],[22.1359,48.8604,476.2069],[22.1332,48.8554,386.5272],[22.1278,48.8539,415.4743],[22.1127,48.8562,375.4523],[22.0938,48.8567,587.9308],[22.0747,48.86,494.5046],[22.0538,48.8567,609.6812],[22.0221,48.8588,688.8205],[21.9851,48.8505,539.3429],[21.9682,48.8532,423.6614],[21.9562,48.8569,344.0503],[21.9522,48.862,321.1763],[21.94,48.8704,435.5262],[21.9329,48.8793,290.9916],[21.9085,48.8892,363.3528],[21.8897,48.8926,376.3574],[21.8651,48.8934,512.132],[21.837,48.8992,142.6768],[21.8208,48.9063,239.9635],[21.815,48.9064,295.1346],[21.8073,48.9037,301.2786],[21.8013,48.8994,276.393],[21.8,48.8963,221.3959],[21.8009,48.8854,173.1002],[21.7913,48.8738,184.5018],[21.793,48.8639,203.9404],[21.7904,48.854,220.0157],[21.7903,48.8447,201.6906],[21.7972,48.8329,195.0477],[21.7988,48.8219,182.3441],[21.8043,48.8104,204.338],[21.8034,48.8051,196.2002],[21.7925,48.7991,177.9153],[21.7693,48.7958,113.7878],[21.7628,48.7929,112.4554],[21.7611,48.7901,112.4486],[21.7621,48.7807,111.3483],[21.7588,48.7796,112.0715],[21.7351,48.7779,110.9314],[21.713,48.7692,110.6098],[21.6924,48.7689,124.0963],[21.6541,48.7823,210.3055],[21.6281,48.7824,361.5914],[21.5999,48.7869,645.0421],[21.5788,48.7872,660.1005],[21.5481,48.7931,787.2192],[21.5292,48.8107,673.1614],[21.5271,48.8211,685.7043],[21.5179,48.8295,726.6796],[21.4922,48.8431,889.2632],[21.4893,48.8476,878.0521],[21.4876,48.8571,800.0151],[21.472,48.86,653.097],[21.4581,48.8694,544.9844],[21.4404,48.875,409.1811],[21.4273,48.8826,475.2765],[21.4189,48.893,480.2942],[21.4144,48.8911,490.4319],[21.4139,48.8806,453.624],[21.4119,48.8781,425.1516],[21.3924,48.8815,476.8086],[21.3837,48.881,519.6544],[21.3778,48.8783,504.6929],[21.3774,48.8707,475.0265],[21.3872,48.8582,400.1052],[21.3875,48.8551,403.685],[21.3852,48.853,420.1038],[21.3632,48.8465,360.3173],[21.3518,48.8412,288.5761],[21.3204,48.836,220.7331],[21.3081,48.8306,204.6817],[21.2936,48.8302,215.0814],[21.2761,48.8246,257.2499],[21.2693,48.8186,301.788],[21.2591,48.819,312.9023],[21.2509,48.8217,331.5442],[21.2483,48.8249,338.6379],[21.2511,48.8308,396.752],[21.2481,48.8349,402.901],[21.2488,48.8403,370.7582],[21.2474,48.8454,333.3101],[21.2562,48.8541,236.1127],[21.2651,48.8599,211.8961],[21.2662,48.8676,212.0176],[21.2637,48.8709,213.5773],[21.2587,48.8716,212.6725],[21.2504,48.8698,240.9734],[21.2353,48.874,321.7188],[21.2246,48.8725,295.4925],[21.1952,48.8762,459.3712],[21.1876,48.8809,633.9728],[21.1851,48.8907,426.1116],[21.1827,48.8927,415.2663],[21.176,48.8928,479.3863],[21.1663,48.889,462.6654],[21.1607,48.8894,406.8292],[21.1362,48.9024,454.9128],[21.1213,48.9013,507.409],[21.1084,48.9032,439.2339],[21.096,48.8988,635.7842],[21.0832,48.9026,655.0059],[21.0298,48.9069,515.8667],[21.0248,48.9103,572.6961],[21.0223,48.9188,728.4149],[21.013,48.9227,998.4212],[21.0024,48.9355,774.2302],[20.9905,48.9405,774.0848],[20.9784,48.9492,597.9153],[20.9584,48.947,565.4202],[20.9382,48.9503,702.6523],[20.9249,48.9579,639.7196],[20.9008,48.9631,878.6111],[20.8832,48.9698,891.2435],[20.8515,48.9733,602.8072],[20.836,48.9802,571.7587],[20.8126,48.9821,550.3127],[20.8035,48.9865,459.6124],[20.7917,48.989,452.8403],[20.7882,48.9933,472.9822],[20.773,49.0025,488.4099],[20.7663,49.0037,507.4551],[20.7599,49.0026,456.7415],[20.7566,48.9981,437.5302],[20.7589,48.9859,434.1566],[20.7643,48.9771,422.7369],[20.7632,48.9755,461.4355],[20.748,48.9756,421.014],[20.7401,48.9694,459.386],[20.7357,48.9681,494.8054],[20.7214,48.9717,522.3563],[20.7134,48.9719,467.7964],[20.6902,48.9645,490.8751],[20.6714,48.9626,491.333],[20.656,48.9564,545.3417],[20.6434,48.957,540.369],[20.6054,48.9656,608.5404],[20.585,48.981,541.4585],[20.5551,48.9825,522.9695],[20.542,48.9888,540.8284],[20.532,48.9908,533.4735],[20.5247,48.9965,554.4573],[20.5049,49.0048,618.1489],[20.5052,49.013,668.2184],[20.5024,49.0167,631.0095],[20.4978,49.0182,627.2222],[20.4939,49.0173,632.6213],[20.4898,49.0123,657.54],[20.4737,49.0034,554.6111],[20.4732,48.9978,545.1934],[20.4787,48.9906,519.7089],[20.4766,48.9833,512.96],[20.4782,48.9743,499.0135],[20.4752,48.9721,501.1161],[20.47,48.9722,517.188],[20.4663,48.9741,520.8419],[20.4675,48.9829,519.9391],[20.463,48.9866,528.6018],[20.4457,48.9886,527.2705],[20.4178,49.0,586.2511],[20.4125,49.0007,605.7662],[20.4079,48.9985,591.3704],[20.4048,48.9922,565.8646],[20.4014,48.9895,569.813],[20.3866,48.9893,558.7313],[20.3682,48.9836,564.8235],[20.3525,48.9809,594.4318],[20.3331,48.973,775.5845],[20.3009,48.9634,959.5493],[20.2859,48.956,913.1664],[20.2824,48.947,784.3549],[20.2885,48.9436,732.4096],[20.313,48.9374,903.5866],[20.3185,48.9315,764.2397],[20.3183,48.9219,740.0436],[20.3139,48.919,699.0909],[20.2905,48.9152,760.806],[20.2877,48.9109,805.4719],[20.2811,48.9066,884.3224],[20.2791,48.9004,1089.1804],[20.2686,48.8954,1098.6056],[20.2555,48.8805,906.8461],[20.2484,48.879,998.3786],[20.2436,48.8812,970.3692],[20.2395,48.8742,1007.5407],[20.2279,48.8671,963.4807],[20.2171,48.8633,984.7299],[20.2074,48.8416,1050.6705],[20.1904,48.8256,1010.4827],[20.1865,48.8189,1041.6268],[20.1861,48.8118,1061.8013],[20.1819,48.801,1113.3049],[20.1848,48.7828,1051.1383],[20.1716,48.7742,1000.1054],[20.1678,48.7689,1058.588],[20.1694,48.7469,966.2435],[20.1755,48.7381,1122.8812],[20.242,48.7066,740.1559],[20.2697,48.6908,653.1942],[20.2794,48.6817,825.2038],[20.2867,48.6775,640.9785],[20.2911,48.6649,672.9371],[20.2903,48.6556,629.0861],[20.294,48.6439,618.2516],[20.2891,48.6293,482.3601],[20.2902,48.6259,513.4697],[20.3248,48.6191,431.7841],[20.342,48.6124,417.392],[20.3509,48.6053,536.5172],[20.3529,48.595,403.236],[20.3484,48.5887,345.9851],[20.3477,48.5841,317.9694],[20.3436,48.5798,284.3086],[20.3403,48.5648,398.5341],[20.3333,48.5533,270.7042],[20.3263,48.5455,266.7377],[20.3195,48.5406,297.8768],[20.3203,48.5306,269.4673],[20.3175,48.5261,243.2321],[20.3192,48.5186,213.5615],[20.331,48.5073,233.5267],[20.3305,48.5042,240.8365],[20.3242,48.4957,270.2339],[20.3254,48.4919,277.74],[20.3406,48.4907,192.92],[20.3452,48.4857,190.675],[20.3789,48.4853,233.756],[20.396,48.4899,298.6758],[20.4208,48.4935,325.3569],[20.4247,48.4927,351.4071],[20.4296,48.4886,347.3275],[20.4437,48.4876,366.2683],[20.4479,48.4889,336.6985],[20.4571,48.4963,410.7009],[20.4606,48.4969,414.0516],[20.4686,48.495,381.5694],[20.4821,48.4881,369.9091],[20.4858,48.4796,414.4837],[20.4869,48.4802,415.0984],[20.4897,48.4773,414.0144],[20.4955,48.4856,439.2813],[20.5018,48.4896,352.4824],[20.5056,48.5049,512.197],[20.5097,48.5089,476.4285],[20.5074,48.5143,475.8261],[20.5019,48.518,476.9427],[20.5075,48.5331,460.5152],[20.5188,48.5346,498.3562],[20.5364,48.5259,533.1903],[20.5469,48.5459,501.2906],[20.5641,48.5445,490.447],[20.5903,48.5363,444.6281],[20.6069,48.5456,460.8507],[20.6186,48.5445,466.2769],[20.6238,48.5523,396.5417],[20.6326,48.5534,379.1644],[20.6399,48.5591,277.3102],[20.6512,48.5603,429.0073],[20.6566,48.5644,457.9923],[20.6688,48.5645,496.0926],[20.6787,48.5667,549.8115],[20.684,48.5609,495.5328],[20.7071,48.5696,531.9775],[20.7201,48.5712,518.1505],[20.7438,48.5704,545.6099],[20.7424,48.5735,546.8593],[20.7439,48.5771,504.5152],[20.7983,48.5768,439.921],[20.808,48.5742,427.2702],[20.83,48.5837,373.5662],[20.8403,48.5864,225.5483],[20.8495,48.5834,195.7366],[20.8444,48.5663,167.8464],[20.8542,48.5667,210.5046],[20.8624,48.5601,231.8157],[20.8672,48.5536,210.2914],[20.8767,48.5545,228.7441],[20.8783,48.5512,258.0542],[20.9142,48.5613,199.1013],[20.9206,48.5615,212.5559],[20.9288,48.5569,211.4433],[20.9347,48.5483,229.2555],[20.9382,48.5393,279.4093],[20.9424,48.5412,254.7372],[20.9423,48.5359,226.2438],[20.9487,48.5363,219.9188],[20.9592,48.5322,279.6994],[20.9598,48.527,237.7941],[20.9635,48.5233,272.752],[20.9715,48.5229,289.6592],[20.9838,48.5262,291.9456],[20.987,48.5205,291.8076],[20.9957,48.5304,259.435],[21.0121,48.53,308.3678],[21.0181,48.5332,310.4695],[21.0244,48.5333,291.1134],[21.0284,48.5306,278.7373],[21.0533,48.5266,281.0787],[21.0565,48.5247,302.5687],[21.0679,48.5266,298.1315],[21.0757,48.5225,260.9974],[21.084,48.5227,256.3708],[21.0944,48.5201,266.3979],[21.1011,48.5126,291.1795],[21.1013,48.5006,273.2405],[21.1064,48.4943,304.0587],[21.116,48.4925,290.6581],[21.1264,48.4927,315.7086],[21.1378,48.497,321.993],[21.1477,48.5042,272.1106],[21.1559,48.5193,293.465],[21.1608,48.5231,300.4412],[21.1809,48.5219,309.2671],[21.1932,48.5281,239.7179],[21.2034,48.5279,237.3613],[21.2111,48.5327,248.5026],[21.2178,48.5323,270.5768],[21.2226,48.5382,267.09],[21.231,48.5363,269.0862],[21.2344,48.5415,248.879],[21.2435,48.5422,225.8056],[21.251,48.5358,207.9509],[21.2625,48.5304,163.6261],[21.2884,48.527,158.5],[21.3066,48.5286,161.412],[21.3083,48.5325,161.8365],[21.3186,48.536,177.4003],[21.316,48.5409,163.8555],[21.3215,48.5436,179.321],[21.3224,48.5507,166.5964],[21.3196,48.5539,165.9143],[21.3254,48.5536,165.9789],[21.3288,48.5575,166.625],[21.3227,48.5582,166.5454],[21.3193,48.5608,169.8723],[21.323,48.5632,166.4339],[21.3304,48.5652,169.7751],[21.3322,48.5581,180.1019],[21.3637,48.5611,316.1646],[21.3825,48.5587,590.7361],[21.4043,48.5654,529.2004],[21.4113,48.5608,575.9173],[21.4186,48.5608,567.0617],[21.4224,48.564,540.9272],[21.4271,48.581,592.5154],[21.4311,48.5856,659.846],[21.4414,48.5853,757.5132],[21.4493,48.5765,867.1942],[21.4605,48.5759,865.4571],[21.4696,48.57,772.0175],[21.483,48.5661,572.7864],[21.4936,48.5608,478.5482],[21.5007,48.5598,387.9021],[21.5037,48.5565,358.1291],[21.5094,48.5573,311.1856],[21.5202,48.5499,377.5647],[21.5196,48.5393,504.2133],[21.5388,48.5163,353.2214],[21.5454,48.5152,333.9167],[21.5477,48.5115,308.7895],[21.5607,48.5105,331.7136],[21.5665,48.5136,241.4555],[21.5726,48.5068,270.5718],[21.5812,48.5066,269.1895],[21.5981,48.5198,137.7562],[21.6058,48.5125,127.3488],[21.6146,48.5129,125.1707],[21.6177,48.4996,123.0264],[21.6225,48.4903,120.2872],[21.6255,48.4699,117.0312],[21.6338,48.4479,112.9582],[21.6461,48.4403,112.0737],[21.6562,48.4305,109.5115],[21.6668,48.4163,105.1656],[21.6671,48.4073,103.4649],[21.6761,48.3935,100.089],[21.6895,48.3913,99.9202],[21.7033,48.3868,99.142],[21.7098,48.3758,97.6261],[21.71,48.3695,97.6871],[21.7187,48.3668,97.0229],[21.7201,48.3579,97.4138],[21.7329,48.3499,96.4716],[21.7457,48.3504,96.8443],[21.7579,48.3478,96.6217],[21.7734,48.3408,96.5939],[21.8049,48.3419,96.7208],[21.8149,48.3397,96.1712],[21.8285,48.3342,97.3075],[21.8404,48.3355,99.321],[21.8391,48.3593,100.6207],[21.84,48.3649,97.5886],[21.8472,48.3672,95.8782],[21.8602,48.3681,97.6708],[21.8669,48.3544,97.9204],[21.8716,48.3604,98.891],[21.8791,48.3578,98.2766],[21.8821,48.3638,97.8851],[21.8874,48.3684,98.4068],[21.8948,48.3711,97.6594],[21.8934,48.3656,98.4601],[21.9027,48.3658,98.537],[21.9063,48.3708,97.8673],[21.9095,48.3682,98.018],[21.9161,48.3693,98.2837],[21.922,48.3664,98.8912],[21.9331,48.3644,98.6407],[21.9311,48.3748,98.854],[21.9386,48.3725,98.4842],[21.9444,48.3766,98.4553],[21.9501,48.3775,100.5972],[21.9576,48.3829,100.138],[21.9648,48.3798,99.7599],[21.9734,48.3833,99.004],[21.9784,48.3807,98.1713],[21.9975,48.3805,98.0906],[22.0077,48.383,99.9678],[22.0179,48.3881,99.0406],[22.0191,48.3918,99.4474],[22.0251,48.3927,99.1531],[22.0347,48.3858,98.9751],[22.0433,48.3846,99.8098],[22.0521,48.3791,99.1174],[22.0558,48.3797,98.8389],[22.0565,48.3826,99.0184],[22.0681,48.3835,101.5026],[22.0708,48.3869,101.4939],[22.0766,48.3874,101.1166],[22.0815,48.383,101.3355],[22.0835,48.3762,100.6598],[22.088,48.3784,100.8319],[22.0939,48.3844,101.6357],[22.101,48.3795,102.9182],[22.1083,48.3814,102.6383]]]]}
,"properties": {"GID_1": "SVK.3_1","GID_0": "SVK","country": "Slovakia","province": "Košický","VARNAME_1": "Košice","NL_NAME_1": "NA","TYPE_1": "Kraj","ENGTYPE_1": "Region","CC_1": "NA","HASC_1": "SK.KI","ISO_1": "NA","name": "Košický.province","area_km2": 6752.868,"hist_schema_id": "Elevation0-9000","hist_area_km2": {"100": 1412.054,"125": 360.67,"150": 171.563,"175": 258.397,"200": 370.458,"225": 241.564,"250": 193.976,"275": 180.21,"300": 177.422,"325": 169.744,"350": 146.4,"375": 136.178,"400": 143.435,"425": 155.068,"450": 166.957,"475": 177.123,"500": 166.586,"525": 168.608,"550": 176.197,"575": 163.351,"600": 148.183,"625": 129.99,"650": 124.252,"675": 119.65,"700": 109.666,"725": 101.761,"750": 94.982,"775": 89.596,"800": 80.532,"825": 72.366,"850": 66.161,"875": 61.883,"900": 56.794,"925": 50.944,"950": 46.515,"975": 41.002,"1000": 36.969,"1025": 32.1,"1050": 28.188,"1075": 24.35,"1100": 20.485,"1125": 15.754,"1150": 13.381,"1175": 10.895,"1200": 10.952,"1225": 8.367,"1250": 5.908,"1275": 3.66,"1300": 2.989,"1325": 2.57,"1350": 2.165,"1375": 1.886,"1400": 0.936,"1425": 0.405,"1450": 0.419,"1475": 0.252}}}