{"type": "Feature","id": 128473.0,"bbox": [21.954356316021233,48.773749090619077,22.081797722271233,48.818121649212827],"geometry": {"type": "Polygon","coordinates": [[[22.006968620708733,48.810553289837827,137.0723],[22.006968620708733,48.810553289837827,137.0723],[21.993296745708733,48.805670477337827,156.6323],[21.965342644146233,48.798956610150327,134.435],[21.954356316021233,48.782232977337827,112.0],[21.979991081646233,48.773749090619077,112.0],[22.023448112896233,48.782232977337827,112.0],[22.045298698833733,48.789801336712827,112.0],[22.062266472271233,48.797125555462827,112.0],[22.081797722271233,48.812323309369077,119.4488],[22.045909050396233,48.818121649212827,151.3489],[22.006968620708733,48.810553289837827,137.0723]]]}
,"properties": {"name": null,"lge_id": null,"pfafstette": 686445.0,"lke_type": "N","altitude": 109,"objectid": 79643,"scalerank": 12,"featurecla": "Lake","note": "_untitled_79643","funkyname": 0,"min_zoom": 7.0,"min_label": 8.0,"area_km2": 24.69299,"hist_schema_id": "Elevation0-9000","hist_area_km2": {"100": 18.46504,"125": 4.27296,"150": 1.22881,"175": 0.26534,"200": 0.16758,"225": 0.08379,"250": 0.11172,"275": 0.06982,"300": 0.02793}}}