{"type": "Feature","id": "1057","bbox": [20.1805,48.33377,22.3708,49.01458],"geometry": {"type": "Polygon","coordinates": [[[20.64554,48.95169,530.2915],[20.63391,48.95226,540.245],[20.62771,48.95407,496.3039],[20.61547,48.9675,541.7725],[20.61361,48.96998,583.5026],[20.60849,48.97164,617.9097],[20.60022,48.97293,627.714],[20.57929,48.97443,460.2174],[20.55526,48.98378,537.5765],[20.52886,48.99719,580.0827],[20.52358,49.00047,591.4885],[20.52141,49.00342,620.5797],[20.52374,49.01057,643.1895],[20.52296,49.01329,654.9221],[20.51785,49.01458,661.8011],[20.5132,49.01365,685.3095],[20.50529,49.00833,672.555],[20.5025,49.00494,607.7498],[20.50126,49.00176,574.4048],[20.50638,48.99567,577.9458],[20.50669,48.99391,578.7523],[20.50312,48.99257,565.1431],[20.4795,48.98719,536.5785],[20.47671,48.98626,526.4132],[20.47625,48.98474,521.6317],[20.47656,48.98257,512.96],[20.47826,48.97753,501.6361],[20.47997,48.97489,504.3148],[20.48183,48.97319,508.1874],[20.48354,48.97228,508.1874],[20.48462,48.97148,506.4813],[20.48509,48.9704,496.2065],[20.48323,48.97122,499.0386],[20.4795,48.97396,499.0135],[20.46385,48.98874,529.58],[20.44121,48.99892,546.384],[20.43403,49.00001,595.1763],[20.433,49.00125,597.6991],[20.43046,49.00269,574.4735],[20.42798,49.00337,579.8435],[20.42395,49.00202,598.562],[20.40845,48.99215,571.6552],[20.4038,48.9904,558.5758],[20.40054,48.99008,569.813],[20.39837,48.99094,573.0974],[20.39574,48.99078,572.6193],[20.3931,48.9897,568.9926],[20.38613,48.9858,552.3958],[20.34236,48.97303,718.0068],[20.32918,48.9673,803.847],[20.32406,48.96394,820.9781],[20.31145,48.95221,985.452],[20.29967,48.94492,958.4316],[20.29921,48.9428,958.1659],[20.302,48.94068,910.2607],[20.31362,48.93949,951.3707],[20.3267,48.9367,682.8672],[20.34127,48.92448,673.241],[20.31161,48.9119,839.1492],[20.30603,48.90813,1026.7123],[20.29921,48.90149,1042.4508],[20.28742,48.88208,1046.3701],[20.2727,48.87278,886.6534],[20.25001,48.86818,974.8318],[20.20298,48.82157,1228.9932],[20.19864,48.81575,1198.4873],[20.19957,48.81087,1264.7455],[20.19926,48.8078,1340.3606],[20.19864,48.80532,1371.7666],[20.19802,48.79565,1362.5464],[20.19787,48.78782,1276.879],[20.20081,48.77795,1380.9625],[20.20128,48.77273,1338.6545],[20.19709,48.76839,1359.2129],[20.19229,48.76441,1362.5399],[20.18702,48.76111,1387.4108],[20.18361,48.75832,1399.5104],[20.18128,48.75573,1353.9658],[20.1805,48.75129,1249.8352],[20.18082,48.74535,1299.7498],[20.18438,48.73351,1402.8514],[20.18826,48.72741,1256.7283],[20.19616,48.72235,1005.8984],[20.20738,48.7208,1077.6473],[20.20965,48.71989,1016.0502],[20.26102,48.69176,641.0914],[20.26649,48.68439,647.9703],[20.28727,48.64427,544.8686],[20.29409,48.62587,606.0064],[20.29316,48.62406,559.7513],[20.29223,48.62225,481.3318],[20.29176,48.62019,427.6863],[20.29192,48.61791,502.5768],[20.29362,48.61605,504.9382],[20.29735,48.61373,473.0746],[20.30634,48.61062,451.9344],[20.31347,48.60918,488.8469],[20.32437,48.60817,529.1132],[20.32778,48.60742,509.9172],[20.33615,48.60437,532.7644],[20.34499,48.60207,513.3857],[20.34716,48.60096,498.7406],[20.34763,48.59936,454.5417],[20.34484,48.59254,358.5673],[20.34096,48.57954,275.7418],[20.33941,48.57636,356.1277],[20.33755,48.57404,382.699],[20.33491,48.57158,385.744],[20.33228,48.56835,363.8856],[20.32995,48.56468,332.0482],[20.32732,48.55905,377.7157],[20.32003,48.53538,301.0155],[20.31734,48.5313,272.594],[20.31176,48.52567,260.3068],[20.30804,48.52071,220.5277],[20.30541,48.51585,269.1772],[20.30355,48.50949,284.6905],[20.30386,48.50541,307.5987],[20.3051,48.5019,301.3303],[20.30851,48.49725,301.2526],[20.30959,48.49451,315.6937],[20.30975,48.49164,314.4892],[20.30897,48.48911,299.41],[20.30866,48.48655,287.592],[20.31114,48.48337,302.4512],[20.31595,48.48014,283.0729],[20.33352,48.47296,186.2758],[20.33584,48.471,185.7853],[20.33507,48.46939,185.1289],[20.33321,48.46751,184.5095],[20.33197,48.4658,184.2013],[20.33119,48.46423,183.9738],[20.3315,48.46309,183.6805],[20.336,48.46268,184.2805],[20.37822,48.46505,249.9963],[20.39388,48.46363,328.7535],[20.40209,48.46397,328.6268],[20.41946,48.47043,315.818],[20.42674,48.47216,297.343],[20.44865,48.47229,355.0451],[20.4654,48.46407,399.2452],[20.46597,48.46379,399.2452],[20.46824,48.46539,403.0373],[20.48167,48.47875,390.6992],[20.4825,48.48226,441.9707],[20.48291,48.48583,389.7255],[20.48281,48.48937,351.7585],[20.48219,48.49288,347.1902],[20.48023,48.51022,427.8056],[20.48054,48.51854,452.4018],[20.48167,48.52608,454.6473],[20.51051,48.53378,459.1909],[20.57252,48.53657,449.3156],[20.78408,48.56905,415.5828],[20.80031,48.56923,326.5124],[20.81581,48.56381,165.1659],[20.84548,48.54582,220.4913],[20.85995,48.54332,196.1373],[20.89137,48.5411,261.5626],[20.94583,48.51898,255.1238],[20.98149,48.51686,296.7077],[21.0065,48.51815,277.5449],[21.03596,48.51464,248.7212],[21.06386,48.50624,262.4884],[21.08401,48.49301,258.5064],[21.10934,48.48911,306.0172],[21.18675,48.51371,270.6665],[21.21992,48.51872,196.6449],[21.23801,48.51345,156.0748],[21.25041,48.5065,155.9586],[21.26178,48.50319,156.3994],[21.27656,48.50872,163.7813],[21.28824,48.51993,160.3472],[21.29392,48.53058,158.5],[21.3023,48.53991,162.1219],[21.32183,48.54758,165.8161],[21.33857,48.54985,220.0252],[21.37268,48.55035,448.6628],[21.42456,48.56127,587.7767],[21.43914,48.55833,583.71],[21.47273,48.545,588.6072],[21.49081,48.54027,322.2738],[21.499389999999998,48.53507,456.7938],[21.506,48.5265,349.7697],[21.5151,48.50712,370.0858],[21.52182,48.50009,440.6608],[21.53773,48.49523,275.9708],[21.57463,48.49557,195.1102],[21.59168,48.49301,176.9055],[21.60037,48.48164,137.8609],[21.61339,48.44035,159.8187],[21.62155,48.42965,143.9106],[21.67757,48.37235,97.7457],[21.70124,48.35395,97.2013],[21.7277,48.3409,96.7933],[21.75901,48.33377,96.7125],[21.7894,48.33553,97.5484],[21.84118,48.35317,99.3009],[21.88428,48.35746,98.231],[21.91477,48.36909,98.3214],[21.92934,48.37291,98.6171],[21.98153,48.37472,105.0169],[21.99993,48.37896,98.1051],[22.01801,48.37974,97.9864],[22.07786,48.37581,101.2416],[22.09646,48.37943,101.2502],[22.11393,48.38865,103.4648],[22.13284,48.4048,104.3054],[22.13377,48.47684,100.574],[22.14483,48.49311,101.4939],[22.14834,48.50882,103.8717],[22.13666,48.54934,105.5193],[22.13873,48.56959,106.2449],[22.15372,48.58587,104.9074],[22.21904,48.62094,110.1699],[22.22524,48.62822,112.1364],[22.23568,48.64416,110.8223],[22.24322,48.65119,116.6962],[22.25552,48.65677,122.4162],[22.28218,48.66241,208.8587],[22.29428,48.66762,179.8954],[22.3103,48.68168,257.0269],[22.32249,48.70034,295.026],[22.3289,48.72158,486.6103],[22.32766,48.74302,681.0483],[22.33076,48.7564,749.4517],[22.33841,48.76297,879.4978],[22.34781,48.76788,969.1083],[22.3565,48.77615,894.0728],[22.36342,48.78762,838.1001],[22.36569,48.79439,750.7869],[22.36352,48.82829,446.8619],[22.36156,48.83645,398.7868],[22.36228,48.84425,417.9919],[22.3689,48.85645,364.2144],[22.3708,48.85825,375.1321],[22.37014,48.85836,355.4549],[22.3242,48.86627,430.1783],[22.31924,48.86601,442.0988],[22.2935,48.861,497.0353],[22.26058,48.85976,869.8177],[22.25547,48.861,788.066],[22.2519,48.86332,804.9812],[22.25082,48.86839,829.5666],[22.2502,48.87487,793.7957],[22.23485,48.89893,859.1902],[22.23299,48.90366,929.6041],[22.23278,48.90735,939.9897],[22.23175,48.91128,887.713],[22.22844,48.9151,770.2614],[22.21108,48.92172,812.1627],[22.18395,48.92146,842.2381],[22.14669,48.88782,796.3726],[22.12545,48.88182,884.0543],[22.12266,48.87996,857.5706],[22.1192,48.87733,781.6384],[22.11878,48.87516,795.9827],[22.11889,48.87286,780.5778],[22.11971,48.8704,701.5661],[22.12375,48.8612,534.1415],[22.12654,48.85167,348.2031],[22.127,48.84699,282.416],[22.12576,48.84389,265.3738],[22.12375,48.84296,255.4945],[22.12013,48.84237,258.1712],[22.06256,48.84152,332.7881],[22.03264,48.83829,356.4851],[22.01404,48.83862,499.8292],[21.9929,48.84221,458.7244],[21.94732,48.86038,330.1923],[21.94122,48.86399,357.0913],[21.94153,48.86549,360.5781],[21.93905,48.8672,408.1159],[21.93363,48.86942,392.7307],[21.91999,48.87381,454.558],[21.8233,48.89454,183.2832],[21.78563,48.89526,219.899],[21.78454,48.86989,151.8333],[21.78516,48.86803,166.0003],[21.78609,48.86611,177.7512],[21.78671,48.86322,203.1507],[21.78671,48.85004,211.6036],[21.78733,48.84624,202.2381],[21.79152,48.83588,184.8912],[21.79214,48.83387,185.2346],[21.79152,48.82759,195.7257],[21.79198,48.82503,198.482],[21.79338,48.82203,209.9196],[21.79896,48.81325,207.7131],[21.80051,48.80919,179.3963],[21.80066,48.80555,188.2129],[21.79911,48.80121,181.8016],[21.79601,48.79578,175.0695],[21.79198,48.79278,159.6113],[21.7864,48.79056,145.9202],[21.76744,48.78638,111.4525],[21.751,48.77656,111.4063],[21.72821,48.77374,110.5049],[21.7215,48.7716,111.8148],[21.72057,48.77025,111.331],[21.71917,48.76689,111.1792],[21.71762,48.76532,112.7092],[21.71498,48.76385,113.0781],[21.71095,48.76237,113.0307],[21.70537,48.76105,114.574],[21.69747,48.76012,118.1541],[21.68785,48.76082,121.7472],[21.677,48.76317,125.79],[21.65819,48.77237,168.2274],[21.65106,48.77434,190.9289],[21.64284,48.7749,229.7106],[21.62533,48.77436,376.8871],[21.59954,48.77744,707.9048],[21.5367,48.79382,861.306],[21.50771,48.82849,749.0854],[21.50301,48.8332,786.4573],[21.49732,48.84082,872.8693],[21.49417,48.84694,925.4439],[21.49293,48.85699,916.438],[21.49185,48.86188,835.7181],[21.48006,48.88107,649.5711],[21.46596,48.87642,562.0806],[21.46348,48.87474,546.4179],[21.45882,48.8727,529.8881],[21.45076,48.87133,475.9153],[21.44317,48.87208,428.6661],[21.43025,48.8764,437.7905],[21.42591,48.87996,481.9019],[21.42327,48.88317,488.3344],[21.42281,48.88565,507.4816],[21.42157,48.88808,497.5196],[21.41986,48.88818,481.6213],[21.41769,48.88624,444.1361],[21.41661,48.87867,411.6609],[21.41537,48.87469,408.1875],[21.41366,48.8727,435.5153],[21.41102,48.87324,495.8565],[21.40699,48.87629,498.1982],[21.39986,48.88027,450.8894],[21.39614,48.88105,420.7444],[21.39128,48.88094,476.8086],[21.38198,48.87888,526.3575],[21.37842,48.8772,504.6929],[21.37718,48.87536,464.9187],[21.38043,48.87133,437.6031],[21.38167,48.86896,426.1052],[21.38198,48.8658,416.7031],[21.3795,48.85288,440.517],[21.37656,48.8457,425.02],[21.37361,48.84144,426.0777],[21.3702,48.83919,415.939],[21.36648,48.83795,416.5554],[21.36322,48.83733,398.2166],[21.34726,48.83624,261.5429],[21.33547,48.83309,290.3159],[21.33093,48.83258,266.3522],[21.31651,48.83263,208.0067],[21.31139,48.83208,205.4231],[21.30752,48.831,204.6817],[21.30519,48.82922,204.0989],[21.30364,48.8273,203.3891],[21.30287,48.82513,204.5093],[21.30302,48.82304,204.115],[21.30395,48.82103,203.5536],[21.3055,48.81948,200.8629],[21.31031,48.81692,203.5693],[21.31186,48.81575,201.0826],[21.31201,48.81501,203.2982],[21.31108,48.81405,203.2982],[21.30829,48.81327,201.2193],[21.29496,48.81232,225.9738],[21.28287,48.8132,275.2755],[21.27196,48.81687,293.2115],[21.25367,48.82782,367.9794],[21.24282,48.8394,414.4963],[21.24235,48.8419,408.5831],[21.2422,48.84389,375.9479],[21.24313,48.84609,350.2961],[21.24514,48.84823,350.8537],[21.25088,48.85291,281.0061],[21.25243,48.85495,251.7484],[21.25444,48.85676,241.0379],[21.26049,48.86058,211.3491],[21.26189,48.86213,211.8143],[21.2622,48.86363,211.8143],[21.26049,48.86704,212.1707],[21.26003,48.8688,212.6212],[21.25863,48.87007,212.6771],[21.25584,48.87045,212.6912],[21.24964,48.8687,235.7912],[21.24406,48.86849,272.8275],[21.2391,48.86942,284.5144],[21.23228,48.87286,334.9109],[21.2253,48.87495,262.7433],[21.21564,48.8751,465.4991],[21.20106,48.87867,481.312],[21.1806,48.87604,434.2119],[21.17471,48.87774,451.1374],[21.16587,48.88306,397.8278],[21.16101,48.88671,413.3729],[21.15791,48.88957,464.5099],[21.15605,48.89167,423.3773],[21.15326,48.89361,420.252],[21.14954,48.89541,427.3048],[21.14458,48.89733,406.2714],[21.14148,48.89885,472.1233],[21.13776,48.89965,412.5048],[21.13295,48.89986,465.0179],[21.11466,48.89598,591.3338],[21.10996,48.89585,574.5864],[21.09073,48.89748,683.444],[21.0527,48.90596,779.7124],[21.0389,48.9049,659.4347],[21.03611,48.90428,631.6401],[21.03224,48.90373,614.0344],[21.02836,48.90466,509.1026],[21.02433,48.90709,507.0876],[21.01859,48.91285,813.8396],[21.01658,48.91608,903.9711],[21.01549,48.91846,893.1349],[21.01534,48.92012,884.2614],[21.01255,48.92285,992.7322],[20.99596,48.93334,908.3245],[20.99141,48.93779,822.6682],[20.98924,48.94244,720.7376],[20.98955,48.94518,678.0327],[20.98955,48.9475,621.6823],[20.98909,48.95001,593.8739],[20.98645,48.95526,512.5813],[20.98257,48.95665,506.2906],[20.97668,48.95712,478.7085],[20.96304,48.95577,461.5471],[20.95731,48.95443,466.2701],[20.95389,48.95314,442.7809],[20.95312,48.9519,472.312],[20.95172,48.95066,449.399],[20.94723,48.95122,584.2628],[20.91912,48.96339,636.948],[20.89834,48.96549,892.6467],[20.87829,48.97696,986.3862],[20.84667,48.97246,580.0531],[20.84202,48.97277,576.7935],[20.83566,48.97386,519.7639],[20.82419,48.97737,547.143],[20.82103,48.9799,585.666],[20.82088,48.98239,559.7475],[20.82491,48.98528,569.69],[20.82398,48.98724,537.1199],[20.81871,48.98923,552.0861],[20.80305,48.99164,458.5171],[20.77933,48.99866,517.4369],[20.76817,49.00047,591.9761],[20.76533,49.00006,536.8855],[20.76424,48.99732,537.1973],[20.76502,48.99533,490.8652],[20.7675,48.99184,492.1907],[20.76781,48.98941,503.4473],[20.76734,48.98647,485.3828],[20.7661,48.98254,496.992],[20.76564,48.98006,458.6367],[20.76564,48.97825,422.7369],[20.76672,48.97717,455.9377],[20.76848,48.97613,431.8996],[20.77344,48.97381,423.812],[20.7753,48.97262,473.3194],[20.77499,48.97153,507.4931],[20.77323,48.97071,514.4224],[20.76982,48.9698,503.3297],[20.70714,48.97675,485.7764],[20.68885,48.97598,608.7525],[20.68249,48.97474,559.9399],[20.6783,48.97339,563.2054],[20.67722,48.97205,602.5568],[20.67706,48.97055,602.5568],[20.67768,48.96895,586.3498],[20.68047,48.96502,591.953],[20.68094,48.96373,562.9092],[20.68032,48.96275,562.9092],[20.6752,48.95908,498.4988],[20.67241,48.9575,465.9164],[20.66838,48.95582,430.1155],[20.658,48.95267,516.9308],[20.64554,48.95169,530.2915]]]}
,"properties": {"ISO3166-1-Alpha-3": "SVK","country": "Slovakia","fill": "#FF0","name": "Košický","area_km2": 6797.451,"hist_schema_id": "Elevation0-9000","hist_area_km2": {"100": 1401.855,"125": 366.713,"150": 178.285,"175": 267.731,"200": 382.658,"225": 254.924,"250": 207.813,"275": 195.218,"300": 191.263,"325": 175.665,"350": 150.501,"375": 139.268,"400": 142.712,"425": 152.327,"450": 164.702,"475": 175.91,"500": 167.849,"525": 172.156,"550": 175.677,"575": 163.067,"600": 147.842,"625": 129.467,"650": 123.266,"675": 118.79,"700": 108.093,"725": 100.189,"750": 93.395,"775": 88.162,"800": 79.113,"825": 71.142,"850": 64.868,"875": 60.463,"900": 54.661,"925": 49.034,"950": 43.937,"975": 38.102,"1000": 34.222,"1025": 30.147,"1050": 26.361,"1075": 22.661,"1100": 18.67,"1125": 14.26,"1150": 11.957,"1175": 9.653,"1200": 9.541,"1225": 6.998,"1250": 4.805,"1275": 2.808,"1300": 2.123,"1325": 1.844,"1350": 1.397,"1375": 1.369,"1400": 0.741,"1425": 0.405,"1450": 0.419,"1475": 0.252}}}