{"type":"Feature","properties":{"GID_2":"SVK.6.2_1","GID_0":"SVK","country":"Slovakia","GID_1":"SVK.6_1","province":"Trenčiansky","NL_NAME_1":"NA","county":"Ilava","VARNAME_2":"NA","NL_NAME_2":"NA","TYPE_2":"Okres","ENGTYPE_2":"District","CC_2":"302","HASC_2":"SK.TC.IL","name":"Ilava.county"},
"geometry":{"type": "MultiPolygon","coordinates": [[[[18.0828,49.0512,415.459],[18.0843,49.0476,388.0248],[18.0818,49.0312,467.2227],[18.0891,49.0219,552.1841],[18.0828,49.017,292.5681],[18.0913,49.0134,425.457],[18.1086,48.9952,285.0035],[18.1192,48.9782,261.7579],[18.1244,48.9747,228.0824],[18.1366,48.9704,224.3013],[18.1284,48.9526,223.1657],[18.1203,48.9401,225.5819],[18.1204,48.9378,223.4508],[18.1321,48.9316,317.941],[18.138,48.931,292.1846],[18.1432,48.9328,244.9728],[18.1445,48.9384,238.4088],[18.1474,48.9387,239.7112],[18.1625,48.9272,334.194],[18.1655,48.9199,431.0406],[18.1763,48.9154,474.264],[18.1829,48.9157,515.9313],[18.1935,48.9213,618.6107],[18.2035,48.9179,554.1765],[18.219,48.9207,636.4423],[18.2466,48.9196,516.8359],[18.2759,48.9317,798.842],[18.3237,48.931399999999996,687.5629],[18.3223,48.9394,749.473],[18.3254,48.9424,703.6265],[18.3438,48.9383,694.9211],[18.3632,48.9438,764.2263],[18.3756,48.943,839.3582],[18.3999,48.9345,668.3796],[18.4115,48.9169,721.1094],[18.4246,48.9126,680.4216],[18.44,48.9,452.8973],[18.4484,48.9035,633.6215],[18.4524,48.9103,600.4045],[18.4551,48.9122,541.4216],[18.4784,48.9141,694.2782],[18.4829,48.917,636.9999],[18.4873,48.9231,677.4188],[18.4887,48.9367,721.9224],[18.4739,48.9388,907.6467],[18.4624,48.9436,833.6668],[18.4587,48.9489,853.4252],[18.4545,48.9609,844.1036],[18.458,48.968,969.4496],[18.4459,48.9816,770.5142],[18.4362,48.9815,627.1481],[18.4264,48.9744,904.114],[18.4207,48.9726,887.1465],[18.4035,48.973,783.7233],[18.3839,48.9799,769.2391],[18.3698,48.9861,728.5933],[18.3743,48.9902,775.2683],[18.3631,49.0018,493.6314],[18.3548,49.0071,460.44],[18.3431,49.0069,510.0214],[18.3407,49.0124,473.1767],[18.3296,49.0179,547.9309],[18.3206,49.0272,379.2532],[18.304,49.0385,250.6054],[18.2912,49.0515,245.9434],[18.2783,49.0547,264.3602],[18.2674,49.0546,266.3427],[18.2639,49.051,255.0298],[18.2647,49.043,245.5317],[18.2594,49.0423,247.0069],[18.2438,49.0479,263.503],[18.2344,49.056,329.5199],[18.2279,49.0641,354.6494],[18.2193,49.0627,400.975],[18.2095,49.065,316.3496],[18.2059,49.0687,328.1842],[18.2019,49.0826,429.6011],[18.1861,49.0937,530.009],[18.16,49.1192,868.8102],[18.1459,49.1238,700.8185],[18.1426,49.1399,724.8223],[18.1382,49.1436,688.5901],[18.1112,49.1485,717.4148],[18.1077,49.1392,593.6521],[18.118,49.1278,517.1703],[18.1115,49.0941,652.3856],[18.1065,49.081,611.9439],[18.0897,49.0574,401.3987],[18.0828,49.0512,415.459]]]]}}