{"type": "Feature","bbox": [21.7854,49.0929,22.1188,49.3917],"geometry": {"type": "MultiPolygon","coordinates": [[[[21.789,49.3561,688.7658],[21.796,49.3557,616.0163],[21.7978,49.3508,578.6917],[21.8005,49.3484,540.1743],[21.8132,49.3475,488.0808],[21.8178,49.3457,495.6378],[21.8467,49.3126,479.2617],[21.8554,49.3078,558.4232],[21.8709,49.3034,462.9852],[21.8734,49.301,454.5914],[21.8743,49.2966,527.8906],[21.8723,49.2883,550.3483],[21.8621,49.2767,455.7342],[21.8524,49.2681,475.3739],[21.8383,49.261,557.7285],[21.840699999999998,49.2463,481.0473],[21.8349,49.2312,456.244],[21.8294,49.2243,401.4008],[21.828,49.2145,349.184],[21.8231,49.2123,343.4908],[21.8082,49.2122,319.0494],[21.799,49.2104,381.2506],[21.796,49.2079,437.024],[21.7928,49.2,488.9493],[21.7854,49.1959,498.5654],[21.8124,49.1408,474.4936],[21.8183,49.1317,410.0829],[21.8317,49.122,222.1317],[21.8474,49.1147,250.1564],[21.8622,49.1123,407.8352],[21.8792,49.1122,408.914],[21.8825,49.1084,453.2812],[21.8846,49.098,486.0023],[21.8884,49.0936,540.2468],[21.894,49.0929,507.1461],[21.9051,49.103,461.2495],[21.9153,49.1059,293.1423],[21.9286,49.1053,282.3362],[21.9422,49.0957,209.6367],[21.9488,49.0942,206.9914],[21.9549,49.095,259.519],[21.9622,49.101,395.1473],[21.9644,49.1203,397.9472],[21.9679,49.1247,385.0589],[21.9884,49.1272,288.4656],[22.0184,49.1275,390.6752],[22.0306,49.1364,589.7166],[22.0406,49.1404,672.9749],[22.0567,49.1437,524.0344],[22.0851,49.1563,495.0531],[22.0881,49.1599,446.5349],[22.0868,49.1673,491.9906],[22.0932,49.1741,513.7777],[22.1001,49.1852,641.2688],[22.1104,49.1926,608.7999],[22.1157,49.201,852.0396],[22.1188,49.201,849.7095],[22.1049,49.2052,871.6127],[22.078,49.2088,789.5734],[22.0675,49.2122,764.7773],[22.0677,49.2155,706.368],[22.054,49.2158,770.943],[22.0542,49.2203,731.1531],[22.0473,49.2205,747.7265],[22.0475,49.225,684.9604],[22.0407,49.2251,694.7675],[22.0424,49.2657,634.1013],[22.0356,49.2658,680.8329],[22.0363,49.2839,670.1857],[22.0295,49.284,698.8493],[22.0297,49.2885,652.3306],[22.0228,49.2886,677.1476],[22.023,49.2932,638.2644],[22.0162,49.2933,651.9431],[22.0164,49.2978,681.6216],[22.0095,49.2979,681.0513],[22.0097,49.3024,724.9802],[22.0028,49.3026,707.0004],[22.003,49.3071,651.0923],[21.9962,49.3072,709.7616],[21.9964,49.3117,728.3994],[21.9895,49.3119,755.9098],[21.9899,49.3209,707.5704],[21.983,49.321,717.3256],[21.9836,49.3345,712.5997],[21.9767,49.3347,784.338],[21.9771,49.3437,775.7902],[21.9702,49.3438,791.4689],[21.9704,49.3483,781.5485],[21.9524,49.3501,830.058],[21.9503,49.3487,821.2853],[21.9361,49.349,769.1519],[21.9363,49.3535,768.1769],[21.918,49.3542,698.6199],[21.9079,49.3533,685.5194],[21.9038,49.35,740.8403],[21.9004,49.3541,746.0891],[21.8918,49.3586,674.1905],[21.8893,49.3623,690.7104],[21.891,49.3644,697.9965],[21.8873,49.369,703.5465],[21.8755,49.3736,714.391],[21.8615,49.3729,690.6533],[21.8619,49.3819,643.3221],[21.855,49.382,681.3522],[21.8552,49.3865,684.4296],[21.8483,49.3867,714.6251],[21.8485,49.3912,668.5468],[21.8383,49.3917,771.2704],[21.8258,49.3908,821.7601],[21.8174,49.3843,710.5236],[21.8069,49.3829,736.7465],[21.8069,49.3815,745.608],[21.803,49.3822,761.6235],[21.8021,49.3804,732.0024],[21.7969,49.3785,657.0222],[21.7951,49.374,630.8972],[21.7918,49.3727,581.6255],[21.7878,49.3677,607.5728],[21.7908,49.3606,641.9253],[21.7885,49.3582,690.8035],[21.789,49.3561,688.7658]]]]}
,"properties": {"GID_2": "SVK.5.5_1","GID_0": "SVK","country": "Slovakia","GID_1": "SVK.5_1","province": "Prešovský","NL_NAME_1": "NA","county": "Medzilaborce","VARNAME_2": "NA","NL_NAME_2": "NA","TYPE_2": "Okres","ENGTYPE_2": "District","CC_2": "705","HASC_2": "SK.PV.ML","name": "Medzilaborce.county","area_km2": 437.6291,"hist_schema_id": "Elevation0-9000","hist_area_km2": {"200": 1.2215,"225": 6.798,"250": 10.4425,"275": 16.859,"300": 20.7941,"325": 26.0836,"350": 31.1206,"375": 35.4379,"400": 36.3704,"425": 35.0747,"450": 31.7458,"475": 28.4729,"500": 23.5703,"525": 21.798,"550": 20.3418,"575": 18.0553,"600": 14.3439,"625": 11.8396,"650": 11.1741,"675": 11.1185,"700": 8.6682,"725": 6.1102,"750": 4.7829,"775": 2.9726,"800": 1.3682,"825": 0.8016,"850": 0.1522,"875": 0.097,"900": 0.0139}}}