{"type": "Feature","bbox": [19.5752,48.3513,19.9274,48.6516],"geometry": {"type": "MultiPolygon","coordinates": [[[[19.6705,48.6242,1032.7292],[19.7003,48.614,1015.0829],[19.7166,48.6027,777.4778],[19.7157,48.5997,844.7431],[19.708,48.5984,758.7538],[19.7054,48.5963,811.9703],[19.7063,48.5938,818.0195],[19.7129,48.5907,696.5377],[19.7133,48.5888,677.5338],[19.6935,48.574,747.6868],[19.6725,48.5763,954.1421],[19.6464,48.5683,781.7213],[19.6379,48.5676,809.2051],[19.6371,48.5647,786.726],[19.6404,48.5612,804.438],[19.637,48.5583,845.0124],[19.639,48.5546,775.8536],[19.6318,48.5515,821.1498],[19.6301,48.5463,894.8759],[19.6237,48.5388,846.6688],[19.6222,48.531,818.2267],[19.6206,48.5295,816.188],[19.6153,48.5313,798.2841],[19.6091,48.5413,895.3912],[19.6031,48.5444,847.8781],[19.5752,48.5428,854.8792],[19.5833,48.5293,849.6561],[19.584,48.5183,700.0895],[19.5913,48.5122,701.0214],[19.5939,48.5076,516.3512],[19.5901,48.495,366.6952],[19.5926,48.4891,457.6004],[19.5978,48.4841,627.5033],[19.5982,48.4809,608.1341],[19.5959,48.4765,542.1189],[19.5885,48.4709,501.4475],[19.5889,48.4672,503.2317],[19.6053,48.4579,432.385],[19.6091,48.4473,376.4105],[19.6287,48.4394,377.0697],[19.6452,48.4365,347.0768],[19.6659,48.4282,298.7578],[19.6762,48.4205,282.7527],[19.6827,48.4096,249.7381],[19.6819,48.4077,240.6861],[19.6779,48.4072,237.3985],[19.6663,48.412,248.5284],[19.6609,48.4124,262.6135],[19.6489,48.412,342.0198],[19.6425,48.4099,304.3979],[19.6399,48.4074,253.4499],[19.6402,48.3932,275.791],[19.637,48.3866,231.6145],[19.6376,48.3848,241.3965],[19.6634,48.389,224.5854],[19.6656,48.387,222.7959],[19.6662,48.3792,227.9553],[19.6713,48.3733,228.0491],[19.6758,48.3697,216.8335],[19.6828,48.3673,203.3641],[19.6901,48.3684,193.4684],[19.6949,48.3738,226.9296],[19.6991,48.3758,244.695],[19.709,48.3739,220.7423],[19.7265,48.3736,202.1033],[19.7351,48.3686,195.141],[19.7313,48.3636,206.4559],[19.7315,48.3611,205.4034],[19.7436,48.3557,202.507],[19.7494,48.3554,197.1712],[19.7562,48.359,190.3357],[19.7631,48.36,192.0426],[19.7674,48.3581,189.3083],[19.7712,48.3518,187.378],[19.7749,48.3513,187.2453],[19.7848,48.3543,269.8405],[19.7945,48.3626,257.5473],[19.8095,48.3635,222.6269],[19.818,48.3622,218.3691],[19.8476,48.3516,192.5352],[19.8581,48.3556,192.6146],[19.858,48.3619,198.8824],[19.8611,48.3651,195.8239],[19.8615,48.3679,200.4661],[19.8576,48.3721,201.2322],[19.8426,48.3788,224.534],[19.8353,48.3863,268.0229],[19.8314,48.3955,253.1857],[19.8377,48.4041,274.6466],[19.8518,48.4052,251.2682],[19.8691,48.3996,235.1614],[19.8916,48.3964,207.7292],[19.9057,48.403,271.3859],[19.9182,48.4058,297.8284],[19.9151,48.4216,302.4156],[19.9149,48.4322,298.653],[19.9185,48.436,325.7764],[19.926,48.4383,303.5847],[19.9274,48.4404,317.2379],[19.922,48.4451,303.0983],[19.9144,48.4454,303.0633],[19.9025,48.4485,320.9417],[19.8949,48.4562,317.4648],[19.8934,48.465,365.9269],[19.8992,48.4744,376.3779],[19.8965,48.4789,439.3041],[19.8961,48.4859,468.9622],[19.883,48.4929,443.9921],[19.8795,48.5014,448.2974],[19.8647,48.5098,481.598],[19.8421,48.5304,609.6436],[19.839,48.5308,615.3563],[19.8318,48.5275,503.4698],[19.8238,48.5273,437.7269],[19.8179,48.5302,500.6046],[19.821,48.5475,385.0625],[19.8297,48.5574,370.0413],[19.8337,48.5588,368.4462],[19.8383,48.5582,370.2957],[19.8466,48.5514,319.2645],[19.8494,48.5507,314.4598],[19.8563,48.5603,441.1309],[19.8663,48.5625,466.7157],[19.8705,48.565,530.9465],[19.8713,48.5806,651.6772],[19.8556,48.5967,647.922],[19.8316,48.6046,903.616],[19.8248,48.6111,749.7059],[19.8183,48.6224,559.3998],[19.7992,48.6336,573.8891],[19.7867,48.6347,758.4425],[19.7808,48.6439,613.1686],[19.7525,48.651,895.8543],[19.747,48.6516,1064.917],[19.7178,48.6441,788.4529],[19.6892,48.6332,831.5935],[19.6705,48.6242,1032.7292]]]]}
,"properties": {"GID_2": "SVK.1.7_1","GID_0": "SVK","country": "Slovakia","GID_1": "SVK.1_1","province": "Banskobystrický","NL_NAME_1": "NA","county": "Poltár","VARNAME_2": "NA","NL_NAME_2": "NA","TYPE_2": "Okres","ENGTYPE_2": "District","CC_2": "607","HASC_2": "SK.BC.PT","name": "Poltár.county","area_km2": 509.2274,"hist_schema_id": "Elevation0-9000","hist_area_km2": {"175": 0.0564,"200": 19.0126,"225": 43.0413,"250": 54.907,"275": 40.0222,"300": 30.8243,"325": 25.3055,"350": 23.8088,"375": 18.9135,"400": 16.0149,"425": 14.3972,"450": 15.8564,"475": 14.7592,"500": 15.137,"525": 13.1701,"550": 13.1406,"575": 13.4761,"600": 12.8147,"625": 11.4236,"650": 11.2119,"675": 10.9724,"700": 10.9166,"725": 10.9016,"750": 11.1822,"775": 10.0031,"800": 9.3157,"825": 8.614,"850": 7.7442,"875": 6.846,"900": 5.6673,"925": 3.0852,"950": 1.9205,"975": 1.7101,"1000": 0.925,"1025": 0.7568,"1050": 0.5606,"1075": 0.4204,"1100": 0.3364,"1125": 0.0561}}}