{"type": "Feature","bbox": [19.8757,48.4166,20.4917,48.8181],"geometry": {"type": "MultiPolygon","coordinates": [[[[20.4917,48.479,453.3133],[20.4897,48.4773,414.0144],[20.4869,48.4802,415.0984],[20.4858,48.4796,414.4837],[20.4812,48.4887,385.4287],[20.4686,48.495,381.5694],[20.4606,48.4969,414.0516],[20.4571,48.4963,410.7009],[20.4479,48.4889,336.6985],[20.4423,48.4875,358.2978],[20.4296,48.4886,347.3275],[20.4247,48.4927,351.4071],[20.4208,48.4935,325.3569],[20.396,48.4899,298.6758],[20.3789,48.4853,233.756],[20.3473,48.4855,190.62],[20.3437,48.4866,190.7887],[20.3406,48.4907,192.92],[20.3254,48.4919,277.74],[20.3242,48.4957,270.2339],[20.3305,48.5042,240.8365],[20.331,48.5073,233.5267],[20.318,48.5207,213.6785],[20.3175,48.5261,243.2321],[20.3203,48.5306,269.4673],[20.3193,48.5401,301.3829],[20.3333,48.5533,270.7042],[20.3403,48.5648,398.5341],[20.3436,48.5798,284.3086],[20.3477,48.5841,317.9694],[20.3484,48.5887,345.9851],[20.3529,48.595,403.236],[20.3509,48.6053,536.5172],[20.342,48.6124,417.392],[20.3248,48.6191,431.7841],[20.2902,48.6259,513.4697],[20.2891,48.6293,482.3601],[20.294,48.6439,618.2516],[20.2903,48.6556,629.0861],[20.2911,48.6649,672.9371],[20.2862,48.678,658.8973],[20.2794,48.6817,825.2038],[20.2697,48.6908,653.1942],[20.242,48.7066,740.1559],[20.2005,48.7252,959.5974],[20.1738,48.7394,1101.4779],[20.1694,48.7469,966.2435],[20.1678,48.7689,1058.588],[20.1716,48.7742,1000.1054],[20.1848,48.7828,1051.1383],[20.1818,48.7984,1090.3167],[20.1723,48.7984,1153.3363],[20.1541,48.8029,975.2635],[20.1377,48.7924,975.7501],[20.1326,48.791,945.0759],[20.1305,48.792,916.4854],[20.1284,48.7963,964.6639],[20.1251,48.7978,938.6505],[20.108,48.7948,901.9779],[20.0884,48.7978,1077.5315],[20.0796,48.8022,1092.3406],[20.0776,48.8119,939.1587],[20.0716,48.816,768.1833],[20.061,48.8152,775.6439],[20.046,48.8095,824.45],[20.04,48.817,793.9968],[20.0211,48.8181,896.3342],[20.0068,48.8162,932.6129],[19.9914,48.8025,1113.675],[19.9736,48.7979,1102.4395],[19.9627,48.7974,1011.2385],[19.9544,48.7925,828.251],[19.9348,48.7924,812.9191],[19.9272,48.7953,929.7725],[19.9193,48.7961,1105.9515],[19.9035,48.7915,1349.8087],[19.8824,48.7944,1249.1565],[19.8772,48.7906,1357.3806],[19.8757,48.786,1387.9891],[19.8993,48.7736,1145.7939],[19.9143,48.767,1030.9911],[19.9356,48.7651,926.0823],[19.9419,48.763,915.2264],[19.9537,48.7534,1111.7029],[19.9561,48.7479,1073.8547],[19.9573,48.7257,924.1703],[19.9478,48.7191,775.7677],[19.947,48.7169,647.5109],[19.9498,48.7153,638.5244],[19.9633,48.715,1112.7141],[19.9907,48.7038,594.3269],[19.9904,48.7007,665.7083],[19.9856,48.6926,626.9609],[19.986,48.6832,854.9886],[19.9966,48.675,891.8485],[19.9993,48.668,1025.9708],[20.0004,48.6564,1099.6908],[20.0192,48.6462,750.3714],[20.029,48.6372,761.4936],[20.0272,48.634,895.7758],[20.0182,48.6301,903.3806],[20.0177,48.6276,871.6135],[20.0512,48.6151,459.9963],[20.0547,48.6118,444.5927],[20.058,48.6022,542.5948],[20.061,48.599,595.9794],[20.0654,48.5971,556.745],[20.0781,48.5956,543.8289],[20.0832,48.5881,390.0956],[20.0963,48.5844,308.3947],[20.1047,48.5772,355.9654],[20.1074,48.5668,308.9041],[20.1061,48.564,267.3215],[20.0817,48.5593,498.5357],[20.0781,48.5444,488.7913],[20.0845,48.5367,418.0536],[20.1005,48.5309,381.5082],[20.1056,48.5307,316.1203],[20.1094,48.5358,312.3716],[20.11,48.5404,382.508],[20.1139,48.5476,338.9379],[20.1258,48.5538,327.1385],[20.1378,48.5526,384.6084],[20.1534,48.5461,402.1205],[20.1556,48.5423,394.1979],[20.1495,48.5329,314.9777],[20.1477,48.523,327.5879],[20.1481,48.5158,318.8069],[20.151,48.5095,432.7762],[20.1552,48.5074,439.3426],[20.1746,48.504,275.9195],[20.2176,48.4887,246.6923],[20.2199,48.4857,254.6287],[20.2223,48.4711,244.9602],[20.2334,48.4677,244.5367],[20.238,48.4588,246.8598],[20.2556,48.4564,206.3041],[20.262,48.4438,223.4709],[20.2704,48.439,188.2932],[20.2886,48.4353,182.671],[20.3008,48.4366,272.469],[20.3093,48.4179,174.5129],[20.3227,48.4166,182.7295],[20.3697,48.4205,315.1967],[20.3937,48.4264,304.26],[20.4009,48.4306,274.2951],[20.405,48.4396,250.5792],[20.4106,48.446,335.0949],[20.4303,48.455,330.583],[20.4366,48.4564,306.985],[20.4638,48.4572,354.3189],[20.4676,48.4557,384.0547],[20.4651,48.4632,387.1515],[20.4852,48.4714,340.1136],[20.4917,48.479,453.3133]]]]}
,"properties": {"GID_2": "SVK.1.8_1","GID_0": "SVK","country": "Slovakia","GID_1": "SVK.1_1","province": "Banskobystrický","NL_NAME_1": "NA","county": "Revúca","VARNAME_2": "NA","NL_NAME_2": "NA","TYPE_2": "Okres","ENGTYPE_2": "District","CC_2": "608","HASC_2": "SK.BC.RA","name": "Revúca.county","area_km2": 735.096,"hist_schema_id": "Elevation0-9000","hist_area_km2": {"175": 16.539,"200": 22.0826,"225": 34.5951,"250": 48.0009,"275": 62.3775,"300": 51.2259,"325": 40.2887,"350": 36.9447,"375": 30.9989,"400": 26.7673,"425": 24.4652,"450": 23.705,"475": 22.3861,"500": 19.678,"525": 17.3225,"550": 14.7154,"575": 13.0745,"600": 11.6589,"625": 11.3646,"650": 11.6148,"675": 11.1104,"700": 11.5019,"725": 11.6264,"750": 9.7792,"775": 9.6239,"800": 9.819,"825": 9.0624,"850": 8.544,"875": 8.4729,"900": 8.1501,"925": 8.5269,"950": 7.4361,"975": 7.4775,"1000": 8.5248,"1025": 8.0637,"1050": 8.6497,"1075": 9.0969,"1100": 8.1185,"1125": 5.8135,"1150": 5.1287,"1175": 5.1704,"1200": 4.7646,"1225": 2.99,"1250": 1.9142,"1275": 1.5649,"1300": 1.495,"1325": 1.0059,"1350": 0.9362,"1375": 0.5729,"1400": 0.3355,"1425": 0.014}}}