{"type": "Feature","bbox": [16.8346,48.2367,17.368,48.6557],"geometry": {"type": "MultiPolygon","coordinates": [[[[17.3414,48.6492,210.8785],[17.3284,48.6524,190.4848],[17.3229,48.6557,188.1615],[17.3188,48.6551,189.9939],[17.2864,48.6223,237.6305],[17.2657,48.6066,254.3729],[17.2634,48.5948,231.7957],[17.2579,48.592,231.4991],[17.2363,48.586,245.7094],[17.2346,48.5838,245.0492],[17.2339,48.5753,248.5877],[17.2186,48.5701,240.2648],[17.1721,48.564,232.1857],[17.1461,48.5567,225.587],[17.1045,48.5561,196.6952],[17.0923,48.5568,200.8745],[17.0845,48.5612,196.0641],[17.0768,48.5574,193.8498],[17.0688,48.5579,184.7559],[17.0525,48.5628,160.0332],[17.031,48.5734,158.4381],[17.0262,48.5742,168.3234],[17.0237,48.573,160.7663],[17.0236,48.5707,152.8127],[17.0346,48.5599,156.9006],[17.0349,48.5579,157.6358],[17.0333,48.5565,160.3001],[17.0288,48.5563,169.4259],[17.0234,48.5593,178.0011],[17.0178,48.5603,177.3096],[16.9895,48.5591,168.0117],[16.9796,48.5567,149.9137],[16.9716,48.5505,149.1643],[16.9522,48.5481,149.3515],[16.955,48.5454,173.1877],[16.9549,48.5428,164.3143],[16.9502,48.5341,158.1157],[16.9416,48.5275,163.3568],[16.9448,48.5224,173.4622],[16.9226,48.5206,151.9753],[16.921,48.5186,151.2512],[16.9234,48.514,152.703],[16.915,48.5122,149.3416],[16.9152,48.5014,146.4446],[16.9185,48.4981,167.673],[16.9183,48.496,166.6796],[16.9126,48.4952,147.3091],[16.9062,48.499,160.2423],[16.8974,48.4971,148.0007],[16.8912,48.4922,146.9913],[16.8975,48.4868,151.6909],[16.8962,48.4842,146.472],[16.8917,48.4817,145.5515],[16.8913,48.4769,155.2076],[16.8819,48.4779,148.9589],[16.8751,48.468,144.7514],[16.8664,48.4661,148.8727],[16.8608,48.4599,146.4775],[16.8652,48.4562,148.6434],[16.8644,48.4536,157.4366],[16.8605,48.4517,147.061],[16.854,48.4517,147.3668],[16.8511,48.4494,145.3874],[16.8532,48.4349,148.6592],[16.8592,48.4255,150.8274],[16.8649,48.4202,145.5266],[16.8518,48.4105,147.8238],[16.8522,48.4062,146.9518],[16.8572,48.3967,154.2037],[16.8518,48.3912,146.1911],[16.8517,48.3837,142.7585],[16.8463,48.3823,147.7678],[16.8385,48.3844,143.7218],[16.8346,48.3819,142.8526],[16.8351,48.3796,141.7528],[16.8424,48.3722,147.9519],[16.8405,48.3651,145.931],[16.8445,48.3591,143.1201],[16.8445,48.3519,150.2571],[16.8527,48.3484,149.4316],[16.8612,48.3498,150.2983],[16.8681,48.3484,150.2801],[16.8747,48.3492,159.2493],[16.8765,48.346,139.9632],[16.8707,48.3414,157.0458],[16.8729,48.3385,142.3468],[16.8832,48.3363,157.7452],[16.8904,48.3325,143.4582],[16.8958,48.3319,140.566],[16.9101,48.3265,144.7059],[16.91,48.3234,144.1479],[16.9055,48.3189,145.3831],[16.8978,48.3154,146.0628],[16.8959,48.3107,143.7626],[16.8998,48.3053,161.1776],[16.9016,48.2989,144.7769],[16.907,48.2946,160.9624],[16.9089,48.2888,144.9678],[16.9205,48.2786,138.3856],[16.9213,48.2743,137.712],[16.9244,48.2725,139.4372],[16.9478,48.2707,139.579],[16.9784,48.2524,168.1246],[17.0078,48.2486,156.0978],[17.0269,48.2505,162.304],[17.051,48.2421,193.942],[17.0599,48.2367,295.9025],[17.0633,48.238,310.0295],[17.0662,48.2474,253.8238],[17.0687,48.2493,264.8171],[17.1034,48.2467,437.5696],[17.1204,48.2479,421.2047],[17.1389,48.2619,543.5375],[17.1488,48.279,452.3582],[17.1485,48.2831,476.4152],[17.1403,48.2958,589.7049],[17.1388,48.3032,510.9993],[17.14,48.3083,508.8965],[17.1443,48.3134,527.8004],[17.1572,48.3142,565.075],[17.1629,48.3163,575.2231],[17.1721,48.3266,578.186],[17.1712,48.3359,609.0172],[17.1857,48.3437,517.15],[17.1859,48.3466,536.2985],[17.1818,48.353,429.4556],[17.1812,48.3572,530.4122],[17.1885,48.3682,481.6946],[17.1915,48.3781,598.7914],[17.1984,48.3817,556.8369],[17.2157,48.3826,679.8551],[17.2228,48.3844,538.4042],[17.2292,48.3815,696.5873],[17.2328,48.3824,586.2584],[17.2329,48.3942,591.3503],[17.2433,48.398,585.4015],[17.2496,48.4072,532.0358],[17.2473,48.4156,550.7706],[17.2491,48.4227,489.7623],[17.2535,48.4263,481.9003],[17.2527,48.4307,558.9756],[17.2574,48.4317,553.5466],[17.2665,48.4292,492.3464],[17.2715,48.4297,507.4118],[17.2841,48.4382,479.6471],[17.2962,48.4508,471.925],[17.3114,48.4558,440.2747],[17.3012,48.4612,460.9103],[17.295,48.4676,582.0042],[17.2926,48.4737,595.912],[17.2937,48.4821,472.959],[17.3031,48.4878,474.6534],[17.3238,48.4936,425.5344],[17.3407,48.5084,422.6846],[17.3258,48.5182,358.0399],[17.3229,48.5237,294.889],[17.3045,48.5263,219.065],[17.2982,48.5346,202.581],[17.2659,48.5497,235.55],[17.2616,48.5538,236.2798],[17.2687,48.5605,231.272],[17.2864,48.5678,244.8544],[17.2942,48.5734,247.5392],[17.3087,48.5852,230.8364],[17.313,48.5938,240.7765],[17.3159,48.5963,236.2717],[17.3248,48.5992,234.9214],[17.3437,48.6008,226.6445],[17.3627,48.6161,212.3966],[17.368,48.6244,214.4741],[17.3657,48.6308,209.9348],[17.3496,48.648,192.2478],[17.3414,48.6492,210.8785]]]]}
,"properties": {"GID_2": "SVK.2.6_1","GID_0": "SVK","country": "Slovakia","GID_1": "SVK.2_1","province": "Bratislavský","NL_NAME_1": "NA","county": "Malacky","VARNAME_2": "NA","NL_NAME_2": "NA","TYPE_2": "Okres","ENGTYPE_2": "District","CC_2": "106","HASC_2": "SK.BL.MA","name": "Malacky.county","area_km2": 915.8158,"hist_schema_id": "Elevation0-9000","hist_area_km2": {"125": 0.0282,"150": 283.2939,"175": 131.6079,"200": 166.6211,"225": 119.4477,"250": 55.9349,"275": 16.8003,"300": 13.0839,"325": 12.9863,"350": 12.4499,"375": 11.5052,"400": 12.3785,"425": 12.5647,"450": 13.6072,"475": 12.5227,"500": 12.5523,"525": 10.397,"550": 7.6053,"575": 4.1106,"600": 2.6602,"625": 1.6887,"650": 0.8581,"675": 0.5346,"700": 0.2672,"725": 0.2392,"750": 0.0704}}}