{"type":"Feature","properties":{"GID_2":"SVK.4.2_1","GID_0":"SVK","country":"Slovakia","GID_1":"SVK.4_1","province":"Nitriansky","NL_NAME_1":"NA","county":"Levice","VARNAME_2":"NA","NL_NAME_2":"NA","TYPE_2":"Okres","ENGTYPE_2":"District","CC_2":"402","HASC_2":"SK.NI.LV","name":"Levice.county"},
"geometry":{"type": "MultiPolygon","coordinates": [[[[19.0125,48.0779,157.3174],[19.014,48.0892,245.1939],[19.0201,48.0968,187.1436],[19.0295,48.1005,231.6081],[19.0354,48.1107,354.7324],[19.0513,48.1225,368.0095],[19.0482,48.1487,473.2157],[19.0414,48.177,440.6877],[19.0438,48.1799,360.1482],[19.0566,48.1839,442.2126],[19.0556,48.1942,434.6799],[19.0451,48.1971,191.737],[19.0135,48.1903,273.6182],[19.0004,48.1835,360.3297],[18.9939,48.1774,344.0264],[18.9696,48.1678,162.4343],[18.939,48.1649,243.4933],[18.9287,48.16,248.0448],[18.8964,48.1557,203.0491],[18.8649,48.1545,138.5425],[18.827,48.1691,158.2019],[18.8059,48.1682,245.0192],[18.7932,48.1734,197.082],[18.791,48.1781,231.2383],[18.7958,48.186,210.0212],[18.8144,48.1953,162.2412],[18.8156,48.1978,160.7754],[18.8147,48.2037,182.1797],[18.808,48.2092,204.0116],[18.8042,48.2161,261.2947],[18.7973,48.2214,287.6945],[18.7936,48.2269,318.1931],[18.7936,48.233,319.6389],[18.8023,48.2385,337.6629],[18.7961,48.2445,356.7038],[18.795,48.2498,360.9566],[18.8003,48.2565,366.3158],[18.8065,48.2606,421.1187],[18.8205,48.2629,414.0723],[18.8251,48.2662,437.3548],[18.8262,48.2704,481.7518],[18.8244,48.2815,563.2455],[18.8387,48.2964,526.0617],[18.8401,48.3061,510.1072],[18.8343,48.3147,459.9467],[18.8224,48.3169,406.8596],[18.8136,48.3252,392.5112],[18.8114,48.3375,488.2759],[18.8014,48.3449,453.9252],[18.7984,48.3498,390.229],[18.7965,48.3707,477.0432],[18.7705,48.3794,407.0429],[18.7676,48.382,394.0203],[18.7675,48.388,451.5612],[18.7626,48.3923,584.0961],[18.7448,48.4034,606.2399],[18.732,48.4075,543.1606],[18.7176,48.4066,439.1667],[18.7078,48.4029,516.4421],[18.7006,48.3957,483.1253],[18.6853,48.3873,416.6447],[18.6775,48.3795,448.5927],[18.6668,48.3635,541.1302],[18.6566,48.354,592.2697],[18.6466,48.3465,549.1681],[18.6362,48.3432,570.4187],[18.6164,48.3407,504.1639],[18.6034,48.3407,490.6946],[18.5901,48.3374,403.2704],[18.5748,48.3375,285.3603],[18.5676,48.3394,210.9963],[18.5553,48.3383,231.4145],[18.5497,48.3343,238.7993],[18.5467,48.3266,181.9573],[18.537,48.3204,179.7609],[18.5243,48.323,193.8039],[18.5093,48.3319,214.0031],[18.4949,48.3284,227.2708],[18.4787,48.3309,246.3103],[18.4662,48.3291,241.996],[18.4625,48.3253,228.5989],[18.4648,48.3181,215.4839],[18.4625,48.3108,233.8508],[18.4678,48.3035,251.3682],[18.4674,48.2987,281.1397],[18.4651,48.2957,258.133],[18.4554,48.2912,263.4097],[18.4539,48.289,263.5561],[18.4575,48.2832,224.1294],[18.4653,48.2779,222.7029],[18.465,48.274,235.1893],[18.4589,48.2738,253.644],[18.4441,48.2792,288.2614],[18.43,48.2871,227.7479],[18.4253,48.2879,221.8708],[18.4107,48.2878,190.0037],[18.3916,48.2779,202.7432],[18.3922,48.2735,225.8267],[18.3978,48.269,254.0724],[18.4016,48.2627,257.3553],[18.4117,48.2565,227.815],[18.4258,48.2428,182.616],[18.4303,48.2377,202.7248],[18.4296,48.2348,224.373],[18.418,48.2316,181.8641],[18.4122,48.2237,200.2819],[18.4081,48.2206,219.2633],[18.4021,48.2187,194.1415],[18.3917,48.2184,226.0809],[18.3823,48.2123,216.167],[18.3526,48.2188,180.0634],[18.3439,48.2162,159.2544],[18.3404,48.213,186.3346],[18.3387,48.2087,192.9065],[18.3393,48.2047,180.8476],[18.3488,48.1958,185.1984],[18.3468,48.1913,212.6363],[18.3376,48.1827,208.7592],[18.3427,48.1727,198.1062],[18.3433,48.1643,186.3316],[18.3464,48.1606,210.5119],[18.3537,48.1568,187.5439],[18.3718,48.153,172.2192],[18.3788,48.1443,171.3234],[18.3973,48.1321,156.2395],[18.4082,48.1336,183.9112],[18.4152,48.1328,213.4548],[18.4406,48.1246,231.7245],[18.4476,48.1193,209.3152],[18.455,48.1031,226.272],[18.4502,48.0906,215.9218],[18.449,48.0812,233.0768],[18.4457,48.0801,209.1176],[18.4321,48.0823,183.6576],[18.4221,48.086,215.1235],[18.4199,48.0846,203.7022],[18.4263,48.0723,216.7],[18.4432,48.0536,207.1477],[18.4435,48.0497,204.3461],[18.4392,48.0386,202.2958],[18.4407,48.0335,174.1563],[18.4495,48.0232,212.3707],[18.4657,48.0172,202.9678],[18.4644,48.0137,179.9859],[18.4539,48.0044,292.6094],[18.4554,48.0013,284.989],[18.4638,47.993899999999996,258.0962],[18.4563,47.9896,201.4114],[18.454,47.9862,185.0018],[18.4521,47.9737,236.4932],[18.4555,47.9588,169.8973],[18.4636,47.9478,237.8644],[18.475,47.9466,207.1711],[18.485,47.9416,181.6013],[18.5042,47.9415,182.475],[18.5388,47.9344,168.9427],[18.5427,47.9359,161.9359],[18.5513,47.946,153.8076],[18.5555,47.9477,159.2603],[18.5706,47.9421,156.7729],[18.5819,47.9419,154.0283],[18.5991,47.9389,156.7452],[18.6047,47.9403,154.5615],[18.6178,47.9475,133.2393],[18.6321,47.9493,137.7278],[18.6528,47.9453,118.9459],[18.6596,47.9412,130.8663],[18.6701,47.9419,138.4715],[18.6803,47.9463,119.2118],[18.6851,47.9503,120.4982],[18.691,47.952,120.3288],[18.7061,47.9503,181.0734],[18.7175,47.9509,211.3125],[18.732,47.9476,195.8921],[18.7627,47.9492,112.0093],[18.7698,47.9484,112.1393],[18.7736,47.9461,112.325],[18.7704,47.9549,112.4592],[18.7755,47.9546,119.22],[18.7776,47.958,116.0019],[18.7716,47.966,118.5969],[18.7567,47.971,113.5506],[18.7533,47.9757,120.5681],[18.7624,47.9833,113.7243],[18.7664,47.9832,115.9532],[18.766,47.9866,114.8132],[18.7721,47.989,113.6631],[18.7762,47.9864,115.2958],[18.7879,47.9893,114.5653],[18.7981,47.9883,114.9177],[18.8128,47.9925,116.0269],[18.8086,47.9956,115.1062],[18.8142,47.9985,116.8461],[18.8174,47.9968,139.2024],[18.8192,47.9998,145.9514],[18.8208,48.0073,119.7499],[18.8172,48.0156,117.8907],[18.8191,48.0236,121.0065],[18.8282,48.0303,128.1011],[18.8273,48.0423,126.7441],[18.8362,48.0438,134.6794],[18.8388,48.049,131.3012],[18.8481,48.0525,132.1461],[18.8676,48.0476,164.5053],[18.8755,48.0472,174.7707],[18.8861,48.0562,143.0874],[18.8935,48.0579,148.3398],[18.9025,48.0544,152.8281],[18.913,48.0533,156.7301],[18.9224,48.0545,149.9941],[18.9291,48.0588,146.9431],[18.9395,48.06,147.9234],[18.9677,48.057,137.4696],[18.9876,48.0584,128.407],[18.9948,48.0699,129.549],[19.0055,48.0709,126.2511],[19.0107,48.074,128.5513],[19.0125,48.0779,157.3174]]]]}}