{"type": "Feature","bbox": [17.8239,48.1413,18.43,48.464],"geometry": {"type": "MultiPolygon","coordinates": [[[[18.4016,48.2627,257.3553],[18.3869,48.2647,207.6014],[18.3517,48.2739,172.102],[18.3467,48.2771,183.6543],[18.3455,48.2797,189.8773],[18.3459,48.2831,202.5079],[18.3504,48.2892,212.9234],[18.3495,48.2915,201.9873],[18.3032,48.2969,168.476],[18.3011,48.2993,171.7567],[18.3023,48.3071,179.4482],[18.3012,48.31,176.4511],[18.288,48.311,191.4667],[18.2809,48.3199,215.7952],[18.2715,48.3196,220.0339],[18.2614,48.3145,200.4037],[18.2582,48.3149,204.9095],[18.2549,48.3201,208.6743],[18.2529,48.3277,222.7482],[18.2427,48.3332,196.9252],[18.2397,48.3367,206.2504],[18.251,48.3464,175.3112],[18.2586,48.3501,204.6055],[18.2538,48.3584,230.3492],[18.2547,48.3683,180.4783],[18.2346,48.3863,235.8931],[18.2298,48.3964,343.8957],[18.2192,48.4013,318.9912],[18.2168,48.4057,375.9203],[18.2009,48.4185,316.9221],[18.1864,48.4262,414.5719],[18.1803,48.4366,352.4652],[18.1458,48.4439,197.7226],[18.1253,48.4459,151.5099],[18.1221,48.4439,151.3703],[18.1082,48.4256,149.3596],[18.107,48.4207,149.4469],[18.0961,48.4202,149.2129],[18.0857,48.422,154.4516],[18.0731,48.4271,181.1974],[18.06,48.4286,219.3801],[18.0513,48.4313,200.3972],[18.0476,48.4356,212.2865],[18.0501,48.4433,206.7699],[18.0493,48.4483,208.3],[18.0386,48.4522,171.0676],[18.0298,48.4603,170.2978],[18.0157,48.464,180.8546],[18.0017,48.4634,216.2168],[17.9916,48.4555,195.0201],[17.9868,48.4542,181.6781],[17.9663,48.4559,179.196],[17.9515,48.4599,189.7705],[17.943,48.4516,182.9264],[17.9324,48.4497,184.2584],[17.9283,48.4473,185.0329],[17.925,48.4418,181.202],[17.9034,48.4229,183.9193],[17.8991,48.4133,180.2175],[17.885,48.3955,241.5635],[17.8793,48.3795,161.6301],[17.8484,48.352,210.9603],[17.8519,48.3411,201.1199],[17.8439,48.3314,196.1992],[17.8408,48.3114,159.2818],[17.8358,48.3034,141.4905],[17.8252,48.2981,147.2497],[17.8239,48.2954,139.7824],[17.8252,48.2921,137.7779],[17.833,48.2869,131.8002],[17.8611,48.2776,156.38],[17.8774,48.2747,159.9383],[17.8874,48.2709,154.7631],[17.9079,48.2715,180.8145],[17.9141,48.2667,161.981],[17.9388,48.2539,158.819],[17.9565,48.25,185.902],[17.9764,48.2488,196.4668],[17.9822,48.2462,186.9478],[17.9868,48.2368,173.7684],[17.9793,48.2318,162.0823],[17.9864,48.2179,163.0118],[17.9871,48.213,168.1675],[17.9836,48.2036,162.1382],[17.9737,48.1919,134.6919],[17.9736,48.1889,133.1549],[17.9922,48.1709,121.7823],[18.0149,48.1555,122.2946],[18.0273,48.1496,121.8505],[18.0352,48.1425,120.9684],[18.0393,48.1413,121.2011],[18.0517,48.1455,120.2032],[18.0816,48.1633,126.977],[18.1266,48.1827,149.1695],[18.1366,48.192,164.4712],[18.1435,48.1937,143.2262],[18.1603,48.194,129.4774],[18.1788,48.2008,128.5003],[18.1844,48.1995,126.063],[18.1912,48.1903,127.518],[18.1903,48.1872,127.8519],[18.1821,48.1837,127.3097],[18.1796,48.1808,127.2942],[18.1831,48.1733,127.2674],[18.1885,48.1702,126.7311],[18.2118,48.1728,129.9208],[18.2399,48.1816,179.8632],[18.2437,48.1863,183.1404],[18.2403,48.2005,199.7805],[18.2423,48.2021,200.998],[18.2648,48.1923,170.7946],[18.285,48.19,134.6779],[18.2894,48.1863,137.9801],[18.2912,48.181399999999996,132.6194],[18.2958,48.1788,132.0232],[18.3166,48.1788,209.7343],[18.3295,48.1751,234.9146],[18.3404,48.1757,220.2886],[18.3378,48.1837,208.7592],[18.3468,48.1913,212.6363],[18.3489,48.195,198.1015],[18.3471,48.1984,176.182],[18.3388,48.206,187.8139],[18.3396,48.2118,188.7685],[18.3439,48.2162,159.2544],[18.3561,48.2187,187.1395],[18.3823,48.2123,216.167],[18.3917,48.2184,226.0809],[18.4021,48.2187,194.1415],[18.4081,48.2206,219.2633],[18.4122,48.2237,200.2819],[18.418,48.2316,181.8641],[18.43,48.2353,224.373],[18.4297,48.2386,222.9035],[18.4117,48.2565,227.815],[18.4016,48.2627,257.3553]]]]}
,"properties": {"GID_2": "SVK.4.3_1","GID_0": "SVK","country": "Slovakia","GID_1": "SVK.4_1","province": "Nitriansky","NL_NAME_1": "NA","county": "Nitra","VARNAME_2": "NA","NL_NAME_2": "NA","TYPE_2": "Okres","ENGTYPE_2": "District","CC_2": "403","HASC_2": "SK.NI.NR","name": "Nitra.county","area_km2": 875.4881,"hist_schema_id": "Elevation0-9000","hist_area_km2": {"125": 98.819,"150": 224.8761,"175": 220.7324,"200": 177.8839,"225": 87.0375,"250": 16.8644,"275": 10.3507,"300": 8.449,"325": 7.2519,"350": 5.703,"375": 4.9005,"400": 4.0136,"425": 3.4785,"450": 2.2677,"475": 1.1552,"500": 0.7185,"525": 0.5213,"550": 0.2536,"575": 0.1127,"600": 0.0704,"625": 0.0282}}}