{"type": "Feature","bbox": [18.6241,48.869,19.146,49.2148],"geometry": {"type": "MultiPolygon","coordinates": [[[[19.079,48.8744,1467.1555],[19.0823,48.8823,1491.0507],[19.0799,48.8976,1504.1531],[19.0814,48.9044,1465.1974],[19.0898,48.9095,1467.6818],[19.0921,48.915,1324.2681],[19.1015,48.9229,1295.8784],[19.1136,48.9308,1471.6318],[19.126,48.9324,1377.9062],[19.1365,48.9479,964.6677],[19.1345,48.9512,956.5103],[19.1154,48.9575,1188.5342],[19.1041,48.9736,1229.1243],[19.1051,48.9843,1261.6777],[19.1027,48.9933,1190.7112],[19.1044,48.9978,1176.6473],[19.1111,49.0034,1227.1013],[19.113,49.0079,1251.1674],[19.113,49.0485,1326.3396],[19.1229,49.0573,1169.6195],[19.1172,49.0724,973.7233],[19.1172,49.0866,1059.8954],[19.1195,49.1014,860.9399],[19.1222,49.1058,946.0663],[19.1404,49.1224,943.951],[19.146,49.1354,1079.6705],[19.1413,49.1378,1094.1799],[19.129,49.1395,982.0575],[19.1042,49.1389,756.5322],[19.0974,49.144,594.3954],[19.0882,49.1582,496.9442],[19.0809,49.1658,629.0996],[19.0789,49.1705,631.6599],[19.0831,49.1829,824.9156],[19.0819,49.1977,976.6716],[19.0781,49.2086,1080.6658],[19.0833,49.2148,1271.8131],[19.0666,49.2112,1361.4288],[19.0612,49.1945,1544.4067],[19.0556,49.1884,1524.4583],[19.0375,49.1898,1495.1703],[19.0271,49.1865,1569.3369],[19.0182,49.193,1520.778],[19.0128,49.1934,1509.8413],[18.9976,49.1855,1525.0723],[18.9773,49.1847,1368.6936],[18.9579,49.1744,1254.9598],[18.9438,49.1763,1172.0145],[18.9378,49.1754,1044.1145],[18.9106,49.1643,768.9757],[18.9002,49.1615,508.5561],[18.8952,49.1574,438.4675],[18.8911,49.151,429.9677],[18.8876,49.1494,388.9927],[18.8816,49.1488,507.8069],[18.859,49.1526,916.1285],[18.8504,49.1512,893.1198],[18.8465,49.1476,1006.8809],[18.8391,49.1357,1039.5472],[18.8226,49.0898,1346.7329],[18.8163,49.0784,1385.1609],[18.8057,49.0708,1273.7833],[18.7726,49.0572,1141.5826],[18.7665,49.0563,1007.3501],[18.7573,49.0586,1030.856],[18.7548,49.0539,1042.4249],[18.7453,49.0512,1038.3301],[18.7449,49.049,921.0908],[18.7495,49.0426,812.4843],[18.7504,49.0338,1034.3864],[18.7435,49.0266,1101.0728],[18.7334,49.02,956.8818],[18.7327,49.017,849.4084],[18.7348,49.0092,893.4564],[18.7219,49.0013,993.4073],[18.7207,48.9928,767.0461],[18.7119,48.9901,1035.2429],[18.7023,48.9896,1102.1982],[18.6795,48.9954,1007.9908],[18.659,48.9906,1101.582],[18.6424,48.9829,1205.0106],[18.6402,48.9795,1236.2761],[18.6411,48.9722,1235.459],[18.64,48.9693,1176.1035],[18.6241,48.9584,732.446],[18.6576,48.9558,944.5795],[18.6829,48.947,618.8682],[18.7021,48.9454,681.5281],[18.7043,48.9438,600.66],[18.7052,48.9398,688.0194],[18.7012,48.934,530.3091],[18.714,48.9325,772.2772],[18.7268,48.9364,812.1051],[18.7416,48.9455,872.1581],[18.756,48.9512,878.7633],[18.7657,48.9586,909.2246],[18.7708,48.959,911.8103],[18.8077,48.9467,480.0233],[18.8164,48.9455,499.2195],[18.827,48.9478,472.5164],[18.8297,48.9466,469.0473],[18.8334,48.9419,442.451],[18.840699999999998,48.9435,441.5483],[18.8472,48.9429,446.4503],[18.8518,48.9401,464.8218],[18.8583,48.9329,453.1854],[18.8774,48.932,460.2131],[18.8927,48.9291,495.9944],[18.9116,48.9184,505.689],[18.9361,48.9134,720.0992],[18.9463,48.9059,914.9837],[18.9533,48.8894,942.9418],[18.9679,48.8803,1016.1901],[18.9811,48.869,831.0758],[18.9924,48.8701,1119.2532],[19.0187,48.881,1255.4862],[19.028,48.8803,1378.2349],[19.0388,48.8862,1226.4088],[19.0471,48.8848,1344.0869],[19.0594,48.8795,1440.1787],[19.0717,48.878,1503.2346],[19.079,48.8744,1467.1555]]]]}
,"properties": {"GID_2": "SVK.8.6_1","GID_0": "SVK","country": "Slovakia","GID_1": "SVK.8_1","province": "Žilinský","NL_NAME_1": "NA","county": "Martin","VARNAME_2": "NA","NL_NAME_2": "NA","TYPE_2": "Okres","ENGTYPE_2": "District","CC_2": "506","HASC_2": "SK.ZI.MT","name": "Martin.county","area_km2": 746.4565,"hist_schema_id": "Elevation0-9000","hist_area_km2": {"375": 13.324,"400": 39.0016,"425": 46.9415,"450": 52.0645,"475": 47.8421,"500": 39.7652,"525": 27.9137,"550": 21.8903,"575": 19.4698,"600": 19.667,"625": 19.2787,"650": 19.7254,"675": 18.9618,"700": 18.1565,"725": 20.0341,"750": 19.8672,"775": 18.9773,"800": 19.5505,"825": 18.8554,"850": 18.5207,"875": 17.8832,"900": 17.6599,"925": 17.3948,"950": 15.3956,"975": 16.1176,"1000": 15.2419,"1025": 13.42,"1050": 12.0149,"1075": 11.5697,"1100": 10.7505,"1125": 10.0692,"1150": 8.5523,"1175": 7.8845,"1200": 8.2055,"1225": 6.2569,"1250": 6.2847,"1275": 5.2273,"1300": 4.4899,"1325": 4.0449,"1350": 3.4333,"1375": 3.1551,"1400": 2.3476,"1425": 2.2495,"1450": 1.5144,"1475": 1.4859,"1500": 1.278,"1525": 1.2092,"1550": 0.6111,"1575": 0.5137,"1600": 0.2633,"1625": 0.0693,"1650": 0.0416,"1675": 0.0139}}}