{"type":"Feature","properties":{"GID_2":"SVK.1.11_1","GID_0":"SVK","country":"Slovakia","GID_1":"SVK.1_1","province":"Banskobystrický","NL_NAME_1":"NA","county":"Žarnovica","VARNAME_2":"NA","NL_NAME_2":"NA","TYPE_2":"Okres","ENGTYPE_2":"District","CC_2":"612","HASC_2":"SK.BC.ZC","name":"Žarnovica.county"},
"geometry":{"type": "MultiPolygon","coordinates": [[[[18.87,48.4636,869.4662],[18.8458,48.4629,618.6278],[18.8188,48.4765,705.9507],[18.8134,48.4761,696.2267],[18.8073,48.4712,715.2213],[18.8042,48.4721,765.7935],[18.8038,48.4758,812.6367],[18.7966,48.4772,810.4305],[18.7836,48.4725,545.3555],[18.767,48.4746,477.6366],[18.75,48.4837,334.4054],[18.7207,48.4857,225.6618],[18.7196,48.5047,343.2897],[18.726,48.5125,220.0],[18.726,48.5153,220.0],[18.715,48.5204,374.1263],[18.7051,48.522,498.4169],[18.6908,48.5271,692.5173],[18.6905,48.5459,628.7449],[18.6932,48.5525,632.7251],[18.692,48.5639,737.7041],[18.6789,48.5777,666.4543],[18.6732,48.5927,667.2017],[18.6641,48.608,922.9544],[18.6539,48.6145,948.499],[18.6451,48.6243,1203.1436],[18.634,48.6285,1243.8125],[18.6312,48.6288,1133.2726],[18.6285,48.62,1233.9771],[18.6088,48.5982,1151.8479],[18.5901,48.5891,900.5359],[18.5871,48.5814,867.2607],[18.587,48.5732,815.2506],[18.5828,48.5694,864.3096],[18.5704,48.5663,832.1469],[18.5617,48.5664,864.1335],[18.5533,48.569,742.3234],[18.5404,48.569,631.9553],[18.4938,48.5625,584.1745],[18.488,48.5658,528.8491],[18.485,48.5621,504.2473],[18.4828,48.5621,456.4761],[18.4769,48.5555,619.371],[18.4656,48.5476,481.622],[18.4627,48.5434,436.6763],[18.4601,48.5315,617.0707],[18.4633,48.5278,599.3297],[18.4706,48.5249,504.7783],[18.4867,48.5247,545.9205],[18.4894,48.5232,531.8054],[18.4894,48.521,503.4319],[18.4867,48.5181,457.5686],[18.4703,48.5054,442.3713],[18.471,48.5027,445.4874],[18.482,48.5038,334.758],[18.4929,48.5083,400.6417],[18.5039,48.5084,492.559],[18.5172,48.5051,638.8602],[18.5221,48.4992,654.9636],[18.5232,48.4901,540.6174],[18.5186,48.4825,581.3661],[18.5157,48.4739,483.9433],[18.5188,48.4717,389.3463],[18.5304,48.4709,427.7065],[18.5315,48.4696,481.129],[18.5306,48.4656,507.2515],[18.5164,48.4517,496.2842],[18.4933,48.4378,467.1339],[18.492,48.4359,531.4811],[18.493,48.4337,618.3204],[18.4981,48.4312,592.0584],[18.5077,48.4303,542.1249],[18.5329,48.4213,793.5999],[18.544,48.4197,808.0921],[18.5496,48.407,760.1448],[18.556,48.4041,714.1887],[18.558,48.4015,618.7662],[18.557,48.3966,525.5089],[18.5513,48.3896,630.6126],[18.5568,48.3727,320.1746],[18.5568,48.3675,270.8891],[18.5432,48.3531,234.4863],[18.5272,48.3434,240.38],[18.5172,48.3352,217.1481],[18.527,48.33,194.5916],[18.5218,48.3248,200.7558],[18.5327,48.3208,180.7966],[18.5384,48.3208,179.6669],[18.5451,48.325,180.3264],[18.5478,48.3281,182.0507],[18.5497,48.3343,238.7993],[18.5553,48.3383,231.4145],[18.5676,48.3394,210.9963],[18.5748,48.3375,285.3603],[18.5901,48.3374,403.2704],[18.6034,48.3407,490.6946],[18.6344,48.3427,543.3202],[18.6466,48.3465,549.1681],[18.6652,48.3619,505.5593],[18.6775,48.3795,448.5927],[18.6853,48.3873,416.6447],[18.7006,48.3957,483.1253],[18.71,48.4043,488.0037],[18.7291,48.4078,517.8912],[18.7426,48.4044,661.0385],[18.7554,48.4305,553.3776],[18.7667,48.4275,498.3224],[18.782,48.4198,678.1302],[18.8047,48.4155,664.8481],[18.8141,48.417,655.538],[18.818,48.4197,634.434],[18.8187,48.4222,632.4091],[18.8106,48.4287,675.6082],[18.8102,48.4327,666.8063],[18.8152,48.4336,642.3868],[18.823,48.4319,659.0472],[18.834,48.4322,753.3026],[18.8484,48.4385,804.1032],[18.862,48.4474,807.7878],[18.8628,48.4503,801.9288],[18.8611,48.4572,660.3936],[18.87,48.4636,869.4662]]]]}}