{"type": "Feature","bbox": [17.3528,48.6309,17.7076,48.8547],"geometry": {"type": "MultiPolygon","coordinates": [[[[17.3995,48.8283,428.151],[17.3837,48.8084,454.4227],[17.3759,48.803,432.4795],[17.3535,48.7918,414.2601],[17.3528,48.7839,351.5492],[17.3719,48.7815,425.3636],[17.4054,48.767,323.6498],[17.4315,48.7658,342.5287],[17.4646,48.7593,479.0435],[17.4686,48.7571,456.8201],[17.4722,48.7482,374.5715],[17.4708,48.7358,407.4249],[17.4639,48.7293,305.1703],[17.4436,48.7189,267.5328],[17.4412,48.7149,325.8405],[17.4418,48.7078,291.9265],[17.4483,48.7007,336.1229],[17.456,48.6957,332.9221],[17.4597,48.6872,324.352],[17.4729,48.6774,306.252],[17.4822,48.6657,414.1519],[17.4832,48.6597,400.4206],[17.4889,48.6538,326.6944],[17.4962,48.6488,283.2398],[17.5074,48.6451,248.179],[17.5266,48.6309,406.662],[17.5371,48.631,410.9218],[17.5577,48.6374,465.7569],[17.6001,48.6438,414.9171],[17.605,48.6473,357.6287],[17.6123,48.6614,402.7407],[17.6145,48.6628,340.8849],[17.652,48.6627,345.1275],[17.6774,48.6688,228.8716],[17.6976,48.6757,381.7078],[17.7061,48.6897,373.5706],[17.7061,48.6942,297.6039],[17.6984,48.6999,243.6537],[17.6965,48.7112,246.1849],[17.6895,48.7211,248.1501],[17.6906,48.7242,251.3197],[17.6954,48.7276,287.451],[17.7076,48.7312,241.3528],[17.706,48.7389,236.6245],[17.697,48.7543,297.2482],[17.6873,48.7574,340.5547],[17.6774,48.7635,334.3839],[17.6583,48.7615,316.1659],[17.6366,48.7645,376.5907],[17.6331,48.7667,373.3634],[17.6331,48.7694,325.9032],[17.6445,48.7702,291.7707],[17.6454,48.7722,312.9992],[17.6286,48.777,370.6134],[17.622,48.7839,415.7446],[17.6257,48.7909,436.0252],[17.6154,48.8031,456.7087],[17.6153,48.8066,414.9448],[17.6188,48.8123,508.1682],[17.6164,48.8221,565.7862],[17.6099,48.8313,614.0273],[17.6132,48.8445,698.8875],[17.6117,48.8547,601.662],[17.5812,48.8326,511.39],[17.5152,48.8097,404.2913],[17.5011,48.8125,390.8236],[17.4752,48.8395,441.6446],[17.4653,48.8443,492.1829],[17.4465,48.8454,519.4159],[17.4099,48.8296,505.6687],[17.3995,48.8283,428.151]]]]}
,"properties": {"GID_2": "SVK.6.3_1","GID_0": "SVK","country": "Slovakia","GID_1": "SVK.6_1","province": "Trenčiansky","NL_NAME_1": "NA","county": "Myjava","VARNAME_2": "NA","NL_NAME_2": "NA","TYPE_2": "Okres","ENGTYPE_2": "District","CC_2": "303","HASC_2": "SK.TC.MY","name": "Myjava.county","area_km2": 346.1521,"hist_schema_id": "Elevation0-9000","hist_area_km2": {"225": 1.8754,"250": 9.936,"275": 17.3655,"300": 27.4335,"325": 38.3523,"350": 43.8578,"375": 44.8593,"400": 41.7649,"425": 33.3186,"450": 25.1357,"475": 18.781,"500": 14.6399,"525": 10.0697,"550": 6.5763,"575": 4.6629,"600": 3.3223,"625": 1.9262,"650": 1.1444,"675": 0.7117,"700": 0.3349,"725": 0.0698,"750": 0.014}}}