{"type":"Feature","properties":{"id":128336.0,"name":null,"lge_id":null,"pfafstette":928537.0,"lke_type":"N","altitude":555,"objectid":79561,"scalerank":12,"featurecla":"Lake","note":"_untitled_79561","funkyname":0,"min_zoom":7.0,"min_label":8.0},
"geometry":{"type": "Polygon","coordinates": [[[19.495127800396233,49.092535711712827,562.0],[19.495127800396233,49.092535711712827,562.0],[19.501841667583733,49.093756414837827,562.0],[19.517588737896233,49.100470282025327,562.0],[19.537730339458733,49.096808172650327,562.0],[19.559092644146233,49.092840887494077,562.0],[19.580088737896233,49.098944403119077,586.8017],[19.576060417583733,49.106573797650327,584.7079],[19.552622917583733,49.112921453900327,589.8248],[19.539805534771233,49.125372625775327,569.8313],[19.537119987896233,49.133917547650327,586.6984],[19.526133659771233,49.131170965619077,600.795],[19.518565300396233,49.133917547650327,589.035],[19.506114128521233,49.133917547650327,604.5696],[19.489024284771233,49.127814032025327,630.8883],[19.484873894146233,49.113836981244077,571.2111],[19.495127800396233,49.092535711712827,562.0]]]}}