{"type":"Feature","properties":{"id":127640.0,"fillOpacity":1,"fill":"#F0F","name":"null-65","title":"null-65","lge_id":null,"pfafstette":92953.0,"lke_type":"N","altitude":619,"objectid":76987,"scalerank":12,"featurecla":"Lake","note":"_untitled_76987","funkyname":0,"min_zoom":7.0,"min_label":8.0},
"geometry":{"type": "Polygon","coordinates": [[[19.550547722271233,49.385565496869077,598.0],[19.550547722271233,49.385565496869077,598.0],[19.569102409771233,49.387701727337827,598.0],[19.587901237896233,49.392828680462827,598.0],[19.595713737896233,49.410773016400327,615.2258],[19.607920769146233,49.440252996869077,598.0],[19.616221550396233,49.454535223431577,616.3487],[19.588145378521233,49.442389227337827,601.0558],[19.567149284771233,49.419562078900327,598.0],[19.551402214458733,49.414129949994077,623.9007],[19.534068230083733,49.422980047650327,602.2048],[19.523692253521233,49.431158758587827,628.4827],[19.510020378521233,49.427801824994077,607.9481],[19.494273308208733,49.418341375775327,608.4164],[19.487925651958733,49.410773016400327,611.3881],[19.501597526958733,49.408697821087827,598.0],[19.525279167583733,49.399237371869077,598.0],[19.550547722271233,49.385565496869077,598.0]]]}}