{"type": "Feature","id": "1053","bbox": [18.36159,48.74416,20.05405,49.60178],"geometry": {"type": "Polygon","coordinates": [[[19.44889,49.60031,882.0498],[19.44339,49.60178,895.5407],[19.4376,49.60013,806.99],[19.43378,49.59517,824.5764],[19.34707,49.533,1090.2371],[19.33952,49.52876,1233.3765],[19.32536,49.52504,1481.9128],[19.31503,49.52395,1505.4724],[19.28423,49.52416,1083.4635],[19.265,49.52147,1042.9958],[19.24867,49.51626,988.1101],[19.2341,49.50721,958.6165],[19.22046,49.493,954.631],[19.20444,49.46055,746.7852],[19.2062,49.45941,764.3585],[19.2094,49.45641,827.9717],[19.21136,49.45166,983.134],[19.20899,49.44499,934.6681],[19.20454,49.44282,936.984],[19.19224,49.44262,994.5243],[19.18935,49.4422,935.0879],[19.18232,49.42272,853.0799],[19.17974,49.41027,1004.7839],[19.1725,49.40226,981.7424],[19.1417,49.3942,1032.4355],[19.11659,49.39094,897.8964],[19.10625,49.3914,880.7205],[19.09664,49.39461,969.5774],[19.0768,49.40407,935.0475],[19.0676,49.40613,961.8115],[19.04579,49.40277,1051.6117],[19.00714,49.3881,928.0551],[18.98182,49.38681,777.3962],[18.96228,49.38918,779.7862],[18.9567,49.40045,816.6456],[18.96084,49.43331,665.2552],[18.95825,49.44815,909.8147],[18.9534,49.46168,902.9277],[18.95236,49.47595,714.8635],[18.96115,49.49279,726.2672],[18.93221,49.50432,747.6288],[18.8332,49.51026,592.6219],[18.79227,49.50954,569.3322],[18.77356,49.50489,543.0155],[18.73253,49.48029,492.8332],[18.70452,49.47925,619.5676],[18.67558,49.48504,709.2078],[18.64282,49.49579,950.262],[18.6359,49.49672,960.5903],[18.62897,49.49579,961.3395],[18.60045,49.48597,913.8436],[18.55621,49.49016,710.9807],[18.53564,49.48168,742.956],[18.53048,49.47347,649.3648],[18.528,49.45486,672.8271],[18.52293,49.44608,817.6975],[18.51466,49.4406,772.1675],[18.4818,49.42908,741.555],[18.43922,49.39507,851.8263],[18.41679,49.38546,776.8997],[18.38764,49.38975,794.8845],[18.38701,49.37762,652.7388],[18.38516,49.34226,721.7056],[18.36159,49.33019,785.3829],[18.36625,49.32567,944.9178],[18.38423,49.32185,951.9917],[18.38454,49.3141,831.5361],[18.38485,49.31229,854.6669],[18.38547,49.31025,768.8197],[18.38656,49.30846,796.5602],[18.44816,49.24131,481.2529],[18.45064,49.23787,512.3758],[18.45188,49.23534,491.0621],[18.45141,49.23387,491.0621],[18.44986,49.23131,454.5859],[18.44971,49.2301,462.1983],[18.45048,49.22824,513.6448],[18.45544,49.22201,509.5302],[18.45653,49.21986,563.7513],[18.45699,49.21818,542.5756],[18.45684,49.21725,576.9761],[18.45839,49.21501,446.5177],[18.47095,49.19999,502.0243],[18.47642,49.19511,414.4414],[18.482,49.19152,456.7087],[18.50603,49.18108,295.2493],[18.50758,49.1808,295.6541],[18.51099,49.1808,299.6339],[18.51347,49.18036,301.0527],[18.51673,49.17886,305.3164],[18.52882,49.17144,440.2077],[18.53306,49.16956,389.2659],[18.53694,49.1685,432.7737],[18.54252,49.16757,424.7505],[18.56128,49.15984,624.6331],[18.56624,49.15684,579.8268],[18.5743,49.14938,546.085],[18.57724,49.14449,633.1971],[18.57771,49.13721,629.8556],[18.57709,49.13333,642.4461],[18.57802,49.12935,639.9987],[18.5791,49.12711,614.1959],[18.59109,49.11468,697.7855],[18.56422,49.09612,586.7133],[18.5605,49.09251,573.0721],[18.5619,49.09054,563.7651],[18.5636,49.09021,585.361],[18.56763,49.09021,604.0679],[18.58195,49.08739,498.1681],[18.58391,49.08646,496.8295],[18.58629,49.08512,503.1234],[18.58846,49.08341,504.4193],[18.59016,49.08186,496.6862],[18.5928,49.07731,484.776],[18.59404,49.07618,493.3198],[18.59543,49.0753,549.5662],[18.59931,49.0739,546.4625],[18.60101,49.07308,549.485],[18.60272,49.07179,541.1854],[18.60396,49.07049,573.0005],[18.60427,49.06894,532.33],[18.60396,49.06713,502.3589],[18.60241,49.0631,627.7307],[18.6021,49.0614,603.6698],[18.60226,49.0599,590.6304],[18.60288,49.05861,598.6036],[18.60303,49.05711,599.8262],[18.60257,49.05551,654.9602],[18.60086,49.05272,741.0905],[18.59993,49.05065,760.4685],[18.59977,49.04858,640.8481],[18.60272,49.0353,799.7002],[18.60055,49.02967,832.1873],[18.59543,49.02295,809.0896],[18.58226,49.0105,728.421],[18.57073,49.00145,787.9789],[18.56143,48.99649,887.9347],[18.5313,48.99086,901.8161],[18.5251,48.9883,873.3325],[18.51921,48.98458,827.655],[18.50975,48.97386,759.0708],[18.50402,48.96993,810.0502],[18.49999,48.96766,782.115],[18.47064,48.95626,1127.9231],[18.47627,48.94823,950.7239],[18.48479,48.94394,753.6443],[18.50293,48.94166,782.5439],[18.51689,48.93862,800.0537],[18.52076,48.93815,834.9582],[18.528199999999998,48.93924,842.3588],[18.55492,48.94957,888.4018],[18.56174,48.95378,796.7659],[18.56531,48.95719,812.1904],[18.56562,48.95898,869.8086],[18.56624,48.96068,881.6999],[18.56779,48.96223,894.3763],[18.58081,48.97151,951.9144],[18.58319,48.97151,999.1259],[18.58567,48.97003,932.136],[18.59187,48.96184,873.9203],[18.59373,48.95998,929.8743],[18.6035,48.9598,936.2063],[18.63574,48.96611,1183.2434],[18.67734,48.95905,994.8959],[18.69646,48.95781,880.5107],[18.70204,48.95567,783.2655],[18.70592,48.95378,681.9664],[18.72592,48.9366,855.7377],[18.72096,48.9336,840.3896],[18.7191,48.93169,812.2955],[18.71646,48.92988,734.7961],[18.71444,48.92872,692.2415],[18.71243,48.92792,676.9745],[18.71088,48.92694,703.1945],[18.7101,48.9257,703.1945],[18.70964,48.92404,727.8738],[18.70871,48.92198,803.4594],[18.70731,48.9198,834.26],[18.70452,48.91704,698.725],[18.70313,48.91484,655.705],[18.70344,48.91102,645.8098],[18.70917,48.89578,683.3956],[18.70964,48.89071,669.6985],[18.70933,48.88671,588.3401],[18.70654,48.88074,589.4106],[18.70592,48.87813,651.7086],[18.70592,48.87531,638.3575],[18.70731,48.87071,692.4235],[18.70762,48.86828,654.4409],[18.70731,48.86583,666.9535],[18.70592,48.8595,650.118],[18.70607,48.85381,611.5336],[18.70824,48.85061,648.019],[18.71243,48.84686,658.7283],[18.73506,48.83325,751.902],[18.7377,48.83208,754.7321],[18.74002,48.83144,777.968],[18.74468,48.83053,736.632],[18.74731,48.82963,763.175],[18.75093,48.82803,779.4335],[18.75341,48.82728,763.0405],[18.75759,48.82645,712.0298],[18.77341,48.81645,730.9577],[18.7793,48.8142,788.5508],[18.78224,48.8126,762.5535],[18.78255,48.8117,767.8524],[18.78023,48.80984,817.7742],[18.77961,48.80736,761.7681],[18.78007,48.80405,659.6797],[18.78302,48.79697,761.6029],[18.78658,48.79191,791.0544],[18.79325,48.78511,791.0195],[18.82741,48.75687,808.0044],[18.83035,48.75372,765.7346],[18.83299,48.74416,795.545],[18.87583,48.76405,856.571],[18.88808,48.76664,746.7638],[18.88978,48.76509,821.2325],[18.89102,48.76307,846.3965],[18.8918,48.76105,880.9338],[18.89319,48.75945,862.8084],[18.89443,48.75826,850.707],[18.89629,48.75702,774.5297],[18.89862,48.75426,728.6699],[18.89908,48.75289,750.8115],[18.91598,48.75025,809.976],[19.00104,48.74695,1046.8026],[19.01468,48.76359,1074.2725],[19.01701,48.76966,991.2354],[19.02027,48.78142,1035.1099],[19.02073,48.78632,1120.3491],[19.02011,48.78953,1028.0618],[19.01872,48.79087,1066.0836],[19.00538,48.79888,1049.2689],[18.99965,48.80596,1156.2614],[18.99872,48.81041,1053.6641],[18.99996,48.81345,978.4539],[19.0029,48.81575,1063.2168],[19.00678,48.8196,915.2896],[19.00771,48.82384,806.3636],[19.00678,48.82968,916.7609],[19.00135,48.84203,871.1359],[19.0012,48.84539,888.2177],[19.00337,48.84777,978.7782],[19.01996,48.85325,919.8214],[19.02476,48.85655,974.1687],[19.02771,48.85903,1135.627],[19.03923,48.87671,1254.2751],[19.08672,48.8749,1400.2529],[19.25209,48.89061,914.9481],[19.26004,48.8905,928.2552],[19.26144,48.88885,883.1716],[19.26299,48.88529,836.7604],[19.2647,48.8841,778.8075],[19.2678,48.88306,910.7648],[19.27012,48.88084,918.6718],[19.27214,48.8772,931.6977],[19.27384,48.86921,884.4225],[19.27431,48.86549,946.1578],[19.274,48.86306,1054.5289],[19.27291,48.86255,994.108],[19.26935,48.86224,1083.0732],[19.26795,48.86177,1111.179],[19.26687,48.86053,1158.1844],[19.26454,48.85637,1120.9907],[19.2664,48.85573,1089.3589],[19.2695,48.85562,1096.1095],[19.31027,48.85981,1098.0021],[19.31575,48.861,1111.9489],[19.32102,48.86358,1292.1245],[19.32304,48.86523,1386.9913],[19.32443,48.86689,1427.9944],[19.32536,48.868899999999996,1428.5424],[19.32676,48.87526,1419.3934],[19.32846,48.87903,1401.1886],[19.33916,48.88828,1480.9006],[19.36024,48.89634,1472.6562],[19.39363,48.92353,1351.0002],[19.56152,48.94239,1874.2139],[19.63739,48.93619,1970.9672],[19.70162,48.92048,1537.5677],[19.70922,48.9166,1528.1101],[19.71469,48.91254,1497.0223],[19.71841,48.91118,1576.8046],[19.72834,48.90947,1334.059],[19.73206,48.90828,1368.4585],[19.735,48.90637,1263.8992],[19.73764,48.90412,1238.2823],[19.74275,48.90087,1320.718],[19.74663,48.89986,1386.6284],[19.75035,48.89991,1398.7615],[19.76234,48.90435,1444.0686],[19.80807,48.91314,1220.4045],[19.81743,48.91298,1288.5991],[19.84549,48.90782,1414.6475],[19.94124,48.90642,1382.5996],[19.94388,48.90699,1370.165],[19.95582,48.90776,1193.7888],[19.97333,48.9134,1562.4939],[19.97876,48.9135,1611.0684],[19.9831,48.91314,1672.7975],[19.99618,48.90658,1555.6664],[20.03028,48.9166,1216.6997],[20.04098,48.92208,1335.7161],[20.05188,48.92957,1315.4453],[20.05405,48.93368,1387.4148],[20.05173,48.93598,1389.6909],[20.04067,48.93737,1336.616],[20.03571,48.93862,1304.6201],[20.03261,48.94079,1276.1138],[20.03044,48.94347,1277.7712],[20.02827,48.94737,1292.6801],[20.02424,48.95727,1356.0027],[20.02284,48.96595,1260.2637],[20.01958,48.97071,1255.7747],[20.01478,48.97479,1274.6218],[20.00873,48.97866,1222.4668],[19.97457,49.00804,986.5596],[19.97364,49.01225,865.7264],[19.97473,49.01476,827.8933],[19.97799,49.01538,793.1846],[19.98517,49.01476,848.2466],[19.99059,49.01492,792.1532],[20.00145,49.01833,867.8437],[20.00811,49.01879,979.0236],[20.01183,49.02143,1070.4807],[20.01369,49.0275,1031.4906],[20.01462,49.04011,976.1864],[20.01943,49.05445,889.163],[20.02067,49.06279,887.2257],[20.02098,49.07385,856.9197],[20.02718,49.10331,999.0797],[20.02641,49.11111,1053.1769],[20.02362,49.1153,1058.5309],[20.01834,49.11499,1111.2933],[20.01307,49.11388,1093.868],[19.99943,49.10972,1009.467],[19.97985,49.10739,974.7924],[19.97597,49.10739,979.2859],[19.97271,49.1092,1015.7125],[19.96961,49.11183,1031.0546],[19.96651,49.11561,1041.0034],[19.96357,49.11664,1013.0987],[19.96109,49.11581,1022.0867],[19.95845,49.11406,959.9089],[19.95535,49.11494,963.3398],[19.95148,49.11853,930.6475],[19.94527,49.1285,981.7407],[19.94031,49.13393,1006.6816],[19.93427,49.13736,1059.9307],[19.92801,49.13824,1049.9711],[19.92073,49.13767,1038.7307],[19.91685,49.13612,1023.1354],[19.91344,49.13362,994.0614],[19.91158,49.13176,983.6945],[19.90879,49.13129,974.8613],[19.90553,49.13261,958.0128],[19.90088,49.13814,926.0148],[19.89964,49.14452,969.1705],[19.89918,49.15684,1289.83],[19.89546,49.1662,1565.6377],[19.8905,49.17421,1809.6279],[19.86936,49.19767,1981.6592],[19.86829,49.20079,1833.0267],[19.85422,49.19126,1728.5302],[19.832,49.18589,1823.0605],[19.7859,49.18816,1679.5674],[19.76068,49.19421,1716.2568],[19.74777,49.20589,1517.8154],[19.74779,49.20596,1517.8154],[19.7518,49.21906,1687.8967],[19.78962,49.25947,1411.8425],[19.79407,49.26185,1362.1772],[19.80048,49.26304,1215.071],[19.80626,49.26526,1219.6919],[19.80864,49.2709,1110.5708],[19.80678,49.27524,1082.147],[19.80642,49.27549,1047.8569],[19.79882,49.28071,889.1192],[19.79856,49.28108,889.9747],[19.79696,49.28335,889.5025],[19.79686,49.2834,889.5025],[19.78322,49.29002,941.5056],[19.7797,49.29337,943.335],[19.77971,49.29345,943.335],[19.78032,49.29761,1027.3949],[19.78797,49.30511,1111.7848],[19.78952,49.30919,1067.6379],[19.78363,49.35756,803.7242],[19.77856,49.3742,774.9007],[19.76926,49.39311,754.431],[19.76906,49.39321,754.431],[19.76006,49.39766,739.7842],[19.72658,49.38887,726.4929],[19.70632,49.38753,679.8977],[19.68451,49.38908,688.8728],[19.62704,49.40187,638.9825],[19.6271,49.40217,639.3633],[19.62922,49.41394,648.2956],[19.6286,49.42959,642.041],[19.63015,49.43502,632.4816],[19.6348,49.44132,619.6058],[19.5948,49.44158,598.0],[19.57393,49.44525,610.9534],[19.55677,49.45388,690.1561],[19.5516,49.46101,746.9442],[19.53548,49.49285,849.1089],[19.51729,49.54328,886.2614],[19.5052,49.56338,1250.7627],[19.48174,49.57351,1157.12],[19.47419,49.57873,1030.7554],[19.45734,49.59806,899.7696],[19.44889,49.60031,882.0498]]]}
,"properties": {"ISO3166-1-Alpha-3": "SVK","country": "Slovakia","fill": "#000","name": "Žilinský","area_km2": 6614.041,"hist_schema_id": "Elevation0-9000","hist_area_km2": {"300": 21.245,"325": 27.342,"350": 53.556,"375": 65.367,"400": 98.036,"425": 127.762,"450": 171.029,"475": 208.603,"500": 215.044,"525": 196.096,"550": 212.017,"575": 219.169,"600": 270.295,"625": 268.099,"650": 265.401,"675": 275.29,"700": 277.972,"725": 276.494,"750": 273.242,"775": 264.395,"800": 255.092,"825": 241.713,"850": 224.51,"875": 203.512,"900": 190.53,"925": 166.322,"950": 150.643,"975": 133.878,"1000": 117.355,"1025": 107.292,"1050": 98.789,"1075": 90.104,"1100": 82.605,"1125": 77.311,"1150": 69.167,"1175": 61.394,"1200": 55.965,"1225": 49.489,"1250": 46.982,"1275": 42.294,"1300": 38.073,"1325": 34.371,"1350": 29.519,"1375": 28.309,"1400": 24.375,"1425": 24.316,"1450": 21.468,"1475": 18.968,"1500": 17.316,"1525": 15.078,"1550": 12.477,"1575": 11.267,"1600": 10.224,"1625": 9.015,"1650": 8.376,"1675": 7.236,"1700": 6.916,"1725": 5.677,"1750": 5.303,"1775": 5.136,"1800": 4.275,"1825": 4.303,"1850": 4.053,"1875": 3.4,"1900": 2.885,"1925": 2.427,"1950": 1.928,"1975": 1.581,"2000": 1.345,"2025": 1.081,"2050": 0.721,"2075": 0.513,"2100": 0.333,"2125": 0.236,"2150": 0.097}}}