{"type":"Feature","properties":{"GID_1":"SVK.8_1","GID_0":"SVK","country":"Slovakia","province":"Žilinský","VARNAME_1":"Žilina","NL_NAME_1":"NA","TYPE_1":"Kraj","ENGTYPE_1":"Region","CC_1":"NA","HASC_1":"SK.ZI","ISO_1":"NA","name":"Žilinský.province"},
"geometry":{"type": "MultiPolygon","coordinates": [[[[19.0207,48.8751,1264.0839],[19.0388,48.8862,1226.4088],[19.0471,48.8848,1344.0869],[19.0594,48.8795,1440.1787],[19.0717,48.878,1503.2346],[19.0852,48.8732,1448.438],[19.1036,48.877,1191.5713],[19.1161,48.877,1059.8258],[19.1285,48.8801,1040.7947],[19.1501,48.8812,1012.0775],[19.2021,48.8912,1166.8181],[19.2288,48.9045,1306.3638],[19.2372,48.9055,1205.3098],[19.2399,48.9046,1051.5299],[19.2472,48.895,968.0377],[19.259,48.8856,912.9838],[19.2615,48.8763,882.7642],[19.2588,48.8676,902.9429],[19.245,48.8605,1190.4062],[19.2438,48.8591,1176.21],[19.2448,48.8571,1162.0303],[19.2516,48.8559,1177.9919],[19.2926,48.8602,1292.926],[19.3056,48.8647,1153.7467],[19.3125,48.8722,1430.1844],[19.3143,48.8806,1420.2263],[19.3197,48.8849,1665.0658],[19.3355,48.8953,1697.3925],[19.3592,48.9068,1495.2031],[19.3825,48.9231,1530.7136],[19.3945,48.9279,1511.7828],[19.43,48.9316,1454.894],[19.4386,48.9341,1307.3247],[19.452,48.9321,1662.915],[19.5114,48.9372,1774.5526],[19.5391,48.9369,1404.907],[19.5715,48.9407,1960.5693],[19.6001,48.9414,1824.031],[19.6271,48.9348,1648.8604],[19.6354,48.9297,1570.5439],[19.6418,48.9234,1637.3698],[19.6676,48.9107,1469.2166],[19.7142,48.9107,1567.8066],[19.7432,48.9047,1147.2285],[19.7599,48.9078,1327.135],[19.7815,48.9146,1314.6288],[19.7863,48.9194,1438.057],[19.8062,48.9236,1091.2329],[19.8188,48.9243,1210.7261],[19.8461,48.9212,1187.8008],[19.8811,48.9226,1411.5234],[19.9019,48.921,1136.8992],[19.9474,48.9228,1179.9285],[19.9523,48.9247,1237.5284],[19.9605,48.9318,1229.5387],[19.9637,48.9325,1333.0502],[19.9684,48.931399999999996,1435.7983],[19.9767,48.9251,1522.5234],[19.9919,48.9205,1434.558],[20.0015,48.9253,1232.3622],[20.0202,48.9268,1295.6438],[20.0476,48.9326,1326.3372],[20.0559,48.9383,1361.4949],[20.0578,48.9438,1334.1499],[20.057,48.9456,1352.8262],[20.0477,48.9481,1281.1184],[20.0316,48.9455,1302.1276],[20.0259,48.948,1326.0234],[20.0052,48.9717,1258.2074],[20.0015,48.9801,1265.2358],[19.9937,48.9915,1240.8066],[19.9901,49.0007,1036.4631],[19.9689,49.0187,819.3694],[19.9746,49.0232,963.8394],[19.998,49.0236,847.5814],[20.0095,49.0266,918.1147],[20.0096,49.0493,882.1105],[20.0161,49.0675,831.5797],[20.016,49.0728,832.3294],[20.0137,49.0774,856.1132],[20.0203,49.0838,869.9409],[20.0253,49.0967,925.1145],[20.0321,49.1057,1027.2208],[20.0345,49.1197,1269.9061],[20.031,49.1224,1303.3591],[20.0238,49.123,1300.1663],[20.0144,49.1175,1152.8092],[20.0032,49.1168,1044.6047],[19.9928,49.1129,1000.1429],[19.9811,49.1123,1100.3367],[19.9717,49.1099,1015.7125],[19.9665,49.1114,1008.5156],[19.9581,49.1205,1043.2863],[19.9555,49.1198,981.6196],[19.9529,49.115,927.2405],[19.9472,49.1146,957.1519],[19.9385,49.128,986.9565],[19.9378,49.1343,1016.3618],[19.9358,49.1361,1029.2611],[19.9128,49.1366,996.8594],[19.9039,49.1318,957.8078],[19.8991,49.134,923.0651],[19.8955,49.1418,957.5125],[19.8932,49.1666,1652.6724],[19.8785,49.1851,1869.2549],[19.8658,49.198,1898.3118],[19.8675,49.1961,2030.562],[19.8511,49.1963,1832.4905],[19.8447,49.1951,1951.5254],[19.841,49.1926,2106.8596],[19.84,49.1959,1892.7031],[19.8339,49.1968,1911.1039],[19.8294,49.2017,1932.9932],[19.8227,49.2014,2030.9174],[19.8198,49.1995,2139.6453],[19.8075,49.2057,1956.9257],[19.8037,49.2046,1929.7412],[19.795,49.1984,2101.0952],[19.7823,49.1999,1805.6108],[19.7786,49.205,1934.4631],[19.7673,49.206,1909.2355],[19.7676,49.227,1654.6638],[19.774,49.227,1377.1647],[19.774,49.2397,1456.8789],[19.7784,49.2454,1505.5345],[19.785,49.2467,1639.501],[19.7891,49.2538,1397.6952],[19.7945,49.2541,1322.3765],[19.7944,49.2631,1409.718],[19.8013,49.2631,1185.1824],[19.8013,49.2676,1186.1401],[19.815,49.2677,1041.2268],[19.815,49.2722,1074.9781],[19.8218,49.2722,957.9579],[19.8228,49.2768,1048.338],[19.8218,49.2812,951.3505],[19.8098,49.2954,1160.1436],[19.8011,49.2957,1164.7346],[19.8011,49.3128,1042.5775],[19.8079,49.3128,996.6464],[19.8079,49.3263,957.0666],[19.8035,49.3263,974.1473],[19.8023,49.3303,966.3336],[19.7991,49.3336,954.6393],[19.798,49.3408,927.7649],[19.7948,49.346,887.5243],[19.7953,49.3475,880.0468],[19.8009,49.349,860.2788],[19.8009,49.3527,896.9581],[19.8078,49.3534,883.8036],[19.8078,49.3579,858.7219],[19.8018,49.3579,852.3644],[19.8038,49.3648,809.0626],[19.8008,49.3714,794.5519],[19.8008,49.3759,773.6674],[19.7956,49.3759,784.4633],[19.7939,49.3774,782.0952],[19.7938,49.403,733.3047],[19.7893,49.403,739.48],[19.7906,49.4107,711.8176],[19.7676,49.413,707.9672],[19.7463,49.4079,709.2098],[19.7413,49.4048,716.5721],[19.7385,49.4,718.5288],[19.7296,49.3917,732.592],[19.7176,49.3864,676.7867],[19.7162,49.3873,671.9072],[19.7182,49.3888,668.9202],[19.7165,49.391,688.8107],[19.7139,49.3921,685.8737],[19.7096,49.3909,666.3333],[19.7088,49.3919,666.3333],[19.7106,49.3928,666.2279],[19.7078,49.3949,659.5406],[19.7067,49.3939,659.5406],[19.7065,49.396,667.3288],[19.7034,49.3952,663.6741],[19.7045,49.3982,673.1174],[19.7002,49.3982,653.6544],[19.6997,49.3997,654.8901],[19.6983,49.398,655.3854],[19.6969,49.3995,651.8984],[19.6932,49.3993,650.5792],[19.6928,49.4009,651.5438],[19.6901,49.3999,653.4493],[19.6916,49.401,651.5438],[19.6887,49.4011,646.8784],[19.6871,49.4031,646.9476],[19.6858,49.4023,646.9476],[19.6854,49.4036,643.7874],[19.6837,49.4026,643.7874],[19.6821,49.404,652.6639],[19.6801,49.4022,642.7869],[19.6788,49.4043,641.7051],[19.6765,49.4031,643.0219],[19.6751,49.4048,636.6447],[19.6721,49.4045,637.0935],[19.6717,49.4061,635.6065],[19.667,49.4056,631.6904],[19.6628,49.4077,639.6552],[19.6612,49.4065,630.4045],[19.6603,49.4085,631.4797],[19.6528,49.408,626.241],[19.6506,49.41,633.1435],[19.6443,49.4082,628.4761],[19.6448,49.4106,640.6052],[19.6412,49.4098,616.8364],[19.6395,49.4113,624.542],[19.6387,49.4086,620.2792],[19.6359,49.4104,615.4811],[19.6317,49.4088,614.6731],[19.6407,49.4261,646.9056],[19.6486,49.4354,619.0795],[19.6424,49.4381,612.6511],[19.6423,49.4477,606.4564],[19.6378,49.4476,602.0526],[19.6416,49.4495,601.3457],[19.6429,49.4546,599.5419],[19.6411,49.4576,602.4958],[19.6254,49.4496,609.9471],[19.6114,49.4469,600.3555],[19.6091,49.4501,613.5413],[19.6061,49.4513,607.046],[19.6061,49.4536,607.5729],[19.5974,49.4586,622.4666],[19.5889,49.4581,641.2225],[19.5815,49.4554,623.3276],[19.5806,49.4612,648.1174],[19.5751,49.4639,664.6817],[19.57,49.47,691.0654],[19.5669,49.4712,681.5156],[19.5691,49.4745,740.2426],[19.5656,49.4805,787.6561],[19.562,49.4822,784.2374],[19.5584,49.488,771.4914],[19.5574,49.4869,748.1712],[19.5536,49.4899,803.6201],[19.5544,49.4987,742.1495],[19.5516,49.5076,781.3586],[19.5429,49.5183,795.9197],[19.5415,49.5233,858.0498],[19.5351,49.5263,914.819],[19.5356,49.5305,861.7668],[19.5304,49.5358,846.2761],[19.5291,49.5411,901.8786],[19.5299,49.5492,1011.1459],[19.5274,49.5612,1372.2236],[19.5293,49.573,1711.4868],[19.5238,49.5721,1607.3466],[19.5182,49.5734,1586.3195],[19.5171,49.5779,1450.6682],[19.5143,49.5779,1486.9167],[19.5102,49.5824,1371.328],[19.4964,49.5824,1413.7268],[19.4963,49.5869,1223.4615],[19.4894,49.5868,1307.1082],[19.4894,49.5913,1034.8231],[19.4825,49.5913,1064.897],[19.4824,49.5958,915.8345],[19.4755,49.5958,970.6513],[19.4755,49.6003,972.8847],[19.4718,49.6003,1006.6042],[19.4746,49.6047,1019.0338],[19.4674,49.6138,1140.8401],[19.4549,49.6109,1144.0645],[19.4485,49.6138,1074.3896],[19.4462,49.6132,1036.9675],[19.442,49.6055,964.99],[19.4451,49.6016,906.2999],[19.442,49.5985,910.7497],[19.4306,49.5954,830.9247],[19.4134,49.5955,896.5521],[19.4135,49.5927,1042.3411],[19.41,49.5921,1029.6166],[19.4071,49.5868,935.8202],[19.4076,49.5808,856.5769],[19.4037,49.5774,812.8985],[19.393,49.5773,776.5848],[19.393,49.5728,877.937],[19.3792,49.5727,827.6754],[19.3793,49.5706,856.0601],[19.3714,49.5674,935.3915],[19.3725,49.5568,911.0782],[19.3666,49.5537,931.853],[19.3688,49.5473,849.8466],[19.3671,49.5411,830.5895],[19.3452,49.5409,958.3448],[19.3452,49.5364,1089.7064],[19.3246,49.5363,1400.7354],[19.3245,49.5408,1208.2844],[19.3107,49.5407,1244.3943],[19.3038,49.5407,1132.7198],[19.3039,49.5361,1307.2614],[19.2625,49.5359,1129.6261],[19.2626,49.5318,1213.8027],[19.2607,49.5312,1217.1365],[19.261,49.5273,1155.2991],[19.2558,49.5268,1131.7723],[19.2526,49.5223,1087.425],[19.249,49.5222,1033.5964],[19.249,49.52,1071.1971],[19.2422,49.5177,950.3169],[19.2406,49.5149,930.6176],[19.2333,49.5105,951.6411],[19.2348,49.5077,974.5579],[19.234,49.5037,955.7917],[19.237,49.5017,975.5306],[19.2355,49.4957,1028.3691],[19.2288,49.495,1024.4839],[19.2278,49.4919,1064.9749],[19.2315,49.4868,1113.3877],[19.2258,49.4815,1072.7042],[19.2221,49.4814,1023.9317],[19.2222,49.4764,1068.5505],[19.2205,49.4735,1034.957],[19.22,49.4693,1031.5874],[19.2271,49.4669,976.0715],[19.2283,49.4637,895.7587],[19.2253,49.4543,872.7216],[19.2196,49.4509,900.5344],[19.219,49.4486,948.3955],[19.209,49.4518,1000.6711],[19.1986,49.4482,1031.0206],[19.1857,49.4347,1054.4932],[19.1863,49.432,1011.2285],[19.1934,49.426,963.3571],[19.191,49.421,968.0271],[19.1974,49.4146,1121.7803],[19.1875,49.4097,1140.4729],[19.1773,49.414,959.4144],[19.1682,49.4134,949.3132],[19.1683,49.4107,989.2036],[19.1651,49.4088,996.4427],[19.1431,49.4086,1046.8657],[19.1375,49.41,1101.8082],[19.1326,49.4081,1083.4517],[19.1331,49.4068,1059.9652],[19.1311,49.4051,1069.6],[19.1204,49.4027,1086.9928],[19.1067,49.404,1021.1463],[19.103,49.4098,1013.8909],[19.0995,49.4109,1063.1268],[19.0994,49.4173,1071.0782],[19.0727,49.418,1101.0219],[19.0702,49.4125,1126.0333],[19.0539,49.4152,1110.0721],[19.0514,49.4124,1017.0267],[19.0514,49.41,1063.4015],[19.0443,49.4047,1092.9963],[19.0447,49.4004,1089.2245],[19.0379,49.3987,1117.8362],[19.0379,49.3968,1115.3455],[19.035,49.3957,1158.2294],[19.0243,49.3944,1075.5289],[19.0242,49.3986,999.6942],[18.9829,49.3982,1051.2312],[18.9828,49.4027,963.2388],[18.976,49.4026,1045.3712],[18.9757,49.4161,1095.792],[18.9857,49.4218,1040.6277],[18.9869,49.4253,971.9713],[18.9892,49.4253,939.3422],[18.989,49.4343,943.6116],[18.9836,49.4343,949.5708],[18.9821,49.4361,964.7321],[18.982,49.4433,906.3001],[18.9785,49.4432,963.3912],[18.976,49.445,955.3519],[18.9739,49.4517,1045.3889],[18.9608,49.4547,1083.5194],[18.963,49.4574,1022.8138],[18.9662,49.468,839.951],[18.9646,49.4724,801.5231],[18.9702,49.4768,874.6429],[18.9674,49.4787,848.9604],[18.9671,49.493899999999996,730.1003],[18.9739,49.4973,758.0569],[18.9737,49.5063,671.2223],[18.9668,49.5063,741.6252],[18.9667,49.5108,688.3408],[18.9598,49.5107,715.7791],[18.9597,49.5152,708.6123],[18.9528,49.5152,797.3219],[18.9527,49.5197,818.9037],[18.9497,49.5196,835.3104],[18.9466,49.5174,808.2463],[18.9309,49.5199,793.1006],[18.8977,49.5146,649.1722],[18.8839,49.5165,596.7977],[18.8839,49.5189,610.6696],[18.8668,49.5194,528.212],[18.843,49.517,509.1854],[18.8426,49.5261,637.0763],[18.7982,49.5171,554.6142],[18.7821,49.5119,523.1375],[18.7498,49.4958,538.544],[18.7348,49.4929,595.8845],[18.716,49.4994,611.0362],[18.6933,49.5031,819.8834],[18.6685,49.5055,987.5813],[18.6202,49.503,825.3054],[18.5739,49.5119,865.5886],[18.558,49.5128,739.0131],[18.5429,49.5047,812.6188],[18.5362,49.4934,814.0941],[18.5385,49.481,745.4056],[18.5339,49.4676,674.1334],[18.5097,49.4389,781.1512],[18.4779,49.4169,824.8008],[18.4484,49.4027,761.8709],[18.434,49.397,794.7461],[18.399,49.3919,839.1899],[18.4024,49.3819,761.4424],[18.4037,49.3708,760.4595],[18.3959,49.3571,915.3276],[18.3797,49.3442,708.3647],[18.362,49.333,740.696],[18.3319,49.3199,883.6932],[18.3373,49.3173,989.0687],[18.3687,49.3184,1051.0212],[18.3723,49.3077,872.9566],[18.3832,49.2996,944.4989],[18.3886,49.2899,840.2982],[18.4203,49.2627,880.6792],[18.4244,49.2497,641.0404],[18.4305,49.2436,549.8047],[18.4369,49.2318,456.8314],[18.4426,49.2257,546.239],[18.4432,49.2179,478.6574],[18.4454,49.2126,615.0085],[18.4562,49.2036,444.0816],[18.46,49.1973,552.4514],[18.4663,49.1919,505.5933],[18.4808,49.1863,356.5605],[18.5008,49.1818,294.2756],[18.5342,49.1641,522.0272],[18.549,49.1618,513.1518],[18.551,49.1575,561.3938],[18.5515,49.1493,687.2497],[18.5647,49.1447,658.2776],[18.5654,49.1419,631.9351],[18.5633,49.1344,573.4077],[18.573,49.125,652.7708],[18.5745,49.1203,552.2155],[18.5736,49.1153,483.3927],[18.5704,49.11,462.3871],[18.5639,49.105,459.4872],[18.5471,49.0964,401.1175],[18.5451,49.0937,388.6709],[18.5458,49.0913,443.8383],[18.5577,49.0862,664.0979],[18.5872,49.0795,495.4143],[18.5959,49.0747,549.5662],[18.6001,49.0705,537.2208],[18.6023,49.0554,731.863],[18.5974,49.0462,608.9937],[18.5972,49.0349,772.8511],[18.5918,49.0278,717.9265],[18.5823,49.02,723.3335],[18.5692,49.002,733.3501],[18.5613,48.9978,787.5429],[18.5188,48.9902,847.3624],[18.5058,48.9846,899.6762],[18.4829,48.9679,850.5606],[18.4586,48.9584,929.2647],[18.4565,48.9572,832.1313],[18.4587,48.9489,853.4252],[18.465,48.9417,768.9072],[18.4771,48.9381,797.9172],[18.4886,48.9367,721.9224],[18.4884,48.9379,704.3513],[18.5133,48.939,803.9369],[18.5344,48.9467,926.4816],[18.5466,48.9539,742.2079],[18.5582,48.9632,838.1382],[18.5673,48.9674,848.4354],[18.5754,48.9644,866.3688],[18.5777,48.9547,637.6644],[18.58,48.9522,709.8228],[18.5908,48.9563,974.9379],[18.6064,48.9585,917.304],[18.6364,48.958,950.1998],[18.6576,48.9558,944.5795],[18.6829,48.947,618.8682],[18.7034,48.9448,681.5281],[18.7045,48.9379,748.1418],[18.6976,48.928,729.295],[18.6883,48.9196,546.1279],[18.6821,48.9098,586.4504],[18.6813,48.9006,646.4966],[18.6881,48.8926,439.9787],[18.6906,48.886,535.9693],[18.684,48.8696,585.916],[18.6833,48.8636,512.3561],[18.6846,48.859,590.7227],[18.6931,48.8476,615.8688],[18.7173,48.8346,664.5248],[18.7242,48.8295,722.1858],[18.7291,48.8234,638.4583],[18.7412,48.8182,747.1306],[18.7525,48.8103,760.1046],[18.7586,48.8027,836.4402],[18.7626,48.7923,700.8525],[18.7722,48.7851,717.0383],[18.7771,48.7783,702.2699],[18.8006,48.7608,618.137],[18.8048,48.7558,565.8911],[18.8077,48.7488,560.3493],[18.8126,48.744,612.9637],[18.8581,48.7653,643.7264],[18.8749,48.7681,828.3513],[18.8786,48.7654,880.4527],[18.8816,48.7536,886.4901],[18.9004,48.7481,756.9331],[18.9216,48.7464,909.7953],[18.934,48.747,946.3735],[18.9704,48.7416,1053.0493],[18.9955,48.742,1204.178],[18.9988,48.7527,1181.1875],[18.9994,48.7655,1161.5902],[19.0068,48.7751,1128.4441],[19.007,48.7793,1096.7592],[19.0042,48.7866,1131.7571],[19.0065,48.7988,1016.2701],[18.9985,48.8133,978.4539],[18.9982,48.8223,941.5198],[18.9884,48.8314,879.1561],[18.9848,48.8396,859.6754],[18.9944,48.8508,944.6643],[19.006,48.8582,1049.3142],[19.012,48.8696,1042.3798],[19.0207,48.8751,1264.0839]]]]}}