{"type":"Feature","properties":{"GID_2":"SVK.5.13_1","GID_0":"SVK","country":"Slovakia","GID_1":"SVK.5_1","province":"Prešovský","NL_NAME_1":"NA","county":"VranovnadToplou","VARNAME_2":"NA","NL_NAME_2":"NA","TYPE_2":"Okres","ENGTYPE_2":"District","CC_2":"713","HASC_2":"SK.PV.VT","name":"Vranovnad_Toplou.county"},
"geometry":{"type": "MultiPolygon","coordinates": [[[[21.5488,48.7928,787.2192],[21.5788,48.7872,660.1005],[21.5999,48.7869,645.0421],[21.6281,48.7824,361.5914],[21.6541,48.7823,210.3055],[21.6867,48.7699,125.8619],[21.7102,48.769,110.4481],[21.7351,48.7779,110.9314],[21.7549,48.779,111.7369],[21.7621,48.7807,111.3483],[21.7611,48.7901,112.4486],[21.7628,48.7929,112.4554],[21.7693,48.7958,113.7878],[21.7925,48.7991,177.9153],[21.804,48.8058,195.3007],[21.8043,48.8104,204.338],[21.7988,48.8219,182.3441],[21.7972,48.8329,195.0477],[21.7902,48.8465,215.6505],[21.793,48.8639,203.9404],[21.7915,48.8746,184.5018],[21.8009,48.8854,173.1002],[21.8002,48.8974,237.1263],[21.8037,48.9018,298.412],[21.7877,48.905,134.6066],[21.7884,48.9162,171.6046],[21.783,48.9265,215.6928],[21.7887,48.9385,214.0155],[21.7968,48.9454,230.5195],[21.8027,48.9544,190.0046],[21.8064,48.9698,273.7933],[21.8026,48.9769,291.1556],[21.7906,48.985,230.2145],[21.7865,48.9898,235.3196],[21.7842,48.9957,339.3148],[21.7836,49.0045,322.4791],[21.7764,49.0139,219.6736],[21.78,49.0215,175.8972],[21.779,49.0253,156.2896],[21.7737,49.0285,202.3306],[21.7558,49.0325,334.8133],[21.7526,49.0354,312.7369],[21.7535,49.0384,275.6075],[21.7617,49.0463,267.6122],[21.7707,49.0614,253.6856],[21.7807,49.0661,257.5718],[21.782,49.0681,257.0837],[21.7744,49.073,276.1657],[21.7717,49.0846,278.6731],[21.7551,49.1012,365.6664],[21.755,49.1271,400.5618],[21.7535,49.1311,385.7463],[21.7489,49.1359,434.4359],[21.7318,49.1299,367.9309],[21.7267,49.1247,432.7271],[21.7265,49.1171,387.2835],[21.7343,49.1057,247.9817],[21.7313,49.0949,248.0927],[21.7194,49.0876,330.0826],[21.6984,49.0804,239.2236],[21.689,49.0711,234.112],[21.6796,49.0702,261.9397],[21.6783,49.0675,297.9747],[21.6828,49.0595,176.8048],[21.6823,49.0563,158.0],[21.6612,49.0484,355.4543],[21.6555,49.0499,362.373],[21.6312,49.063,384.8013],[21.6221,49.0707,413.5126],[21.6154,49.0738,382.2579],[21.611,49.0838,408.3757],[21.6117,49.0953,357.0433],[21.6098,49.1007,303.8397],[21.5818,49.1187,336.1237],[21.5746,49.1283,271.8672],[21.5673,49.134,262.822],[21.5643,49.1343,256.4498],[21.5588,49.1281,274.2624],[21.5678,49.1206,325.6841],[21.5692,49.1172,401.0278],[21.5713,49.1,415.8841],[21.5698,49.0832,317.058],[21.5678,49.0806,353.061],[21.5317,49.0699,312.1145],[21.5277,49.0704,320.8931],[21.5213,49.0746,205.8122],[21.5125,49.0756,325.3491],[21.5016,49.0795,350.9862],[21.4929,49.0793,367.4415],[21.4746,49.0749,289.9567],[21.47,49.0715,375.9123],[21.4679,49.0657,439.9048],[21.4624,49.0607,444.2425],[21.4504,49.0553,286.1279],[21.4276,49.0404,364.8446],[21.4204,49.0267,419.1184],[21.4121,49.0205,433.2511],[21.4128,49.0175,496.2563],[21.4282,49.0079,490.8613],[21.4306,49.0049,524.0562],[21.4287,49.0005,525.2472],[21.4164,48.9935,812.3173],[21.416,48.9893,908.8287],[21.4346,48.982,832.8826],[21.4451,48.9647,833.6705],[21.4725,48.9417,1021.957],[21.4752,48.9282,718.7751],[21.487,48.9207,658.2443],[21.4859,48.9076,659.7469],[21.4906,48.8901,651.6068],[21.4916,48.878,687.8639],[21.4906,48.8645,783.1597],[21.4876,48.8552,872.525],[21.4907,48.8449,844.6772],[21.4954,48.8403,814.3945],[21.5179,48.8295,726.6796],[21.5271,48.8211,685.7043],[21.5292,48.8107,673.1614],[21.5488,48.7928,787.2192]]]]}}