{"type":"Feature","properties":{"GID_2":"SVK.2.1_1","GID_0":"SVK","country":"Slovakia","GID_1":"SVK.2_1","province":"Bratislavský","NL_NAME_1":"NA","county":"BratislavaI","VARNAME_2":"NA","NL_NAME_2":"NA","TYPE_2":"Okres","ENGTYPE_2":"District","CC_2":"101","HASC_2":"SK.BL.B1","name":"Bratislava_I.county"},
"geometry":{"type": "MultiPolygon","coordinates": [[[[17.0653,48.1649,226.8751],[17.0671,48.1516,172.0432],[17.0644,48.1434,132.0],[17.0915,48.1379,138.4062],[17.1172,48.1378,131.0],[17.1201,48.1419,139.3466],[17.1199,48.1445,143.7691],[17.1141,48.1479,150.7182],[17.1136,48.1569,160.0145],[17.0969,48.1558,232.8481],[17.0871,48.1614,192.9325],[17.0653,48.1649,226.8751]]]]}}