{"type": "Feature","bbox": [18.3322,49.3003,19.1603,49.5261],"geometry": {"type": "MultiPolygon","coordinates": [[[[18.4439,49.4009,755.1812],[18.434,49.397,794.7461],[18.399,49.3919,839.1899],[18.4024,49.3819,761.4424],[18.4037,49.3708,760.4595],[18.3959,49.3571,915.3276],[18.3797,49.3442,708.3647],[18.362,49.333,740.696],[18.3322,49.3194,883.6932],[18.3373,49.3173,989.0687],[18.3599,49.3177,1021.2803],[18.369,49.3238,906.2607],[18.3964,49.3329,905.9927],[18.4031,49.3328,989.3535],[18.4128,49.3292,897.1418],[18.4302,49.3318,1032.6949],[18.4402,49.3306,993.3207],[18.4466,49.3358,938.9882],[18.4614,49.3368,880.2926],[18.486,49.3443,828.9412],[18.5034,49.3516,779.075],[18.5226,49.3521,747.1193],[18.5361,49.3584,808.232],[18.5635,49.3565,650.5292],[18.5788,49.3621,583.5402],[18.5941,49.3598,650.6129],[18.5987,49.3556,730.556],[18.6143,49.3531,761.7157],[18.6207,49.3556,726.356],[18.6262,49.3658,737.1088],[18.63,49.3679,773.4879],[18.6351,49.3668,788.9083],[18.6728,49.3469,851.6542],[18.6735,49.3495,810.1162],[18.671,49.3557,784.0695],[18.6802,49.3627,795.6854],[18.692,49.3641,761.0104],[18.6985,49.3699,781.7636],[18.7038,49.372,749.8746],[18.721,49.3678,813.7244],[18.7266,49.3717,754.924],[18.7276,49.3782,771.4862],[18.7299,49.3816,743.7591],[18.7379,49.3848,707.5151],[18.7425,49.389,707.8878],[18.7469,49.3897,773.4714],[18.7693,49.3822,878.0961],[18.7831,49.3686,766.3792],[18.7982,49.361,584.8996],[18.804,49.353,477.4736],[18.8185,49.3569,450.1548],[18.8264,49.357,520.7667],[18.833,49.3543,564.2498],[18.8486,49.3571,480.1604],[18.8656,49.3521,613.1603],[18.8739,49.3457,729.2855],[18.8943,49.3382,746.6772],[18.9008,49.3249,655.3792],[18.9104,49.3219,807.6329],[18.9202,49.3086,616.0498],[18.9298,49.3048,620.7429],[18.9368,49.3056,627.431],[18.9438,49.3117,537.3408],[18.9526,49.3161,648.058],[18.977,49.32,775.7202],[18.988,49.3186,907.3492],[18.9983,49.3104,838.5494],[19.016,49.3128,799.2108],[19.0182,49.3115,761.0381],[19.0197,49.3066,710.541],[19.0298,49.3034,786.6669],[19.0424,49.3066,771.0454],[19.0558,49.301,789.2225],[19.0666,49.3019,803.5223],[19.0744,49.3003,808.1016],[19.0894,49.305,883.17],[19.0983,49.31,828.3243],[19.1118,49.3086,974.9097],[19.1211,49.3107,983.4697],[19.1315,49.3102,999.9312],[19.1499,49.3198,980.3796],[19.1603,49.3289,954.8044],[19.153199999999998,49.3309,931.0301],[19.1506,49.3337,947.5858],[19.1542,49.3535,916.692],[19.1531,49.3558,875.537],[19.1309,49.3666,901.8981],[19.1188,49.366,965.4889],[19.1159,49.3672,944.2991],[19.1168,49.3711,955.3631],[19.1276,49.381,960.3568],[19.1262,49.3972,1000.9912],[19.1287,49.404,1071.2697],[19.1224,49.4026,1084.4736],[19.1073,49.4037,1056.2236],[19.103,49.4098,1013.8909],[19.0995,49.4109,1063.1268],[19.0994,49.4173,1071.0782],[19.0727,49.418,1101.0219],[19.0702,49.4125,1126.0333],[19.0539,49.4152,1110.0721],[19.0514,49.4124,1017.0267],[19.0514,49.41,1063.4015],[19.0443,49.4047,1092.9963],[19.0447,49.4004,1089.2245],[19.0379,49.3987,1117.8362],[19.0379,49.3968,1115.3455],[19.0363,49.3961,1162.2722],[19.0273,49.3941,1136.6218],[19.0242,49.3944,1075.5289],[19.0242,49.3986,999.6942],[18.9829,49.3982,1051.2312],[18.9828,49.4027,963.2388],[18.976,49.4026,1045.3712],[18.9757,49.4161,1095.792],[18.9857,49.4218,1040.6277],[18.9869,49.4253,971.9713],[18.9892,49.4253,939.3422],[18.989,49.4343,943.6116],[18.9836,49.4343,949.5708],[18.9821,49.4361,964.7321],[18.982,49.4433,906.3001],[18.9785,49.4432,963.3912],[18.976,49.445,955.3519],[18.9739,49.4517,1045.3889],[18.9608,49.4547,1083.5194],[18.963,49.4574,1022.8138],[18.9662,49.468,839.951],[18.9646,49.4724,801.5231],[18.9702,49.4768,874.6429],[18.9674,49.4787,848.9604],[18.9671,49.493899999999996,730.1003],[18.9739,49.4973,758.0569],[18.9737,49.5063,671.2223],[18.9668,49.5063,741.6252],[18.9667,49.5108,688.3408],[18.9598,49.5107,715.7791],[18.9597,49.5152,708.6123],[18.9528,49.5152,797.3219],[18.9527,49.5197,818.9037],[18.9497,49.5196,835.3104],[18.9466,49.5174,808.2463],[18.9309,49.5199,793.1006],[18.8977,49.5146,649.1722],[18.8839,49.5165,596.7977],[18.8839,49.5189,610.6696],[18.8668,49.5194,528.212],[18.843,49.517,509.1854],[18.8426,49.5261,637.0763],[18.7982,49.5171,554.6142],[18.7821,49.5119,523.1375],[18.7498,49.4958,538.544],[18.7348,49.4929,595.8845],[18.716,49.4994,611.0362],[18.6933,49.5031,819.8834],[18.6685,49.5055,987.5813],[18.6202,49.503,825.3054],[18.5739,49.5119,865.5886],[18.558,49.5128,739.0131],[18.5429,49.5047,812.6188],[18.5362,49.4934,814.0941],[18.5385,49.481,745.4056],[18.5339,49.4676,674.1334],[18.5097,49.4389,781.1512],[18.4779,49.4169,824.8008],[18.4439,49.4009,755.1812]]]]}
,"properties": {"GID_2": "SVK.8.2_1","GID_0": "SVK","country": "Slovakia","GID_1": "SVK.8_1","province": "Žilinský","NL_NAME_1": "NA","county": "Cadca","VARNAME_2": "NA","NL_NAME_2": "NA","TYPE_2": "Okres","ENGTYPE_2": "District","CC_2": "502","HASC_2": "SK.ZI.CA","name": "Cadca.county","area_km2": 771.2277,"hist_schema_id": "Elevation0-9000","hist_area_km2": {"375": 2.2503,"400": 6.2226,"425": 13.9285,"450": 19.4997,"475": 26.6985,"500": 32.8888,"525": 38.8199,"550": 45.5065,"575": 47.7699,"600": 51.472,"625": 48.9527,"650": 50.8751,"675": 51.3188,"700": 51.0885,"725": 46.9797,"750": 44.1401,"775": 37.8773,"800": 31.4209,"825": 25.3768,"850": 20.947,"875": 16.4201,"900": 14.1149,"925": 11.6853,"950": 9.6021,"975": 7.3948,"1000": 5.4079,"1025": 4.0429,"1050": 2.6077,"1075": 2.0281,"1100": 1.3383,"1125": 1.0347,"1150": 0.6346,"1175": 0.4552,"1200": 0.3173,"1225": 0.1104}}}