{"type": "Feature","bbox": [22.0293,48.8623,22.5679,49.1865],"geometry": {"type": "MultiPolygon","coordinates": [[[[22.5456,49.092,1178.6844],[22.5394,49.0947,1142.7938],[22.528,49.0927,1162.5508],[22.5064,49.093,956.9451],[22.5063,49.091,983.3638],[22.5025,49.0893,941.895],[22.5002,49.0862,938.7229],[22.497,49.0859,950.8593],[22.486,49.0889,947.718],[22.4848,49.091,993.98],[22.477,49.0934,978.0862],[22.4671,49.1006,1151.0559],[22.457,49.1036,1123.1309],[22.4181,49.1041,1076.3407],[22.4184,49.1086,1008.9642],[22.4115,49.1088,1033.1123],[22.4118,49.1133,1011.2466],[22.4049,49.1134,1113.968],[22.4052,49.118,1044.5714],[22.3983,49.1181,1052.5601],[22.3988,49.1271,917.9745],[22.392,49.1273,1039.9774],[22.3922,49.1318,1003.6774],[22.3854,49.132,998.7411],[22.3858,49.141,931.5511],[22.379,49.1411,944.8568],[22.3792,49.1456,1024.4963],[22.3662,49.1469,1073.6877],[22.3346,49.1465,904.0819],[22.3296,49.1441,795.8278],[22.3205,49.1356,995.7568],[22.306,49.137,938.1442],[22.3036,49.1386,972.486],[22.3038,49.1428,915.6829],[22.2833,49.1433,983.8177],[22.2836,49.1478,866.8213],[22.2617,49.1483,918.6039],[22.247,49.1533,913.4239],[22.2397,49.1519,900.5767],[22.236,49.1544,938.5737],[22.2366,49.1669,743.5317],[22.2434,49.1667,727.8744],[22.2438,49.1758,723.052],[22.237,49.1759,716.4565],[22.2372,49.1804,701.2802],[22.2304,49.1808,710.8948],[22.2306,49.1851,715.7569],[22.2172,49.1838,716.1246],[22.211,49.1856,716.7924],[22.2099,49.1827,702.0858],[22.2063,49.1821,696.7173],[22.205,49.1798,695.4314],[22.1908,49.1739,793.3907],[22.1878,49.1744,801.1094],[22.1858,49.1783,854.1306],[22.1757,49.1831,840.3185],[22.1759,49.1862,798.276],[22.162,49.1865,813.713],[22.151,49.179,674.2426],[22.1465,49.1709,609.8787],[22.1382,49.163,571.1345],[22.1369,49.1557,530.1898],[22.1394,49.1485,454.9303],[22.1387,49.1464,430.9674],[22.1229,49.142,411.9917],[22.1181,49.1372,400.3457],[22.1151,49.1055,509.7342],[22.1184,49.1025,608.2676],[22.1309,49.1014,583.6583],[22.1372,49.0981,524.1807],[22.14,49.0933,506.766],[22.1424,49.0799,448.6826],[22.1393,49.0758,532.5856],[22.1146,49.0674,428.7059],[22.1036,49.0577,323.6258],[22.1034,49.055,286.7574],[22.1073,49.0483,349.2632],[22.1055,49.0401,357.5532],[22.1196,49.0317,295.3643],[22.1213,49.0285,375.8005],[22.1132,49.0234,400.305],[22.1071,49.0171,363.3253],[22.0955,49.0128,363.866],[22.072,49.014,289.3913],[22.0644,49.0112,407.5351],[22.0604,49.0059,393.697],[22.0606,48.9909,289.1288],[22.0568,48.9833,224.698],[22.0308,48.9658,253.1342],[22.0293,48.9619,193.9025],[22.0335,48.9551,175.5274],[22.0387,48.952,175.431],[22.0608,48.9535,187.0855],[22.0793,48.9444,339.7225],[22.0977,48.9422,442.1398],[22.1079,48.9359,647.6714],[22.1255,48.9354,688.0043],[22.1274,48.9374,592.4645],[22.1275,48.9415,510.5488],[22.1304,48.9443,443.4401],[22.145,48.945,452.0561],[22.1519,48.9521,348.0715],[22.1548,48.9531,378.3883],[22.1578,48.9517,392.5132],[22.1617,48.9465,417.0135],[22.1647,48.9387,457.1517],[22.1838,48.9386,661.0802],[22.1938,48.9369,695.0987],[22.1987,48.9343,777.7235],[22.206,48.9273,901.6063],[22.2196,48.9298,961.8856],[22.2253,48.929,903.7968],[22.2406,48.9197,917.4728],[22.2436,48.9035,891.809],[22.2534,48.8949,621.5114],[22.2558,48.889,619.4648],[22.2601,48.8847,637.5544],[22.2619,48.8792,683.3319],[22.2675,48.8733,669.775],[22.2672,48.8645,714.1399],[22.2691,48.8625,699.4897],[22.2755,48.8623,601.2929],[22.2857,48.8677,523.826],[22.2995,48.8692,441.0229],[22.3124,48.8738,435.9701],[22.3564,48.8733,261.2285],[22.3677,48.8758,328.0959],[22.374,48.8741,409.4147],[22.3807,48.868899999999996,425.4899],[22.384,48.8684,461.28],[22.3848,48.8739,415.6868],[22.3907,48.8745,473.8428],[22.3968,48.881,507.8387],[22.4134,48.8881,202.4473],[22.4152,48.9061,315.861],[22.4211,48.9124,316.9788],[22.4221,48.9245,411.579],[22.4278,48.9248,483.1951],[22.4282,48.9308,456.4657],[22.4225,48.9305,468.779],[22.4229,48.9365,424.5875],[22.4286,48.9368,393.7507],[22.429,48.9429,458.2075],[22.4636,48.9737,769.2869],[22.4629,48.9802,524.6395],[22.4715,48.9795,625.5205],[22.4701,48.9924,688.3643],[22.478,48.9981,633.3194],[22.4953,48.997,711.6235],[22.4945,49.0033,669.6802],[22.5033,49.0028,771.0335],[22.5043,48.9966,751.3945],[22.5239,48.9977,1047.3076],[22.5322,49.0039,1009.411],[22.5422,49.0046,1015.9016],[22.5375,49.0213,677.7706],[22.5473,49.022,685.8279],[22.5458,49.0275,603.6283],[22.548,49.0561,642.5565],[22.547,49.0623,775.0433],[22.554,49.0742,808.775],[22.5631,49.0741,839.1348],[22.5609,49.0862,1135.5564],[22.5679,49.0869,1163.033],[22.5678,49.0915,1129.6626],[22.5456,49.092,1178.6844]]]]}
,"properties": {"GID_2": "SVK.5.9_1","GID_0": "SVK","country": "Slovakia","GID_1": "SVK.5_1","province": "Prešovský","NL_NAME_1": "NA","county": "Snina","VARNAME_2": "NA","NL_NAME_2": "NA","TYPE_2": "Okres","ENGTYPE_2": "District","CC_2": "709","HASC_2": "SK.PV.SV","name": "Snina.county","area_km2": 774.1744,"hist_schema_id": "Elevation0-9000","hist_area_km2": {"175": 3.4385,"200": 9.9666,"225": 15.3408,"250": 21.049,"275": 30.302,"300": 37.3414,"325": 46.1293,"350": 48.2923,"375": 51.0499,"400": 45.6999,"425": 43.9588,"450": 42.4367,"475": 41.4117,"500": 37.9829,"525": 36.1968,"550": 32.7056,"575": 30.7169,"600": 27.131,"625": 23.8099,"650": 21.613,"675": 18.3336,"700": 15.845,"725": 14.2771,"750": 11.6795,"775": 9.9857,"800": 8.3324,"825": 8.0419,"850": 7.2496,"875": 5.3474,"900": 5.2637,"925": 4.9029,"950": 3.9163,"975": 3.4167,"1000": 2.7076,"1025": 1.9715,"1050": 1.5133,"1075": 1.5272,"1100": 1.1105,"1125": 0.944,"1150": 0.7774,"1175": 0.3471,"1200": 0.0972,"1225": 0.0139}}}