{"type": "Feature","bbox": [19.3626,48.1558,19.9381,48.555],"geometry": {"type": "MultiPolygon","coordinates": [[[[19.8865,48.1658,657.978],[19.8879,48.1697,575.5627],[19.8945,48.177,582.5101],[19.8968,48.1832,550.8136],[19.8962,48.1888,543.2728],[19.8914,48.1957,489.4793],[19.8921,48.1979,455.3013],[19.9117,48.1968,556.807],[19.9176,48.2001,534.8956],[19.926,48.2017,577.5325],[19.9277,48.2203,355.2637],[19.9307,48.2318,242.2494],[19.9381,48.2391,270.3616],[19.9365,48.246,298.201],[19.9265,48.2503,260.0617],[19.9137,48.2531,263.1178],[19.9095,48.2588,304.4567],[19.9092,48.2719,301.5818],[19.9031,48.2808,308.435],[19.9011,48.2879,310.1395],[19.8923,48.2907,397.5383],[19.8872,48.2971,403.0818],[19.8781,48.3026,446.3095],[19.8701,48.3214,346.5204],[19.8578,48.3338,277.3788],[19.8535,48.3442,239.3112],[19.8458,48.3526,195.8661],[19.818,48.3622,218.3691],[19.8095,48.3635,222.6269],[19.7945,48.3626,257.5473],[19.7848,48.3543,269.8405],[19.7749,48.3513,187.2453],[19.7712,48.3518,187.378],[19.7674,48.3581,189.3083],[19.7631,48.36,192.0426],[19.7562,48.359,190.3357],[19.7494,48.3554,197.1712],[19.7436,48.3557,202.507],[19.7315,48.3611,205.4034],[19.7313,48.3636,206.4559],[19.7351,48.3686,195.141],[19.7265,48.3736,202.1033],[19.709,48.3739,220.7423],[19.6991,48.3758,244.695],[19.6949,48.3738,226.9296],[19.6901,48.3684,193.4684],[19.6828,48.3673,203.3641],[19.6758,48.3697,216.8335],[19.6713,48.3733,228.0491],[19.6662,48.3792,227.9553],[19.6656,48.387,222.7959],[19.6634,48.389,224.5854],[19.6376,48.3848,241.3965],[19.637,48.3866,231.6145],[19.6402,48.3932,275.791],[19.6399,48.4074,253.4499],[19.6425,48.4099,304.3979],[19.6489,48.412,342.0198],[19.6609,48.4124,262.6135],[19.6663,48.412,248.5284],[19.6779,48.4072,237.3985],[19.6819,48.4077,240.6861],[19.6827,48.4096,249.7381],[19.6762,48.4205,282.7527],[19.6659,48.4282,298.7578],[19.6452,48.4365,347.0768],[19.6287,48.4394,377.0697],[19.6091,48.4473,376.4105],[19.6053,48.4579,432.385],[19.5889,48.4672,503.2317],[19.5885,48.4709,501.4475],[19.5959,48.4765,542.1189],[19.5982,48.4809,608.1341],[19.5978,48.4841,627.5033],[19.5926,48.4891,457.6004],[19.5901,48.495,366.6952],[19.5939,48.5076,516.3512],[19.5913,48.5122,701.0214],[19.584,48.5183,700.0895],[19.5833,48.5293,849.6561],[19.5752,48.5428,854.8792],[19.5641,48.5442,858.0684],[19.5553,48.5499,757.1663],[19.5384,48.5544,714.3529],[19.5133,48.5531,715.4699],[19.5011,48.555,641.9009],[19.4962,48.5507,563.0992],[19.4942,48.5415,562.8484],[19.4886,48.5364,525.4125],[19.4772,48.5341,546.0216],[19.4678,48.5237,472.5547],[19.4506,48.5217,477.088],[19.4473,48.52,503.5298],[19.4411,48.5067,513.7338],[19.4367,48.5014,567.2611],[19.4321,48.4907,598.908],[19.4266,48.4829,590.6006],[19.4233,48.4829,604.2021],[19.4166,48.4887,647.6174],[19.4089,48.4858,715.8065],[19.4009,48.4854,702.9921],[19.3723,48.4903,765.2158],[19.3626,48.4883,717.3052],[19.3639,48.4863,685.43],[19.3838,48.4785,623.8654],[19.3786,48.4683,633.4255],[19.3873,48.4619,566.1133],[19.388,48.4594,593.8052],[19.3671,48.4553,684.3584],[19.3646,48.4531,698.5817],[19.3648,48.4511,694.3266],[19.3794,48.4354,777.1364],[19.3865,48.4114,655.6285],[19.3874,48.3977,527.6991],[19.3901,48.3921,497.807],[19.3946,48.3885,464.3371],[19.4029,48.3773,575.5879],[19.4106,48.3755,524.2212],[19.4186,48.3702,351.5203],[19.43,48.3709,494.767],[19.4223,48.3557,467.6474],[19.4233,48.3473,507.091],[19.4271,48.3467,511.0017],[19.44,48.3508,473.218],[19.4476,48.3513,598.0075],[19.4573,48.3469,559.572],[19.4603,48.3389,525.8315],[19.46,48.3273,370.5265],[19.4857,48.3057,330.0714],[19.4882,48.3022,309.6672],[19.4922,48.2889,239.4494],[19.4976,48.2832,255.1468],[19.5041,48.2821,263.2975],[19.516,48.2834,265.7461],[19.5299,48.2918,285.5817],[19.5346,48.2925,304.0749],[19.5455,48.2898,269.9187],[19.5525,48.2821,284.3745],[19.5566,48.2746,251.9821],[19.5563,48.2723,236.6773],[19.5532,48.2703,238.3644],[19.5426,48.2684,279.0676],[19.5407,48.2661,288.0295],[19.543,48.2519,298.4681],[19.542,48.2411,289.7126],[19.547,48.2344,286.3499],[19.5478,48.2299,248.408],[19.5414,48.2108,162.6986],[19.5488,48.211,212.0656],[19.579,48.2169,162.0399],[19.5954,48.2305,162.8009],[19.6135,48.2427,164.3571],[19.6286,48.2514,164.9653],[19.6371,48.2527,167.2522],[19.6479,48.2408,221.2758],[19.6565,48.2406,286.1085],[19.665,48.243,307.2259],[19.6729,48.2382,330.0179],[19.6747,48.2223,306.1182],[19.6795,48.2159,316.5462],[19.6957,48.2058,314.2208],[19.7071,48.2034,324.7233],[19.7179,48.2043,306.3804],[19.7259,48.2092,284.8465],[19.7337,48.2166,345.2324],[19.7426,48.2184,300.2761],[19.7543,48.2171,315.5202],[19.7706,48.207,309.8897],[19.7796,48.2034,308.5375],[19.7877,48.1955,374.5355],[19.8008,48.1942,454.2696],[19.8034,48.1883,446.3041],[19.8015,48.1842,394.8177],[19.7881,48.1734,591.9582],[19.7847,48.1685,554.8801],[19.7836,48.1627,610.6602],[19.7892,48.158,712.7883],[19.7989,48.1558,524.8993],[19.8053,48.1573,407.6449],[19.8099,48.1653,332.7506],[19.8166,48.1706,314.5309],[19.8258,48.1694,375.1058],[19.831,48.165,363.7823],[19.8393,48.1645,392.6498],[19.849,48.1761,558.3145],[19.8537,48.1776,387.6827],[19.8613,48.17,454.4899],[19.8686,48.1718,520.9131],[19.8756,48.171,545.6254],[19.8813,48.1659,663.7245],[19.8865,48.1658,657.978]]]]}
,"properties": {"GID_2": "SVK.1.6_1","GID_0": "SVK","country": "Slovakia","GID_1": "SVK.1_1","province": "Banskobystrický","NL_NAME_1": "NA","county": "Lucenec","VARNAME_2": "NA","NL_NAME_2": "NA","TYPE_2": "Okres","ENGTYPE_2": "District","CC_2": "606","HASC_2": "SK.BC.LC","name": "Lucenec.county","area_km2": 824.459,"hist_schema_id": "Elevation0-9000","hist_area_km2": {"150": 0.339,"175": 75.2752,"200": 95.7187,"225": 93.665,"250": 90.1221,"275": 67.4804,"300": 47.1871,"325": 33.4574,"350": 26.2147,"375": 21.9826,"400": 20.1331,"425": 20.6652,"450": 19.9799,"475": 20.3278,"500": 18.9933,"525": 18.1632,"550": 19.0746,"575": 20.8589,"600": 22.935,"625": 20.918,"650": 15.9179,"675": 13.9457,"700": 13.029,"725": 10.1475,"750": 6.9284,"775": 4.4973,"800": 2.29,"825": 1.4041,"850": 1.2074,"875": 1.1653,"900": 0.4071,"925": 0.0281}}}