{"type": "Feature","bbox": [17.1204,48.2053,17.4663,48.4558],"geometry": {"type": "MultiPolygon","coordinates": [[[[17.216,48.2053,130.8619],[17.2242,48.2093,130.299],[17.2255,48.2114,130.3962],[17.2064,48.2243,138.9569],[17.2065,48.2279,139.1985],[17.2107,48.2312,154.5431],[17.2235,48.2323,130.7358],[17.2413,48.243,131.7967],[17.2539,48.2396,130.3735],[17.2735,48.2413,133.105],[17.2885,48.238,137.6672],[17.3047,48.2396,149.9665],[17.3313,48.249,183.6521],[17.337,48.2524,188.317],[17.3398,48.2581,210.4372],[17.3384,48.2719,216.8336],[17.3406,48.2774,199.9827],[17.356,48.2746,179.9023],[17.3636,48.2754,175.6732],[17.3768,48.2818,170.0009],[17.3833,48.2911,150.0081],[17.391,48.2942,161.5635],[17.4,48.2938,154.1338],[17.4168,48.288,143.6177],[17.4226,48.2878,144.2714],[17.4483,48.3042,156.0413],[17.4656,48.3109,156.3205],[17.4488,48.3143,163.9367],[17.4428,48.3192,169.7695],[17.451,48.3257,166.0775],[17.4653,48.3431,169.5835],[17.4663,48.3548,182.6501],[17.463,48.3657,191.8576],[17.4555,48.3693,195.8277],[17.4305,48.3712,209.1275],[17.4278,48.3782,222.3253],[17.4224,48.3847,242.1871],[17.4149,48.4017,199.8806],[17.408,48.4102,202.1986],[17.3784,48.4216,270.0089],[17.3775,48.4282,395.4419],[17.3797,48.4339,456.9818],[17.3795,48.4396,462.078],[17.3766,48.4437,464.9332],[17.3716,48.4457,436.6202],[17.3114,48.4558,440.2747],[17.2962,48.4508,471.925],[17.2841,48.4382,479.6471],[17.2715,48.4297,507.4118],[17.2534,48.4312,566.2607],[17.2523,48.4295,560.084],[17.2535,48.4263,481.9003],[17.2491,48.4227,489.7623],[17.2473,48.4156,550.7706],[17.2496,48.4072,532.0358],[17.2433,48.398,585.4015],[17.2329,48.3942,591.3503],[17.2328,48.3824,586.2584],[17.2292,48.3815,696.5873],[17.2228,48.3844,538.4042],[17.2157,48.3826,679.8551],[17.1984,48.3817,556.8369],[17.1929,48.3794,562.3029],[17.1898,48.3751,597.547],[17.1885,48.3682,481.6946],[17.1812,48.3572,530.4122],[17.1818,48.353,429.4556],[17.1859,48.3466,536.2985],[17.1857,48.3437,517.15],[17.1712,48.3359,609.0172],[17.1721,48.3266,578.186],[17.1629,48.3163,575.2231],[17.1572,48.3142,565.075],[17.1457,48.3138,503.1353],[17.1416,48.3108,491.3466],[17.139,48.3057,486.6153],[17.1392,48.2996,538.7727],[17.141,48.2941,601.0225],[17.1485,48.2831,476.4152],[17.1488,48.279,452.3582],[17.1389,48.2619,543.5375],[17.1204,48.2479,421.2047],[17.1213,48.2453,440.6944],[17.1376,48.2395,461.7906],[17.1421,48.2393,456.0596],[17.1514,48.2428,418.0382],[17.1545,48.2425,400.7466],[17.1686,48.234,328.5703],[17.1959,48.2207,132.7116],[17.216,48.2053,130.8619]]]]}
,"properties": {"GID_2": "SVK.2.7_1","GID_0": "SVK","country": "Slovakia","GID_1": "SVK.2_1","province": "Bratislavský","NL_NAME_1": "NA","county": "Pezinok","VARNAME_2": "NA","NL_NAME_2": "NA","TYPE_2": "Okres","ENGTYPE_2": "District","CC_2": "107","HASC_2": "SK.BL.PK","name": "Pezinok.county","area_km2": 385.3498,"hist_schema_id": "Elevation0-9000","hist_area_km2": {"125": 15.0236,"150": 42.6516,"175": 54.9403,"200": 56.1068,"225": 27.6739,"250": 11.7949,"275": 7.8799,"300": 9.1625,"325": 10.303,"350": 12.0051,"375": 13.9884,"400": 14.6642,"425": 15.2117,"450": 15.1004,"475": 14.5522,"500": 13.0736,"525": 12.9773,"550": 12.7396,"575": 9.4136,"600": 6.0306,"625": 4.2543,"650": 2.9014,"675": 1.4927,"700": 0.859,"725": 0.3521,"750": 0.1972}}}