{"type": "Feature","bbox": [18.9848,48.6204,19.4983,48.9054],"geometry": {"type": "MultiPolygon","coordinates": [[[[19.3462,48.8999,1626.5],[19.3355,48.8953,1697.3925],[19.316,48.8821,1412.364],[19.3137,48.8795,1502.7515],[19.3118,48.8711,1403.182],[19.303,48.8629,1107.7678],[19.2926,48.8602,1292.926],[19.2516,48.8559,1177.9919],[19.2455,48.8567,1176.8538],[19.2438,48.8591,1176.21],[19.256,48.8656,946.0403],[19.2602,48.8695,897.8479],[19.2616,48.8754,819.0954],[19.2594,48.8846,831.8429],[19.2472,48.895,968.0377],[19.2381,48.9054,1187.8799],[19.2288,48.9045,1306.3638],[19.2014,48.891,1157.7363],[19.1501,48.8812,1012.0775],[19.1285,48.8801,1040.7947],[19.1152,48.8769,1113.3896],[19.1036,48.877,1191.5713],[19.0897,48.8733,1291.4647],[19.082,48.8735,1510.1069],[19.0717,48.878,1503.2346],[19.0594,48.8795,1440.1787],[19.0453,48.8853,1268.394],[19.0388,48.8862,1226.4088],[19.0344,48.8847,1283.6821],[19.0127,48.8704,1115.1266],[19.006,48.8582,1049.3142],[18.9944,48.8508,944.6643],[18.9848,48.8396,859.6754],[18.9884,48.8314,879.1561],[18.9982,48.8223,941.5198],[18.9985,48.8133,978.4539],[19.0065,48.7988,1016.2701],[19.0042,48.7866,1131.7571],[19.007,48.7793,1096.7592],[19.0068,48.7751,1128.4441],[18.9994,48.7655,1161.5902],[18.9988,48.7527,1181.1875],[18.9955,48.742,1204.178],[19.004,48.7175,1178.499],[19.0063,48.7018,1106.6368],[19.1014,48.642,400.6379],[19.1125,48.6401,330.2281],[19.1216,48.6358,320.1463],[19.1264,48.6369,314.2421],[19.1339,48.6452,315.5789],[19.1449,48.6355,305.4743],[19.1728,48.6363,336.7516],[19.1777,48.6388,371.6234],[19.1834,48.6451,390.1504],[19.1996,48.6546,383.4973],[19.2034,48.6539,390.9986],[19.2106,48.6492,374.2329],[19.2237,48.648,431.4418],[19.2287,48.6456,445.8919],[19.2305,48.6429,462.6744],[19.2294,48.6387,471.6975],[19.2216,48.6285,464.0439],[19.2231,48.6219,445.3066],[19.2258,48.6204,413.7676],[19.2332,48.6263,352.8991],[19.2496,48.6273,482.7725],[19.281,48.641,561.9741],[19.284,48.6408,583.0764],[19.291,48.636,542.614],[19.2972,48.6356,546.0648],[19.3072,48.6384,513.6165],[19.3224,48.646,538.0217],[19.3368,48.648,672.6488],[19.3682,48.6569,643.5119],[19.3782,48.657,723.5917],[19.3968,48.6526,740.4637],[19.4203,48.6517,745.5394],[19.4248,48.6534,752.59],[19.4325,48.6599,803.5798],[19.4573,48.6625,904.9084],[19.4783,48.671,1236.4771],[19.4732,48.6762,1172.8933],[19.4603,48.6838,1104.8472],[19.4587,48.6893,1060.877],[19.4614,48.6918,1116.5281],[19.4808,48.6973,1038.9854],[19.4913,48.7062,945.3683],[19.4983,48.728,840.8593],[19.4917,48.7322,1017.24],[19.4873,48.7395,1151.522],[19.4715,48.7534,1118.8441],[19.4659,48.7554,1150.8733],[19.4578,48.7543,1146.9226],[19.4529,48.756,1130.3091],[19.4519,48.7631,1013.2332],[19.4549,48.7689,1154.5319],[19.4541,48.7711,1156.4939],[19.4385,48.7719,1080.593],[19.4301,48.774,957.3362],[19.4035,48.7949,533.2075],[19.3883,48.7985,484.0038],[19.3881,48.8005,414.9725],[19.3924,48.8052,449.0854],[19.3847,48.8183,533.4993],[19.3844,48.8305,713.9178],[19.3878,48.8356,781.0563],[19.3954,48.8389,926.139],[19.4002,48.8431,939.5991],[19.4037,48.8482,990.3351],[19.4043,48.8533,1057.713],[19.3945,48.8725,1169.6818],[19.3887,48.879,1432.8074],[19.3847,48.8811,1519.4817],[19.3737,48.8821,1506.7899],[19.3568,48.8898,1553.1909],[19.3506,48.8949,1645.6078],[19.3498,48.9012,1485.0819],[19.3462,48.8999,1626.5]]]]}
,"properties": {"GID_2": "SVK.1.1_1","GID_0": "SVK","country": "Slovakia","GID_1": "SVK.1_1","province": "Banskobystrický","NL_NAME_1": "NA","county": "BanskáBystrica","VARNAME_2": "NA","NL_NAME_2": "NA","TYPE_2": "Okres","ENGTYPE_2": "District","CC_2": "601","HASC_2": "SK.BC.BB","name": "Banská_Bystrica.county","area_km2": 822.3517,"hist_schema_id": "Elevation0-9000","hist_area_km2": {"300": 4.0345,"325": 12.4764,"350": 14.3259,"375": 21.7232,"400": 25.8786,"425": 29.879,"450": 31.9023,"475": 35.1714,"500": 36.1595,"525": 34.7589,"550": 36.1428,"575": 34.3234,"600": 31.649,"625": 32.1654,"650": 31.1451,"675": 29.0318,"700": 26.0369,"725": 24.4562,"750": 24.369,"775": 23.0959,"800": 22.7871,"825": 21.3051,"850": 21.1349,"875": 20.1713,"900": 20.3086,"925": 21.0204,"950": 19.1495,"975": 18.0732,"1000": 16.6909,"1025": 14.0371,"1050": 12.683,"1075": 10.9378,"1100": 10.517,"1125": 8.7711,"1150": 8.3382,"1175": 6.9823,"1200": 4.5944,"1225": 3.9498,"1250": 3.363,"1275": 2.665,"1300": 2.1198,"1325": 2.2589,"1350": 1.7988,"1375": 1.5478,"1400": 1.241,"1425": 1.0737,"1450": 0.9063,"1475": 0.9482,"1500": 0.8924,"1525": 0.6274,"1550": 0.5856,"1575": 0.5856,"1600": 0.2928,"1625": 0.4183,"1650": 0.4043,"1675": 0.237,"1700": 0.1673,"1725": 0.0418}}}