{"type": "Feature","bbox": [17.9955,48.6271,18.4292,48.896],"geometry": {"type": "MultiPolygon","coordinates": [[[[18.1991,48.6271,253.6611],[18.2022,48.6342,240.2204],[18.1988,48.6468,228.8006],[18.2027,48.652,201.6054],[18.2271,48.6521,195.083],[18.2418,48.6491,191.0268],[18.2486,48.6494,186.1356],[18.2591,48.6539,182.2924],[18.2723,48.6659,193.8369],[18.2816,48.6622,204.1833],[18.2963,48.6654,230.7234],[18.2981,48.6625,221.9181],[18.2983,48.6556,206.9306],[18.3074,48.6508,205.4549],[18.3108,48.6451,203.6711],[18.3167,48.6446,206.199],[18.3311,48.6622,203.6635],[18.338,48.6675,254.2735],[18.3411,48.6746,286.1387],[18.3407,48.6761,297.6058],[18.334,48.6779,287.6805],[18.3317,48.6809,316.241],[18.3342,48.6862,314.9318],[18.3509,48.6976,276.7349],[18.3575,48.6991,288.2499],[18.3729,48.6988,243.6013],[18.3696,48.7049,305.3918],[18.3569,48.7176,342.0578],[18.3564,48.7291,484.9225],[18.3576,48.7324,434.1983],[18.3713,48.7391,485.299],[18.402,48.7403,745.131],[18.4199,48.7481,852.8507],[18.4215,48.7566,796.2387],[18.4249,48.7638,705.6702],[18.4247,48.7748,743.7859],[18.4292,48.7828,685.6389],[18.4183,48.7888,540.0355],[18.4151,48.7981,674.5694],[18.4045,48.8046,789.9385],[18.4028,48.8072,844.8561],[18.4008,48.8201,791.1058],[18.4071,48.8324,779.33],[18.4088,48.8395,752.2754],[18.4077,48.8462,789.1457],[18.403,48.8532,818.4258],[18.3771,48.8638,728.3995],[18.3634,48.8645,814.7368],[18.3529,48.8716,575.8236],[18.3511,48.8804,717.9922],[18.3431,48.8864,683.1682],[18.3411,48.8925,758.5952],[18.3228,48.896,719.1771],[18.3032,48.8822,728.3543],[18.2795,48.8853,802.4634],[18.2677,48.8851,872.241],[18.2435,48.8785,783.6371],[18.2293,48.8783,597.433],[18.2255,48.8757,475.2226],[18.2249,48.8662,548.1198],[18.2089,48.8496,432.0851],[18.2053,48.8417,361.4936],[18.2026,48.8221,298.9088],[18.203,48.8146,269.9328],[18.2042,48.8088,262.3724],[18.2111,48.8023,288.816],[18.2132,48.7915,248.8737],[18.2115,48.7834,250.113],[18.2067,48.7791,237.6469],[18.1967,48.7757,221.5355],[18.1939,48.7721,218.3876],[18.1905,48.7713,275.41],[18.1815,48.7737,249.3317],[18.1725,48.7807,237.6999],[18.1706,48.7802,267.1747],[18.1683,48.7747,268.0734],[18.166,48.7735,283.5428],[18.1637,48.774,287.2049],[18.1604,48.7777,281.4595],[18.1545,48.7759,297.6463],[18.1464,48.7783,267.2137],[18.1419,48.7748,292.0654],[18.1482,48.7707,275.3737],[18.1443,48.7628,277.168],[18.1319,48.7614,345.2106],[18.119,48.7633,320.617],[18.1182,48.761,326.9608],[18.1228,48.7539,307.4112],[18.1214,48.749,294.5599],[18.1151,48.7453,306.4945],[18.1021,48.7445,346.0623],[18.0971,48.7403,406.3296],[18.0914,48.7421,407.0475],[18.0853,48.741,394.7284],[18.0763,48.7503,481.4876],[18.067,48.7553,498.5662],[18.0375,48.7595,872.3189],[18.0305,48.7632,869.3018],[18.0181,48.7542,818.6249],[18.0042,48.7502,879.3119],[17.999,48.7465,795.0145],[17.9966,48.74,750.9047],[17.9955,48.7283,797.4919],[18.0022,48.714,808.2277],[18.0196,48.7094,828.0955],[18.0364,48.701,815.1241],[18.0588,48.7002,669.1306],[18.0818,48.6929,388.3924],[18.1147,48.69,338.5558],[18.1294,48.6807,314.8757],[18.1381,48.6732,267.5847],[18.143,48.6574,280.6644],[18.1459,48.6537,262.913],[18.1606,48.6472,281.0916],[18.1723,48.6393,253.3726],[18.1899,48.6334,254.1322],[18.1991,48.6271,253.6611]]]]}
,"properties": {"GID_2": "SVK.6.1_1","GID_0": "SVK","country": "Slovakia","GID_1": "SVK.6_1","province": "Trenčiansky","NL_NAME_1": "NA","county": "BánovcenadBebravou","VARNAME_2": "NA","NL_NAME_2": "NA","TYPE_2": "Okres","ENGTYPE_2": "District","CC_2": "301","HASC_2": "SK.TC.BN","name": "Bánovcenad_Bebravou.county","area_km2": 463.8292,"hist_schema_id": "Elevation0-9000","hist_area_km2": {"175": 4.9291,"200": 36.0635,"225": 51.9411,"250": 55.779,"275": 47.4877,"300": 37.7452,"325": 28.9049,"350": 22.1504,"375": 19.7016,"400": 16.2327,"425": 13.0861,"450": 11.5771,"475": 11.5768,"500": 12.0231,"525": 11.716,"550": 10.7371,"575": 10.0672,"600": 9.4248,"625": 7.7216,"650": 7.1772,"675": 6.4651,"700": 6.1292,"725": 5.1381,"750": 5.1943,"775": 4.0353,"800": 3.2121,"825": 2.9752,"850": 1.7881,"875": 1.2716,"900": 0.8102,"925": 0.5306,"950": 0.2371}}}