{"type": "Feature","bbox": [18.9656,48.2835,19.49,48.7008],"geometry": {"type": "MultiPolygon","coordinates": [[[[19.0074,48.7008,1157.069],[19.0084,48.6892,903.0811],[19.0166,48.6753,799.4728],[19.0173,48.6688,892.3939],[18.9917,48.6424,711.9365],[18.9799,48.6275,798.4705],[18.978,48.6226,765.7393],[18.978,48.6161,643.3303],[18.9884,48.5951,575.6066],[18.9924,48.5923,523.8331],[19.0068,48.5881,491.4346],[19.0091,48.5834,333.7841],[18.9985,48.5705,267.4772],[18.9922,48.5681,289.6427],[18.9784,48.5664,664.2581],[18.9656,48.5557,730.1053],[18.9715,48.5486,664.092],[18.9768,48.5322,520.1881],[18.979,48.5299,605.8658],[18.9832,48.5301,590.2811],[18.9912,48.5354,596.265],[19.0034,48.5372,337.1957],[19.0078,48.5366,342.5956],[19.01,48.5328,379.0402],[19.0104,48.5276,419.369],[19.0085,48.521,432.2815],[19.0054,48.5169,382.1767],[19.0059,48.5109,452.6782],[19.0043,48.5055,526.827],[18.9999,48.4997,485.0352],[18.9978,48.4921,588.6777],[18.9922,48.4834,802.8977],[18.9943,48.4789,810.676],[19.0064,48.4709,669.7504],[18.9986,48.4571,766.3251],[18.999,48.4502,794.1076],[19.0067,48.4377,708.7979],[19.0062,48.4305,740.1653],[19.002,48.4246,756.5317],[19.0019,48.4206,694.1826],[19.0171,48.4327,768.5286],[19.0347,48.4328,620.438],[19.038,48.4311,591.6473],[19.0425,48.4204,511.8583],[19.0559,48.4141,504.5889],[19.0803,48.4076,517.2491],[19.086,48.4085,412.5144],[19.092,48.4134,434.2712],[19.0961,48.4146,429.2135],[19.104,48.414,461.6285],[19.1102,48.4116,534.2444],[19.1144,48.4071,544.9708],[19.1155,48.3961,592.2554],[19.1292,48.3834,530.4001],[19.1522,48.388,628.9366],[19.1587,48.385,552.4238],[19.1742,48.3875,611.6417],[19.1791,48.3867,650.5594],[19.1891,48.3805,691.8702],[19.1944,48.3704,701.949],[19.2318,48.3568,607.8268],[19.2529,48.3456,597.6998],[19.2587,48.3343,518.0424],[19.2575,48.317,495.8133],[19.2716,48.2976,456.1861],[19.2828,48.2913,474.2653],[19.2945,48.2914,481.4919],[19.3153,48.2835,444.7546],[19.3197,48.2837,503.7261],[19.3369,48.292,306.0826],[19.3398,48.2959,413.8719],[19.3346,48.3106,378.1816],[19.3356,48.3189,430.5428],[19.3447,48.3264,398.0701],[19.3503,48.3456,432.2183],[19.3687,48.35,496.3396],[19.3735,48.3532,516.9497],[19.3755,48.3564,543.5695],[19.3772,48.3682,620.9413],[19.3749,48.3707,595.2306],[19.3542,48.3798,629.5439],[19.3533,48.3886,663.3348],[19.3467,48.4021,682.3951],[19.3453,48.4154,667.17],[19.3347,48.4265,715.9856],[19.3233,48.4344,772.3087],[19.3041,48.436,942.4203],[19.2741,48.4468,926.2383],[19.2729,48.4528,861.3165],[19.2754,48.461,851.9922],[19.2747,48.4658,872.3954],[19.2712,48.4677,868.2678],[19.2555,48.47,892.0958],[19.248,48.474,850.2765],[19.2369,48.4854,740.7457],[19.2359,48.4923,812.4507],[19.2392,48.4959,793.9997],[19.2461,48.4978,722.8233],[19.2518,48.4976,615.6786],[19.2548,48.4935,620.7887],[19.2581,48.4934,586.454],[19.2594,48.4962,574.7292],[19.2573,48.5033,579.5768],[19.2605,48.5054,557.3746],[19.2764,48.501,645.9173],[19.2836,48.5038,695.2831],[19.2862,48.5174,648.5378],[19.2754,48.5273,509.8878],[19.2743,48.5307,554.7952],[19.2769,48.5341,556.177],[19.285,48.5356,413.7061],[19.2861,48.5382,424.7703],[19.2763,48.5528,337.3404],[19.2758,48.5559,343.4219],[19.2786,48.5597,350.107],[19.2888,48.567,357.1155],[19.2941,48.5745,370.9484],[19.3054,48.573,383.8794],[19.3171,48.5751,378.7248],[19.3194,48.5734,382.3215],[19.322,48.5664,372.3882],[19.3279,48.5621,355.8341],[19.3411,48.5628,364.3225],[19.3503,48.5615,389.2066],[19.3712,48.5515,474.7431],[19.382,48.5522,441.0579],[19.3812,48.5539,444.4579],[19.3674,48.56,387.3084],[19.358,48.5667,378.9885],[19.3578,48.5697,384.0509],[19.3628,48.574,396.291],[19.3617,48.5762,399.3245],[19.3424,48.5857,392.1325],[19.3314,48.5827,398.5037],[19.3239,48.588,406.8291],[19.3222,48.5934,416.4415],[19.331,48.6017,423.9976],[19.3332,48.6072,453.9504],[19.3673,48.6092,542.6123],[19.3752,48.6125,539.4104],[19.3805,48.6201,623.2421],[19.3848,48.6217,724.9319],[19.4077,48.6177,807.5503],[19.4129,48.6099,722.7423],[19.4242,48.6107,796.8636],[19.4307,48.6167,928.6334],[19.4366,48.6286,1079.5671],[19.457,48.6474,971.1708],[19.4727,48.655,984.0388],[19.49,48.6575,1265.4453],[19.4872,48.6632,1193.1421],[19.4783,48.671,1236.4771],[19.4573,48.6625,904.9084],[19.4325,48.6599,803.5798],[19.4248,48.6534,752.59],[19.4203,48.6517,745.5394],[19.3968,48.6526,740.4637],[19.3782,48.657,723.5917],[19.3666,48.6566,643.5119],[19.3368,48.648,672.6488],[19.3224,48.646,538.0217],[19.3072,48.6384,513.6165],[19.2972,48.6356,546.0648],[19.291,48.636,542.614],[19.284,48.6408,583.0764],[19.2799,48.6407,563.2382],[19.2496,48.6273,482.7725],[19.2332,48.6263,352.8991],[19.2258,48.6204,413.7676],[19.2231,48.6219,445.3066],[19.2216,48.6285,464.0439],[19.2294,48.6387,471.6975],[19.2305,48.6429,462.6744],[19.2287,48.6456,445.8919],[19.2237,48.648,431.4418],[19.2106,48.6492,374.2329],[19.2034,48.6539,390.9986],[19.1996,48.6546,383.4973],[19.1834,48.6451,390.1504],[19.1777,48.6388,371.6234],[19.1728,48.6363,336.7516],[19.1449,48.6355,305.4743],[19.1339,48.6452,315.5789],[19.1264,48.6369,314.2421],[19.1216,48.6358,320.1463],[19.1125,48.6401,330.2281],[19.1014,48.642,400.6379],[19.0074,48.7008,1157.069]]]]}
,"properties": {"GID_2": "SVK.1.13_1","GID_0": "SVK","country": "Slovakia","GID_1": "SVK.1_1","province": "Banskobystrický","NL_NAME_1": "NA","county": "Zvolen","VARNAME_2": "NA","NL_NAME_2": "NA","TYPE_2": "Okres","ENGTYPE_2": "District","CC_2": "611","HASC_2": "SK.BC.ZV","name": "Zvolen.county","area_km2": 765.888,"hist_schema_id": "Elevation0-9000","hist_area_km2": {"275": 9.4279,"300": 31.3284,"325": 26.0647,"350": 38.0798,"375": 52.1213,"400": 47.6591,"425": 48.3744,"450": 51.1218,"475": 53.8662,"500": 39.319,"525": 32.7718,"550": 31.5233,"575": 31.9691,"600": 36.1059,"625": 35.6004,"650": 33.7303,"675": 28.3384,"700": 23.3395,"725": 19.4012,"750": 16.239,"775": 13.0193,"800": 12.4967,"825": 10.726,"850": 8.7179,"875": 6.9057,"900": 5.5419,"925": 4.8671,"950": 4.6556,"975": 3.8713,"1000": 3.0442,"1025": 1.8504,"1050": 1.2468,"1075": 0.9105,"1100": 0.4622,"1125": 0.4062,"1150": 0.2942,"1175": 0.1121,"1200": 0.1821,"1225": 0.1121,"1250": 0.084}}}