{"type": "Feature","id": "1055","bbox": [17.35732,48.49177,18.83299,49.33019],"geometry": {"type": "Polygon","coordinates": [[[18.50758,49.1808,295.6541],[18.50603,49.18108,295.2493],[18.482,49.19152,456.7087],[18.47642,49.19511,414.4414],[18.47095,49.19999,502.0243],[18.45839,49.21501,446.5177],[18.45684,49.21725,576.9761],[18.45699,49.21818,542.5756],[18.45653,49.21986,563.7513],[18.45544,49.22201,509.5302],[18.45048,49.22824,513.6448],[18.44971,49.2301,462.1983],[18.44986,49.23131,454.5859],[18.45141,49.23387,491.0621],[18.45188,49.23534,491.0621],[18.45064,49.23787,512.3758],[18.44816,49.24131,481.2529],[18.38656,49.30846,796.5602],[18.38547,49.31025,768.8197],[18.38485,49.31229,854.6669],[18.38454,49.3141,831.5361],[18.38423,49.32185,951.9917],[18.36625,49.32567,944.9178],[18.36159,49.33019,785.3829],[18.3246,49.31125,976.1871],[18.19003,49.27694,693.7538],[18.16058,49.2587,867.4543],[18.13649,49.23307,708.5141],[18.11779,49.20258,529.6873],[18.10508,49.16976,559.4703],[18.10146,49.14294,689.1887],[18.10163,49.13693,609.0224],[18.1029,49.09225,576.5398],[18.09629,49.07029,551.0614],[18.07552,49.04719,412.2297],[18.04606,49.02915,443.1428],[18.01288,49.01913,649.614],[17.95924,49.02187,625.606],[17.93506,49.01939,615.0394],[17.91408,49.0105,634.2702],[17.90085,48.99303,523.5479],[17.89465,48.9782,464.3585],[17.8869,48.94725,505.5575],[17.87873,48.93355,634.2654],[17.86034,48.92172,673.017],[17.84122,48.92099,625.9849],[17.82013,48.92337,525.2778],[17.79553,48.92058,621.8873],[17.77941,48.91174,759.9101],[17.74489,48.87257,387.8342],[17.72722,48.86291,528.0511],[17.64603,48.84182,672.2208],[17.53508,48.81299,493.4713],[17.4985,48.81676,334.9779],[17.4679,48.83811,440.5129],[17.45333,48.84276,518.1137],[17.42956,48.83816,437.9321],[17.41122,48.83022,505.6687],[17.40837,48.82405,498.294],[17.39933,48.80963,557.7783],[17.38863,48.80002,544.26],[17.35732,48.78028,378.5099],[17.37933,48.77467,451.2875],[17.39142,48.77279,439.7755],[17.39453,48.77279,437.3357],[17.39701,48.77325,417.6103],[17.40026,48.77521,426.9782],[17.41706,48.78906,495.0928],[17.42202,48.7886,457.2655],[17.42729,48.78488,392.0154],[17.43938,48.77372,344.9241],[17.44884,48.76658,518.6285],[17.45039,48.76586,518.6285],[17.45209,48.76493,470.4946],[17.45411,48.76405,452.6488],[17.45628,48.76343,453.9642],[17.46481,48.76204,497.5054],[17.46796,48.76033,494.7238],[17.47214,48.7571,459.1011],[17.4802,48.74958,400.8071],[17.48548,48.74317,282.6548],[17.48858,48.73687,353.7857],[17.48796,48.73,369.9026],[17.48641,48.72731,395.8714],[17.48238,48.72457,407.3435],[17.48098,48.72271,396.8211],[17.47958,48.71909,406.6451],[17.47772,48.71648,392.3188],[17.47385,48.7117,386.1034],[17.47214,48.70915,380.0885],[17.47059,48.70561,348.4407],[17.47106,48.70307,289.0769],[17.47292,48.70075,327.5518],[17.4785,48.69749,323.9143],[17.48129,48.69439,363.8117],[17.48424,48.68328,350.4804],[17.48703,48.68049,364.9258],[17.49121,48.67695,373.374],[17.50082,48.67057,359.1745],[17.51214,48.65982,259.5324],[17.53359,48.62835,369.6117],[17.557,48.64179,416.7139],[17.56366,48.6444,427.6359],[17.56599,48.64569,445.069],[17.56769,48.64693,445.069],[17.57048,48.64726,382.4711],[17.5725,48.64726,374.0459],[17.58681,48.64189,480.6796],[17.61921,48.64848,371.8181],[17.622,48.6522,292.3039],[17.62511,48.65483,380.8084],[17.62495,48.65682,386.3167],[17.62495,48.6584,402.9403],[17.62526,48.65982,428.0799],[17.62542,48.66124,422.135],[17.62495,48.66442,334.9108],[17.62542,48.66881,320.0244],[17.62604,48.6707,302.0346],[17.62681,48.67217,280.009],[17.62852,48.67261,271.851],[17.63069,48.67217,269.8986],[17.63771,48.66706,288.1938],[17.64019,48.66654,330.2338],[17.64981,48.66654,348.3156],[17.65322,48.66698,293.5923],[17.65601,48.66793,322.3776],[17.66205,48.67176,221.7455],[17.69342,48.68059,345.4562],[17.71001,48.6837,421.4433],[17.7235,48.67928,293.6483],[17.73218,48.67212,278.412],[17.74303,48.65876,217.9214],[17.7452,48.65708,213.266],[17.74851,48.65558,198.6266],[17.76711,48.64954,165.5989],[17.78541,48.64763,166.1756],[17.82003,48.64809,166.7401],[17.82577,48.64897,166.7445],[17.82639,48.65034,166.7445],[17.82608,48.65186,167.11],[17.82561,48.65331,167.5062],[17.82545,48.65468,167.6838],[17.82592,48.65584,167.9007],[17.82701,48.65662,167.9007],[17.8298,48.65605,168.2049],[17.83352,48.65424,167.6613],[17.84127,48.64928,173.9841],[17.84933,48.64091,167.8214],[17.85383,48.63791,165.1624],[17.85755,48.63724,165.0039],[17.86318,48.63863,179.9681],[17.86674,48.63993,226.4172],[17.87031,48.64096,194.2966],[17.87589,48.64055,238.6144],[17.8807,48.63905,242.1652],[17.88705,48.6345,250.2105],[17.88938,48.63223,272.5916],[17.89093,48.63011,231.7021],[17.98808,48.61608,440.901],[18.0073,48.63008,330.9435],[18.00994,48.6313,343.863],[18.01397,48.63207,337.4952],[18.01661,48.63093,358.342],[18.02095,48.62949,351.3782],[18.02312,48.63062,353.0515],[18.02456,48.6331,366.6719],[18.02653,48.63941,439.2028],[18.02684,48.64396,558.0155],[18.02622,48.64959,610.8729],[18.02456,48.65589,551.2256],[18.02343,48.65716,581.5644],[18.0225,48.65801,552.8386],[18.02126,48.65889,531.4008],[18.02033,48.65967,505.1155],[18.0194,48.66124,502.3157],[18.01893,48.66171,502.3157],[18.01738,48.6622,448.0418],[18.01661,48.66261,448.0418],[18.01599,48.66339,467.3968],[18.01165,48.6699,576.6245],[18.01056,48.67308,655.4965],[18.00963,48.67455,638.8769],[18.0087,48.67569,638.2791],[18.00777,48.6762,637.6846],[18.00668,48.67796,596.485],[18.00591,48.68083,548.7935],[18.00606,48.68762,536.8693],[18.0056,48.69186,535.7415],[18.00467,48.69605,584.4464],[18.0025,48.70232,662.8848],[18.00234,48.70561,655.6217],[18.00327,48.70837,714.5204],[18.00823,48.71253,869.9487],[18.01537,48.7163,822.7233],[18.03619,48.71517,735.9073],[18.03914,48.71411,700.5596],[18.04208,48.71271,605.5983],[18.04239,48.71054,577.5206],[18.04224,48.70775,600.0831],[18.04317,48.70354,777.8792],[18.04487,48.70209,754.1472],[18.11608,48.69191,368.3026],[18.1243,48.6886,341.8719],[18.14621,48.67357,278.7881],[18.15148,48.66871,231.619],[18.16249,48.65522,276.5279],[18.17055,48.64783,248.3698],[18.21386,48.6314,211.8651],[18.23122,48.6283,216.8751],[18.24254,48.62096,198.3604],[18.2506,48.61202,173.7904],[18.25111,48.60597,173.019],[18.24533,48.59657,173.6363],[18.2368,48.58794,171.6227],[18.22874,48.57799,169.8686],[18.22796,48.57145,170.0646],[18.22998,48.56737,172.0306],[18.23246,48.5652,176.6581],[18.23571,48.56293,179.902],[18.23602,48.55828,189.4728],[18.23866,48.55642,191.1923],[18.243,48.55554,176.9903],[18.25499,48.55572,179.5441],[18.25887,48.55461,229.5504],[18.26243,48.55249,244.6223],[18.2677,48.54861,295.7025],[18.28724,48.53985,488.9827],[18.29173,48.53662,480.7165],[18.30124,48.52277,407.6092],[18.31256,48.50024,648.6032],[18.33705,48.4943,549.0484],[18.34387,48.49399,565.2243],[18.34449,48.49482,565.2243],[18.34666,48.49846,548.5908],[18.3493,48.502,517.7813],[18.35147,48.50272,513.3719],[18.35333,48.502,529.3116],[18.35984,48.49564,487.6046],[18.36656,48.49177,528.3795],[18.36873,48.49229,501.869],[18.36997,48.49296,501.869],[18.37028,48.49428,540.4161],[18.3709,48.49523,553.7845],[18.37276,48.49642,563.5981],[18.38749,48.50226,494.3434],[18.41948,48.52089,472.7656],[18.48991,48.54923,676.3408],[18.50123,48.56538,553.1292],[18.59915,48.57357,939.6263],[18.59946,48.57579,967.3033],[18.60008,48.57735,992.1544],[18.6035,48.58391,1031.8748],[18.60381,48.58561,1013.194],[18.60381,48.58714,1008.9666],[18.60365,48.58871,1008.9666],[18.60365,48.59032,1032.7258],[18.60427,48.59215,1099.3046],[18.60582,48.59517,1099.7941],[18.60846,48.59827,1151.8479],[18.61311,48.60267,1185.4475],[18.62799,48.61419,1226.2063],[18.65455,48.63972,1154.0017],[18.70933,48.63,816.8663],[18.71491,48.63016,778.454],[18.72158,48.63119,746.1097],[18.72173,48.63522,711.5057],[18.71956,48.64396,607.9708],[18.72127,48.64613,627.4147],[18.72468,48.64866,602.6124],[18.73894,48.65682,456.7279],[18.74281,48.66016,623.725],[18.76659,48.69005,647.8207],[18.77139,48.69424,723.0178],[18.77697,48.69615,825.3682],[18.7917,48.69651,732.7776],[18.79635,48.69749,805.7693],[18.79992,48.69909,853.3062],[18.81377,48.71315,883.024],[18.8257,48.72979,868.2203],[18.82911,48.7331,851.7472],[18.83113,48.7356,857.8127],[18.83237,48.73749,842.3988],[18.83299,48.74416,795.545],[18.83035,48.75372,765.7346],[18.82741,48.75687,808.0044],[18.79325,48.78511,791.0195],[18.78658,48.79191,791.0544],[18.78302,48.79697,761.6029],[18.78007,48.80405,659.6797],[18.77961,48.80736,761.7681],[18.78023,48.80984,817.7742],[18.78255,48.8117,767.8524],[18.78224,48.8126,762.5535],[18.7793,48.8142,788.5508],[18.77341,48.81645,730.9577],[18.75759,48.82645,712.0298],[18.75341,48.82728,763.0405],[18.75093,48.82803,779.4335],[18.74731,48.82963,763.175],[18.74468,48.83053,736.632],[18.74002,48.83144,777.968],[18.7377,48.83208,754.7321],[18.73506,48.83325,751.902],[18.71243,48.84686,658.7283],[18.70824,48.85061,648.019],[18.70607,48.85381,611.5336],[18.70592,48.8595,650.118],[18.70731,48.86583,666.9535],[18.70762,48.86828,654.4409],[18.70731,48.87071,692.4235],[18.70592,48.87531,638.3575],[18.70592,48.87813,651.7086],[18.70654,48.88074,589.4106],[18.70933,48.88671,588.3401],[18.70964,48.89071,669.6985],[18.70917,48.89578,683.3956],[18.70344,48.91102,645.8098],[18.70313,48.91484,655.705],[18.70452,48.91704,698.725],[18.70731,48.9198,834.26],[18.70871,48.92198,803.4594],[18.70964,48.92404,727.8738],[18.7101,48.9257,703.1945],[18.71088,48.92694,703.1945],[18.71243,48.92792,676.9745],[18.71444,48.92872,692.2415],[18.71646,48.92988,734.7961],[18.7191,48.93169,812.2955],[18.72096,48.9336,840.3896],[18.72592,48.9366,855.7377],[18.70592,48.95378,681.9664],[18.70204,48.95567,783.2655],[18.69646,48.95781,880.5107],[18.67734,48.95905,994.8959],[18.63574,48.96611,1183.2434],[18.6035,48.9598,936.2063],[18.59373,48.95998,929.8743],[18.59187,48.96184,873.9203],[18.58567,48.97003,932.136],[18.58319,48.97151,999.1259],[18.58081,48.97151,951.9144],[18.56779,48.96223,894.3763],[18.56624,48.96068,881.6999],[18.56562,48.95898,869.8086],[18.56531,48.95719,812.1904],[18.56174,48.95378,796.7659],[18.55492,48.94957,888.4018],[18.528199999999998,48.93924,842.3588],[18.52076,48.93815,834.9582],[18.51689,48.93862,800.0537],[18.50293,48.94166,782.5439],[18.48479,48.94394,753.6443],[18.47627,48.94823,950.7239],[18.47064,48.95626,1127.9231],[18.49999,48.96766,782.115],[18.50402,48.96993,810.0502],[18.50975,48.97386,759.0708],[18.51921,48.98458,827.655],[18.5251,48.9883,873.3325],[18.5313,48.99086,901.8161],[18.56143,48.99649,887.9347],[18.57073,49.00145,787.9789],[18.58226,49.0105,728.421],[18.59543,49.02295,809.0896],[18.60055,49.02967,832.1873],[18.60272,49.0353,799.7002],[18.59977,49.04858,640.8481],[18.59993,49.05065,760.4685],[18.60086,49.05272,741.0905],[18.60257,49.05551,654.9602],[18.60303,49.05711,599.8262],[18.60288,49.05861,598.6036],[18.60226,49.0599,590.6304],[18.6021,49.0614,603.6698],[18.60241,49.0631,627.7307],[18.60396,49.06713,502.3589],[18.60427,49.06894,532.33],[18.60396,49.07049,573.0005],[18.60272,49.07179,541.1854],[18.60101,49.07308,549.485],[18.59931,49.0739,546.4625],[18.59543,49.0753,549.5662],[18.59404,49.07618,493.3198],[18.5928,49.07731,484.776],[18.59016,49.08186,496.6862],[18.58846,49.08341,504.4193],[18.58629,49.08512,503.1234],[18.58391,49.08646,496.8295],[18.58195,49.08739,498.1681],[18.56763,49.09021,604.0679],[18.5636,49.09021,585.361],[18.5619,49.09054,563.7651],[18.5605,49.09251,573.0721],[18.56422,49.09612,586.7133],[18.59109,49.11468,697.7855],[18.5791,49.12711,614.1959],[18.57802,49.12935,639.9987],[18.57709,49.13333,642.4461],[18.57771,49.13721,629.8556],[18.57724,49.14449,633.1971],[18.5743,49.14938,546.085],[18.56624,49.15684,579.8268],[18.56128,49.15984,624.6331],[18.54252,49.16757,424.7505],[18.53694,49.1685,432.7737],[18.53306,49.16956,389.2659],[18.52882,49.17144,440.2077],[18.51673,49.17886,305.3164],[18.51347,49.18036,301.0527],[18.51099,49.1808,299.6339],[18.50758,49.1808,295.6541]]]}
,"properties": {"ISO3166-1-Alpha-3": "SVK","country": "Slovakia","fill": "#FF0","name": "Trenciansky","area_km2": 4501.072,"hist_schema_id": "Elevation0-9000","hist_area_km2": {"150": 0.322,"175": 147.163,"200": 172.718,"225": 221.283,"250": 268.468,"275": 262.231,"300": 249.168,"325": 257.764,"350": 260.014,"375": 254.438,"400": 243.618,"425": 224.783,"450": 208.596,"475": 188.822,"500": 178.745,"525": 161.072,"550": 148.003,"575": 136.364,"600": 124.415,"625": 107.679,"650": 99.507,"675": 92.811,"700": 81.578,"725": 71.69,"750": 64.568,"775": 56.119,"800": 44.47,"825": 37.419,"850": 29.289,"875": 23.31,"900": 19.306,"925": 14.105,"950": 11.237,"975": 9.522,"1000": 7.31,"1025": 5.918,"1050": 4.4,"1075": 3.426,"1100": 2.603,"1125": 1.86,"1150": 1.035,"1175": 0.854,"1200": 0.631,"1225": 0.519,"1250": 0.715,"1275": 0.645,"1300": 0.406,"1325": 0.126}}}