{"type":"Feature","properties":{"GID_1":"SVK.6_1","GID_0":"SVK","country":"Slovakia","province":"Trenčiansky","VARNAME_1":"Trencín","NL_NAME_1":"NA","TYPE_1":"Kraj","ENGTYPE_1":"Region","CC_1":"NA","HASC_1":"SK.TC","ISO_1":"NA","name":"Trenčiansky.province"},
"geometry":{"type": "MultiPolygon","coordinates": [[[[17.4171,48.8329,548.2051],[17.4099,48.8296,505.6687],[17.3995,48.8283,428.151],[17.3837,48.8084,454.4227],[17.3759,48.803,432.4795],[17.3535,48.7918,414.2601],[17.3528,48.7839,351.5492],[17.3719,48.7815,425.3636],[17.4054,48.767,323.6498],[17.4315,48.7658,342.5287],[17.4646,48.7593,479.0435],[17.4686,48.7571,456.8201],[17.4722,48.7482,374.5715],[17.4708,48.7358,407.4249],[17.4639,48.7293,305.1703],[17.4436,48.7189,267.5328],[17.4412,48.7149,325.8405],[17.4418,48.7078,291.9265],[17.4483,48.7007,336.1229],[17.456,48.6957,332.9221],[17.4597,48.6872,324.352],[17.4729,48.6774,306.252],[17.4822,48.6657,414.1519],[17.4832,48.6597,400.4206],[17.4889,48.6538,326.6944],[17.4962,48.6488,283.2398],[17.5074,48.6451,248.179],[17.5266,48.6309,406.662],[17.5371,48.631,410.9218],[17.5577,48.6374,465.7569],[17.6001,48.6438,414.9171],[17.605,48.6473,357.6287],[17.6123,48.6614,402.7407],[17.6145,48.6628,340.8849],[17.652,48.6627,345.1275],[17.6774,48.6688,228.8716],[17.69,48.6741,311.1911],[17.698,48.6756,402.6786],[17.7073,48.6732,335.8378],[17.7135,48.6683,243.9362],[17.7297,48.6615,282.5648],[17.7489,48.6501,201.5104],[17.7617,48.6461,165.3351],[17.8159,48.6443,165.9753],[17.8189,48.6453,166.368],[17.8251,48.6513,166.9775],[17.834,48.6516,167.0487],[17.8361,48.65,171.8535],[17.836,48.6387,166.1594],[17.8379,48.6368,165.5435],[17.8478,48.6399,163.7222],[17.8639,48.6411,193.9775],[17.8779,48.6332,251.1888],[17.9096,48.6297,403.1795],[17.9462,48.6227,447.7783],[17.9565,48.6154,477.3951],[17.9671,48.6133,539.6888],[18.0088,48.6171,421.6451],[18.0174,48.6241,295.0007],[18.0176,48.6322,343.3754],[18.0093,48.6408,498.6297],[18.0019,48.6535,343.9934],[17.9964,48.6669,534.9517],[17.9969,48.6786,626.0432],[17.9925,48.6875,560.4734],[17.9932,48.6939,663.0469],[18.0,48.704,730.2576],[18.0022,48.714,808.2277],[18.0196,48.7094,828.0955],[18.0364,48.701,815.1241],[18.0588,48.7002,669.1306],[18.0818,48.6929,388.3924],[18.1147,48.69,338.5558],[18.1294,48.6807,314.8757],[18.1381,48.6732,267.5847],[18.1436,48.6562,284.4724],[18.1489,48.6517,255.5283],[18.1606,48.6472,281.0916],[18.1723,48.6393,253.3726],[18.1899,48.6334,254.1322],[18.1987,48.6266,255.6246],[18.2222,48.6221,188.478],[18.2289,48.6195,203.857],[18.2332,48.6151,188.713],[18.2384,48.602,172.0795],[18.2281,48.5951,170.5402],[18.2258,48.589,169.7374],[18.2125,48.5812,168.6589],[18.209,48.5775,169.1429],[18.2099,48.5755,169.1852],[18.2196,48.5703,168.2778],[18.223,48.5667,169.9114],[18.2228,48.5649,171.5338],[18.2185,48.5616,172.904],[18.2191,48.5555,174.6618],[18.2238,48.5526,179.77],[18.2335,48.5547,188.0506],[18.2485,48.5535,178.6109],[18.2882,48.5204,395.4152],[18.2924,48.5125,443.1997],[18.2967,48.5081,519.975],[18.2989,48.4967,679.3562],[18.303,48.4923,633.8861],[18.3125,48.4888,617.8071],[18.3306,48.4863,556.3155],[18.336,48.4867,610.9426],[18.3432,48.4922,568.8787],[18.3457,48.5018,473.1359],[18.3482,48.5046,494.2268],[18.354,48.5042,503.6237],[18.3658,48.4985,512.2865],[18.3722,48.4986,519.7383],[18.378,48.5034,441.0771],[18.3829,48.5126,374.8573],[18.4074,48.5188,472.6125],[18.426,48.5315,402.7188],[18.4583,48.5408,460.5743],[18.488,48.5658,528.8491],[18.4938,48.5625,584.1745],[18.5404,48.569,631.9553],[18.5533,48.569,742.3234],[18.5638,48.5663,869.616],[18.5728,48.5665,811.3055],[18.5813,48.5687,825.6381],[18.587,48.5732,815.2506],[18.5871,48.5814,867.2607],[18.5901,48.5891,900.5359],[18.6088,48.5982,1151.8479],[18.6285,48.62,1233.9771],[18.6312,48.6288,1133.2726],[18.6364,48.6347,1199.5695],[18.6406,48.6369,1266.463],[18.6488,48.6376,1167.9672],[18.6609,48.6358,1041.0918],[18.6959,48.626,691.83],[18.7147,48.6277,785.4436],[18.718,48.6317,732.9553],[18.7202,48.643,608.7657],[18.7388,48.6718,621.2415],[18.7668,48.6831,577.5653],[18.7803,48.6926,904.6929],[18.7919,48.7119,707.5854],[18.8027,48.7242,724.0603],[18.8135,48.7403,684.9935],[18.8126,48.744,612.9637],[18.8077,48.7488,560.3493],[18.8048,48.7558,565.8911],[18.8006,48.7608,618.137],[18.7771,48.7783,702.2699],[18.7722,48.7851,717.0383],[18.7626,48.7923,700.8525],[18.7586,48.8027,836.4402],[18.7525,48.8103,760.1046],[18.7412,48.8182,747.1306],[18.7291,48.8234,638.4583],[18.7242,48.8295,722.1858],[18.7173,48.8346,664.5248],[18.6931,48.8476,615.8688],[18.6846,48.859,590.7227],[18.6833,48.8636,512.3561],[18.684,48.8696,585.916],[18.6906,48.886,535.9693],[18.6881,48.8926,439.9787],[18.6813,48.9006,646.4966],[18.6821,48.9098,586.4504],[18.6883,48.9196,546.1279],[18.6976,48.928,729.295],[18.7045,48.9379,748.1418],[18.7034,48.9448,681.5281],[18.6829,48.947,618.8682],[18.6576,48.9558,944.5795],[18.6364,48.958,950.1998],[18.6064,48.9585,917.304],[18.5908,48.9563,974.9379],[18.58,48.9522,709.8228],[18.5777,48.9547,637.6644],[18.5754,48.9644,866.3688],[18.5673,48.9674,848.4354],[18.5582,48.9632,838.1382],[18.5466,48.9539,742.2079],[18.5344,48.9467,926.4816],[18.5086,48.938,832.0126],[18.4884,48.9379,704.3513],[18.4887,48.9367,721.9224],[18.4771,48.9381,797.9172],[18.4664,48.941,774.7285],[18.4602,48.9463,833.0576],[18.4565,48.9572,832.1313],[18.4829,48.9679,850.5606],[18.507,48.9853,938.7358],[18.5205,48.9907,833.8885],[18.5613,48.9978,787.5429],[18.5692,49.002,733.3501],[18.5823,49.02,723.3335],[18.5918,49.0278,717.9265],[18.5969,49.0342,772.8511],[18.5974,49.0462,608.9937],[18.6023,49.0554,731.863],[18.6003,49.0698,558.5278],[18.5976,49.0734,580.4406],[18.5872,49.0795,495.4143],[18.5577,49.0862,664.0979],[18.5458,49.0913,443.8383],[18.5451,49.0937,388.6709],[18.5471,49.0964,401.1175],[18.5639,49.105,459.4872],[18.5704,49.11,462.3871],[18.5736,49.1153,483.3927],[18.5745,49.1203,552.2155],[18.573,49.125,652.7708],[18.5633,49.1344,573.4077],[18.5654,49.1419,631.9351],[18.5647,49.1447,658.2776],[18.5515,49.1493,687.2497],[18.551,49.1575,561.3938],[18.549,49.1618,513.1518],[18.5324,49.1648,505.749],[18.5008,49.1818,294.2756],[18.4697,49.1901,470.6093],[18.4604,49.1969,530.7533],[18.4567,49.203,444.0816],[18.4454,49.2126,615.0085],[18.4432,49.2179,478.6574],[18.4426,49.2257,546.239],[18.4369,49.2318,456.8314],[18.4305,49.2436,549.8047],[18.4244,49.2497,641.0404],[18.4203,49.2627,880.6792],[18.3886,49.2899,840.2982],[18.3832,49.2996,944.4989],[18.3723,49.3077,872.9566],[18.3702,49.3157,975.6278],[18.3674,49.3189,1064.6155],[18.3373,49.3173,989.0687],[18.3319,49.3199,883.6932],[18.3113,49.3121,864.8916],[18.2387,49.2984,856.2804],[18.2075,49.2942,813.759],[18.1778,49.2855,839.6494],[18.158,49.2722,599.333],[18.1491,49.254,747.2827],[18.1362,49.2145,534.6397],[18.1312,49.2032,580.8735],[18.1203,49.1853,526.2434],[18.1177,49.1661,638.4136],[18.1077,49.1392,593.6521],[18.118,49.1278,517.1703],[18.1115,49.0941,652.3856],[18.1065,49.081,611.9439],[18.0897,49.0574,401.3987],[18.0828,49.0512,415.459],[18.0441,49.0315,473.3527],[17.9842,49.0265,740.1606],[17.9617,49.0277,636.0264],[17.9238,49.0193,645.4452],[17.9121,49.0118,597.5161],[17.8994,49.0005,627.5973],[17.8908,48.9892,528.7372],[17.8888,48.9641,441.6748],[17.8815,48.9362,690.4617],[17.8683,48.9273,616.4868],[17.8034,48.9242,542.3907],[17.7756,48.9196,752.4364],[17.7619,48.9124,610.4318],[17.7503,48.9035,361.0231],[17.728,48.8805,351.6181],[17.7137,48.8692,563.8022],[17.6969,48.8603,863.8998],[17.6258,48.8579,684.833],[17.6096,48.8542,609.4474],[17.5812,48.8326,511.39],[17.5152,48.8097,404.2913],[17.5011,48.8125,390.8236],[17.4752,48.8395,441.6446],[17.4653,48.8443,492.1829],[17.4465,48.8454,519.4159],[17.4171,48.8329,548.2051]]]]}}