{"type":"Feature","properties":{"GID_2":"SVK.1.3_1","GID_0":"SVK","country":"Slovakia","GID_1":"SVK.1_1","province":"Banskobystrický","NL_NAME_1":"NA","county":"Brezno","VARNAME_2":"NA","NL_NAME_2":"NA","TYPE_2":"Okres","ENGTYPE_2":"District","CC_2":"603","HASC_2":"SK.BC.BR","name":"Brezno.county"},
"geometry":{"type": "MultiPolygon","coordinates": [[[[19.4783,48.671,1236.4771],[19.4872,48.6632,1193.1421],[19.49,48.6575,1265.4453],[19.5007,48.6598,1185.8983],[19.5387,48.6609,921.2949],[19.5521,48.6578,946.5858],[19.5797,48.6561,930.754],[19.5977,48.6509,982.0128],[19.6114,48.6494,951.8771],[19.6228,48.6425,970.3274],[19.637,48.6442,985.0975],[19.6387,48.6417,969.1575],[19.6325,48.6346,936.4719],[19.6345,48.6286,1032.4128],[19.6577,48.6276,1048.1609],[19.6705,48.6242,1032.7292],[19.7077,48.6407,761.345],[19.747,48.6516,1064.917],[19.7387,48.6559,1119.5084],[19.7336,48.6623,1047.59],[19.7309,48.6733,1064.2347],[19.7323,48.6778,908.4363],[19.7367,48.6803,838.6288],[19.76,48.6866,1270.1072],[19.7617,48.6884,1259.7109],[19.7625,48.6957,937.9097],[19.7656,48.6992,949.8905],[19.7855,48.7011,1065.3005],[19.7981,48.7085,886.9239],[19.8009,48.7112,986.1685],[19.8028,48.7197,879.3702],[19.8172,48.7251,831.6853],[19.8228,48.7329,760.7831],[19.8256,48.7428,779.5427],[19.8457,48.7597,855.9252],[19.8524,48.7612,989.2699],[19.8614,48.7605,928.4346],[19.8651,48.7625,990.904],[19.8684,48.7674,1088.6816],[19.8772,48.7906,1357.3806],[19.8812,48.7941,1249.1565],[19.9035,48.7915,1349.8087],[19.9211,48.7961,1077.5677],[19.9348,48.7924,812.9191],[19.9544,48.7925,828.251],[19.9627,48.7974,1011.2385],[19.9736,48.7979,1102.4395],[19.9914,48.8025,1113.675],[20.0068,48.8162,932.6129],[20.0211,48.8181,896.3342],[20.04,48.817,793.9968],[20.046,48.8095,824.45],[20.061,48.8152,775.6439],[20.0716,48.816,768.1833],[20.0776,48.8119,939.1587],[20.0796,48.8022,1092.3406],[20.0884,48.7978,1077.5315],[20.108,48.7948,901.9779],[20.1251,48.7978,938.6505],[20.1284,48.7963,964.6639],[20.1305,48.792,916.4854],[20.1326,48.791,945.0759],[20.1377,48.7924,975.7501],[20.1541,48.8029,975.2635],[20.1723,48.7984,1153.3363],[20.182,48.7984,1090.3167],[20.1869,48.8197,1041.6268],[20.1904,48.8256,1010.4827],[20.2074,48.8416,1050.6705],[20.2171,48.8633,984.7299],[20.2279,48.8671,963.4807],[20.2395,48.8742,1007.5407],[20.2436,48.8812,970.3692],[20.2344,48.8877,956.6312],[20.2032,48.8958,1063.7047],[20.1721,48.91,1503.7168],[20.1649,48.908,1299.6588],[20.1545,48.8948,1545.3464],[20.1501,48.8923,1579.0182],[20.1197,48.8942,1525.8206],[20.1005,48.8989,1524.7415],[20.0736,48.8993,1544.8378],[20.0553,48.9041,1299.25],[20.0365,48.9114,1280.0576],[19.9988,48.917,1388.1608],[19.9767,48.9251,1522.5234],[19.9649,48.9325,1333.0502],[19.9605,48.9318,1229.5387],[19.9523,48.9247,1237.5284],[19.9474,48.9228,1179.9285],[19.9019,48.921,1136.8992],[19.8811,48.9226,1411.5234],[19.8461,48.9212,1187.8008],[19.8188,48.9243,1210.7261],[19.8062,48.9236,1091.2329],[19.7863,48.9194,1438.057],[19.7815,48.9146,1314.6288],[19.7599,48.9078,1327.135],[19.7432,48.9047,1147.2285],[19.7142,48.9107,1567.8066],[19.6676,48.9107,1469.2166],[19.6418,48.9234,1637.3698],[19.6354,48.9297,1570.5439],[19.6271,48.9348,1648.8604],[19.5999,48.9415,1824.031],[19.5715,48.9407,1960.5693],[19.5391,48.9369,1404.907],[19.5114,48.9372,1774.5526],[19.452,48.9321,1662.915],[19.4386,48.9341,1307.3247],[19.43,48.9316,1454.894],[19.3927,48.9275,1490.9062],[19.3796,48.9216,1468.5118],[19.3666,48.9114,1517.8776],[19.3462,48.8999,1626.5],[19.3498,48.9012,1485.0819],[19.3506,48.8949,1645.6078],[19.3568,48.8898,1553.1909],[19.3737,48.8821,1506.7899],[19.3847,48.8811,1519.4817],[19.3887,48.879,1432.8074],[19.3945,48.8725,1169.6818],[19.4043,48.8533,1057.713],[19.4037,48.8482,990.3351],[19.4002,48.8431,939.5991],[19.3954,48.8389,926.139],[19.3878,48.8356,781.0563],[19.3844,48.8305,713.9178],[19.3847,48.8183,533.4993],[19.3924,48.8052,449.0854],[19.3881,48.8005,414.9725],[19.3883,48.7985,484.0038],[19.4035,48.7949,533.2075],[19.4301,48.774,957.3362],[19.4385,48.7719,1080.593],[19.4541,48.7711,1156.4939],[19.4549,48.7689,1154.5319],[19.4519,48.7631,1013.2332],[19.4529,48.756,1130.3091],[19.4578,48.7543,1146.9226],[19.4659,48.7554,1150.8733],[19.4715,48.7534,1118.8441],[19.4873,48.7395,1151.522],[19.4917,48.7322,1017.24],[19.4983,48.728,840.8593],[19.4913,48.7062,945.3683],[19.4808,48.6973,1038.9854],[19.4614,48.6918,1116.5281],[19.4587,48.6893,1060.877],[19.4603,48.6838,1104.8472],[19.4732,48.6762,1172.8933],[19.4783,48.671,1236.4771]]]]}}