{"type":"Feature","properties":{"GID_2":"SVK.4.5_1","GID_0":"SVK","country":"Slovakia","GID_1":"SVK.4_1","province":"Nitriansky","NL_NAME_1":"NA","county":"Šala","VARNAME_2":"NA","NL_NAME_2":"NA","TYPE_2":"Okres","ENGTYPE_2":"District","CC_2":"405","HASC_2":"SK.NI.SA","name":"Šala.county"},
"geometry":{"type": "MultiPolygon","coordinates": [[[[17.9737,47.9604,108.4661],[17.9667,47.9694,108.6389],[17.9653,47.9738,108.7873],[17.9788,47.9983,112.1243],[17.9946,48.0074,111.6246],[18.0083,48.0081,109.7616],[18.0186,48.018,110.4659],[18.0079,48.0318,109.1377],[18.0064,48.0435,110.4063],[17.9924,48.0536,110.2737],[17.9863,48.0596,110.6986],[17.9848,48.0637,110.5489],[17.9854,48.0743,110.4454],[17.9886,48.084,110.6544],[17.9952,48.095,111.7666],[18.0029,48.1026,111.5785],[18.0047,48.1075,112.961],[18.004,48.111,113.3544],[17.9967,48.1168,112.7068],[17.9849,48.1211,112.562],[17.9699,48.1236,113.5968],[17.9648,48.1276,113.5903],[17.9707,48.1365,113.5431],[17.9806,48.1424,113.5471],[17.9979,48.1563,115.4814],[18.0022,48.1649,120.6832],[17.9888,48.1735,121.0183],[17.9731,48.1899,133.522],[17.9836,48.2036,162.1382],[17.9866,48.2111,164.8951],[17.9864,48.2179,163.0118],[17.9793,48.2318,162.0823],[17.9802,48.2336,167.7304],[17.9863,48.2361,173.7684],[17.9866,48.2381,176.09],[17.9832,48.2452,187.7114],[17.9793,48.2479,194.0297],[17.9494,48.2509,160.2105],[17.9388,48.2539,158.819],[17.9141,48.2667,161.981],[17.9079,48.2715,180.8145],[17.8874,48.2709,154.7631],[17.8774,48.2747,159.9383],[17.8616,48.2775,156.38],[17.8625,48.2747,151.6014],[17.8606,48.27,141.7512],[17.8387,48.2507,121.8689],[17.8352,48.2422,125.5524],[17.8385,48.2372,122.6492],[17.8471,48.2313,119.0093],[17.8672,48.2277,119.4467],[17.8793,48.2217,117.371],[17.8831,48.216,116.5751],[17.884,48.2107,116.296],[17.8835,48.2066,116.4511],[17.8799,48.2008,116.3485],[17.8721,48.1935,115.3813],[17.8672,48.191,116.7551],[17.8378,48.1831,119.0436],[17.8338,48.1832,117.2663],[17.8233,48.1878,119.2357],[17.8003,48.1888,115.8763],[17.7982,48.1863,116.9034],[17.8001,48.1818,115.2523],[17.8075,48.1728,116.0896],[17.8138,48.1695,115.8348],[17.8169,48.1653,116.3097],[17.8166,48.1609,118.439],[17.8121,48.1563,114.97],[17.8049,48.1543,114.6996],[17.7962,48.1546,114.9878],[17.7838,48.1604,114.9746],[17.7673,48.1612,115.2183],[17.7517,48.1548,115.4469],[17.748,48.1522,115.4267],[17.7473,48.1491,115.0725],[17.785,48.134,115.7023],[17.8023,48.1231,113.9366],[17.8186,48.109,113.0542],[17.8188,48.0961,112.7203],[17.8006,48.0771,112.9081],[17.8008,48.0732,112.6046],[17.8038,48.0695,112.841],[17.8076,48.0679,112.3986],[17.82,48.0678,111.9936],[17.8372,48.0762,111.2584],[17.8409,48.0767,111.0846],[17.8468,48.0699,111.1829],[17.8402,48.0624,111.2364],[17.8398,48.0596,111.7467],[17.8459,48.0525,111.4785],[17.8563,48.0477,111.1359],[17.8748,48.0446,110.088],[17.8777,48.0377,110.0043],[17.883,48.0329,109.7552],[17.8843,48.0291,110.1664],[17.8838,48.0225,109.6882],[17.8759,47.9948,109.3673],[17.8777,47.9876,109.855],[17.8818,47.983,109.9244],[17.9005,47.9755,109.1306],[17.9249,47.9761,108.5684],[17.9442,47.9672,108.5336],[17.9737,47.9604,108.4661]]]]}}