{"type":"Feature","properties":{"GID_2":"SVK.8.1_1","GID_0":"SVK","country":"Slovakia","GID_1":"SVK.8_1","province":"Žilinský","NL_NAME_1":"NA","county":"Bytca","VARNAME_2":"NA","NL_NAME_2":"NA","TYPE_2":"Okres","ENGTYPE_2":"District","CC_2":"501","HASC_2":"SK.ZI.BY","name":"Bytca.county"},
"geometry":{"type": "MultiPolygon","coordinates": [[[[18.5738,49.1238,652.7708],[18.575,49.1204,552.2155],[18.5736,49.1132,525.1197],[18.5853,49.1142,606.0872],[18.6126,49.1235,733.4238],[18.6229,49.1238,697.686],[18.6255,49.1256,660.9453],[18.6133,49.1435,746.5417],[18.6104,49.1571,711.066],[18.6079,49.1863,741.9528],[18.599,49.1925,564.0808],[18.6059,49.2067,488.8825],[18.6026,49.2128,489.1691],[18.6026,49.2178,440.9337],[18.6007,49.2205,360.1363],[18.593,49.224,307.8756],[18.5909,49.2266,306.8105],[18.6055,49.2392,313.2767],[18.6282,49.2419,312.2756],[18.6308,49.2446,332.1217],[18.6328,49.2522,398.545],[18.6283,49.2591,467.0957],[18.6178,49.2631,485.2485],[18.6137,49.2666,547.4862],[18.5975,49.2857,546.8192],[18.5981,49.2966,472.578],[18.5956,49.3038,628.0428],[18.5948,49.3181,725.4299],[18.5915,49.3267,744.9485],[18.5863,49.3325,757.6904],[18.5858,49.3359,717.1215],[18.5891,49.3478,773.3956],[18.5987,49.3556,730.556],[18.5957,49.3589,655.7312],[18.578,49.362,608.2927],[18.5635,49.3565,650.5292],[18.5361,49.3584,808.232],[18.5226,49.3521,747.1193],[18.5034,49.3516,779.075],[18.486,49.3443,828.9412],[18.4614,49.3368,880.2926],[18.4466,49.3358,938.9882],[18.4402,49.3306,993.3207],[18.4302,49.3318,1032.6949],[18.4128,49.3292,897.1418],[18.4031,49.3328,989.3535],[18.3964,49.3329,905.9927],[18.3653,49.3218,1036.3184],[18.3626,49.3185,1042.9907],[18.3687,49.3184,1051.0212],[18.3723,49.3077,872.9566],[18.3832,49.2996,944.4989],[18.3886,49.2899,840.2982],[18.4203,49.2627,880.6792],[18.4244,49.2497,641.0404],[18.4305,49.2436,549.8047],[18.4369,49.2318,456.8314],[18.4426,49.2257,546.239],[18.4432,49.2179,478.6574],[18.4454,49.2126,615.0085],[18.4567,49.203,444.0816],[18.4604,49.1969,530.7533],[18.4697,49.1901,470.6093],[18.5008,49.1818,294.2756],[18.5324,49.1648,505.749],[18.5483,49.1622,484.2228],[18.551,49.1575,561.3938],[18.5515,49.1493,687.2497],[18.5642,49.1453,658.2776],[18.5654,49.1419,631.9351],[18.5633,49.1344,573.4077],[18.5738,49.1238,652.7708]]]]}}