{"type":"Feature","properties":{"GID_1":"SVK.4_1","GID_0":"SVK","country":"Slovakia","province":"Nitriansky","VARNAME_1":"Nitra","NL_NAME_1":"NA","TYPE_1":"Kraj","ENGTYPE_1":"Region","CC_1":"NA","HASC_1":"SK.NI","ISO_1":"NA","name":"Nitriansky.province"},
"geometry":{"type": "MultiPolygon","coordinates": [[[[18.833,47.8175,102.0],[18.8482,47.8171,102.0],[18.8494,47.8221,108.6442],[18.8557,47.8281,107.2725],[18.8506,47.8307,104.3297],[18.836,47.8303,105.7341],[18.8307,47.8331,106.0869],[18.8222,47.8492,107.0598],[18.8154,47.8546,107.7059],[18.797,47.8599,106.1052],[18.7923,47.8668,109.5713],[18.7832,47.8673,105.9746],[18.7792,47.8699,106.5563],[18.7706,47.8696,106.7339],[18.7686,47.8719,106.7972],[18.7633,47.8733,107.5379],[18.7634,47.8828,108.5604],[18.7683,47.8839,108.6017],[18.759,47.8987,108.4073],[18.7621,47.904,108.9837],[18.7593,47.9076,119.359],[18.7626,47.912,112.298],[18.7586,47.9171,109.7713],[18.7579,47.922,109.4299],[18.7686,47.9305,110.7914],[18.7723,47.9362,110.9296],[18.774,47.9407,119.9721],[18.7734,47.9484,113.895],[18.7704,47.9549,112.4592],[18.7755,47.9546,119.22],[18.7776,47.958,116.0019],[18.7716,47.966,118.5969],[18.7567,47.971,113.5506],[18.7533,47.9757,120.5681],[18.7624,47.9833,113.7243],[18.7664,47.9832,115.9532],[18.766,47.9866,114.8132],[18.7721,47.989,113.6631],[18.7762,47.9864,115.2958],[18.7879,47.9893,114.5653],[18.7981,47.9883,114.9177],[18.8128,47.9925,116.0269],[18.8086,47.9956,115.1062],[18.8142,47.9985,116.8461],[18.8174,47.9968,139.2024],[18.8192,47.9998,145.9514],[18.8208,48.0073,119.7499],[18.8172,48.0156,117.8907],[18.8191,48.0236,121.0065],[18.8282,48.0303,128.1011],[18.8273,48.0423,126.7441],[18.8362,48.0438,134.6794],[18.8388,48.049,131.3012],[18.8481,48.0525,132.1461],[18.8676,48.0476,164.5053],[18.8755,48.0472,174.7707],[18.8861,48.0562,143.0874],[18.8935,48.0579,148.3398],[18.9025,48.0544,152.8281],[18.913,48.0533,156.7301],[18.9224,48.0545,149.9941],[18.9291,48.0588,146.9431],[18.9395,48.06,147.9234],[18.9677,48.057,137.4696],[18.9876,48.0584,128.407],[18.9948,48.0699,129.549],[19.0055,48.0709,126.2511],[19.0107,48.074,128.5513],[19.0135,48.079,188.9685],[19.0131,48.0864,313.0724],[19.0149,48.0907,220.6356],[19.0212,48.0978,206.9126],[19.0295,48.1005,231.6081],[19.0354,48.1107,354.7324],[19.0513,48.1225,368.0095],[19.0482,48.1487,473.2157],[19.0414,48.177,440.6877],[19.0438,48.1799,360.1482],[19.0566,48.1839,442.2126],[19.0567,48.192,441.1346],[19.0551,48.1947,434.6799],[19.0451,48.1971,191.737],[19.0116,48.1898,315.8419],[18.9983,48.1822,360.0291],[18.9939,48.1774,344.0264],[18.9696,48.1678,162.4343],[18.939,48.1649,243.4933],[18.9287,48.16,248.0448],[18.8964,48.1557,203.0491],[18.8649,48.1545,138.5425],[18.827,48.1691,158.2019],[18.8082,48.1679,252.9353],[18.797,48.1712,224.6367],[18.7913,48.1755,208.2082],[18.7925,48.1817,211.5835],[18.798,48.1877,222.8651],[18.8149,48.1957,150.37],[18.8155,48.2005,184.8395],[18.8147,48.2037,182.1797],[18.808,48.2092,204.0116],[18.8042,48.2161,261.2947],[18.7973,48.2214,287.6945],[18.7936,48.2269,318.1931],[18.7936,48.233,319.6389],[18.8023,48.2385,337.6629],[18.7961,48.2445,356.7038],[18.795,48.2498,360.9566],[18.8003,48.2565,366.3158],[18.8065,48.2606,421.1187],[18.8205,48.2629,414.0723],[18.8251,48.2662,437.3548],[18.8262,48.2704,481.7518],[18.8244,48.2815,563.2455],[18.8387,48.2964,526.0617],[18.8402,48.3041,514.9704],[18.8397,48.3071,490.9448],[18.8343,48.3147,459.9467],[18.8224,48.3169,406.8596],[18.8136,48.3252,392.5112],[18.8114,48.3375,488.2759],[18.8014,48.3449,453.9252],[18.7984,48.3498,390.229],[18.7965,48.3707,477.0432],[18.7695,48.38,398.527],[18.7676,48.382,394.0203],[18.7666,48.389,479.3691],[18.7448,48.4034,606.2399],[18.7308,48.4077,543.1606],[18.7176,48.4066,439.1667],[18.71,48.4043,488.0037],[18.7006,48.3957,483.1253],[18.6853,48.3873,416.6447],[18.6775,48.3795,448.5927],[18.6652,48.3619,505.5593],[18.6449,48.3458,552.4659],[18.6344,48.3427,543.3202],[18.6034,48.3407,490.6946],[18.5901,48.3374,403.2704],[18.5748,48.3375,285.3603],[18.5676,48.3394,210.9963],[18.5553,48.3383,231.4145],[18.5509,48.3357,253.4354],[18.5473,48.3273,182.0628],[18.5405,48.3217,179.6864],[18.5355,48.3204,179.7609],[18.5243,48.323,193.8039],[18.5214,48.3255,211.5116],[18.5263,48.3282,207.0499],[18.527,48.33,194.5916],[18.518,48.3336,212.0789],[18.5175,48.3356,226.0119],[18.5432,48.3531,234.4863],[18.5568,48.3675,270.8891],[18.5568,48.3727,320.1746],[18.5513,48.3896,630.6126],[18.557,48.3966,525.5089],[18.5581,48.4008,618.7662],[18.556,48.4041,714.1887],[18.5496,48.407,760.1448],[18.544,48.4197,808.0921],[18.5329,48.4213,793.5999],[18.5077,48.4303,542.1249],[18.4966,48.4316,643.2944],[18.4921,48.4355,531.4811],[18.4945,48.4387,468.7992],[18.5164,48.4517,496.2842],[18.5294,48.4635,524.5302],[18.5311,48.4669,502.1189],[18.5304,48.4709,427.7065],[18.521,48.4713,381.8883],[18.5159,48.4734,471.0122],[18.5186,48.4825,581.3661],[18.5233,48.4907,557.4836],[18.5221,48.4992,654.9636],[18.5181,48.5045,638.8602],[18.5106,48.5074,560.6369],[18.4945,48.5084,414.0452],[18.4796,48.5033,358.0593],[18.4702,48.5032,445.4874],[18.4703,48.5054,442.3713],[18.4867,48.5181,457.5686],[18.4896,48.5225,531.8054],[18.4867,48.5247,545.9205],[18.4706,48.5249,504.7783],[18.4624,48.5285,612.2654],[18.4601,48.5308,617.0707],[18.4626,48.5436,436.6763],[18.4528,48.5383,571.944],[18.426,48.5315,402.7188],[18.4098,48.5197,502.9642],[18.3829,48.5126,374.8573],[18.378,48.5034,441.0771],[18.3722,48.4986,519.7383],[18.3658,48.4985,512.2865],[18.354,48.5042,503.6237],[18.3493,48.5049,494.2268],[18.3457,48.5018,473.1359],[18.3432,48.4922,568.8787],[18.3353,48.4864,589.3667],[18.3186,48.4876,535.8454],[18.3054,48.4909,593.8803],[18.2992,48.496,679.3562],[18.2967,48.5081,519.975],[18.2924,48.5125,443.1997],[18.2882,48.5204,395.4152],[18.2511,48.5515,187.3513],[18.2445,48.5548,183.2971],[18.2322,48.5546,186.5206],[18.2238,48.5526,179.77],[18.2191,48.5555,174.6618],[18.2185,48.5616,172.904],[18.2228,48.5649,171.5338],[18.223,48.5667,169.9114],[18.2196,48.5703,168.2778],[18.2099,48.5755,169.1852],[18.209,48.5775,169.1429],[18.2125,48.5812,168.6589],[18.2258,48.589,169.7374],[18.2281,48.5951,170.5402],[18.2381,48.6015,172.0795],[18.2381,48.6047,171.9901],[18.232,48.6168,204.3167],[18.2244,48.6216,185.0296],[18.1987,48.6266,255.6246],[18.1899,48.6334,254.1322],[18.1723,48.6393,253.3726],[18.1606,48.6472,281.0916],[18.1489,48.6517,255.5283],[18.1436,48.6562,284.4724],[18.1381,48.6732,267.5847],[18.1294,48.6807,314.8757],[18.113,48.6906,337.5964],[18.0818,48.6929,388.3924],[18.0588,48.7002,669.1306],[18.0364,48.701,815.1241],[18.0196,48.7094,828.0955],[18.0022,48.714,808.2277],[18.0,48.704,730.2576],[17.9932,48.6939,663.0469],[17.9928,48.6855,578.6817],[17.9969,48.6786,626.0432],[17.9964,48.6669,534.9517],[18.0019,48.6535,343.9934],[18.0093,48.6408,498.6297],[18.0172,48.6337,343.3754],[18.0177,48.6254,295.0007],[18.0165,48.623,273.8862],[18.0088,48.6171,421.6451],[17.9667,48.6131,539.6888],[17.9682,48.6,635.9329],[17.9611,48.5931,657.228],[17.9435,48.5935,448.8034],[17.9302,48.5896,526.2443],[17.9152,48.5923,356.4804],[17.9055,48.5916,397.0753],[17.8944,48.596,398.4737],[17.8836,48.5902,340.9039],[17.8809,48.5833,336.9788],[17.8762,48.5788,303.0213],[17.8715,48.5707,344.9364],[17.8645,48.5652,335.592],[17.8611,48.5588,277.3114],[17.8583,48.5489,277.117],[17.8575,48.5379,288.727],[17.8447,48.5254,236.9034],[17.8442,48.523,214.8269],[17.8643,48.511,329.9185],[17.8771,48.5067,321.7198],[17.8821,48.5024,311.9537],[17.9044,48.494,221.6553],[17.9311,48.4738,184.0676],[17.9487,48.4636,171.159],[17.9515,48.4599,189.7705],[17.943,48.4516,182.9264],[17.9293,48.4482,185.0329],[17.925,48.4418,181.202],[17.9034,48.4229,183.9193],[17.8991,48.4133,180.2175],[17.885,48.3955,241.5635],[17.8793,48.3795,161.6301],[17.8484,48.352,210.9603],[17.8519,48.3411,201.1199],[17.8439,48.3314,196.1992],[17.8408,48.3114,159.2818],[17.8358,48.3034,141.4905],[17.8241,48.2965,147.7387],[17.8248,48.2926,137.7779],[17.8318,48.2875,138.0413],[17.8561,48.2799,155.9721],[17.8624,48.2762,152.158],[17.8594,48.2684,140.2195],[17.8368,48.2481,122.1005],[17.8351,48.2442,124.0444],[17.8364,48.2397,124.7327],[17.8471,48.2313,119.0093],[17.8672,48.2277,119.4467],[17.8793,48.2217,117.371],[17.8836,48.2143,116.4324],[17.8835,48.2066,116.4511],[17.8799,48.2008,116.3485],[17.8689,48.1918,116.9062],[17.8378,48.1831,119.0436],[17.8338,48.1832,117.2663],[17.8233,48.1878,119.2357],[17.807,48.1891,116.5403],[17.7992,48.1882,116.009],[17.7982,48.1863,116.9034],[17.8001,48.1818,115.2523],[17.8075,48.1728,116.0896],[17.8138,48.1695,115.8348],[17.8169,48.1653,116.3097],[17.8166,48.1609,118.439],[17.8104,48.1554,114.7085],[17.7962,48.1546,114.9878],[17.7838,48.1604,114.9746],[17.7673,48.1612,115.2183],[17.7517,48.1548,115.4469],[17.7471,48.1499,115.0725],[17.7505,48.147,114.7982],[17.7617,48.144,115.1191],[17.785,48.134,115.7023],[17.8023,48.1231,113.9366],[17.8186,48.109,113.0542],[17.8188,48.0961,112.7203],[17.8006,48.0771,112.9081],[17.8008,48.0732,112.6046],[17.8038,48.0695,112.841],[17.8076,48.0679,112.3986],[17.82,48.0678,111.9936],[17.8372,48.0762,111.2584],[17.8417,48.0764,111.1202],[17.8468,48.0699,111.1829],[17.8398,48.0611,111.3508],[17.8438,48.0546,111.8841],[17.8563,48.0477,111.1359],[17.8738,48.0453,110.0187],[17.8777,48.0377,110.0043],[17.883,48.0329,109.7552],[17.8838,48.0225,109.6882],[17.8759,47.9948,109.3673],[17.8777,47.9876,109.855],[17.8818,47.9829,109.9244],[17.8842,47.9722,109.5745],[17.8789,47.9536,109.9074],[17.8813,47.9431,109.4629],[17.8785,47.9329,109.4912],[17.871,47.926,109.937],[17.8687,47.9212,109.1733],[17.8709,47.9168,109.4001],[17.8818,47.9104,108.87],[17.873,47.9049,110.0639],[17.8615,47.8898,108.713],[17.8476,47.8827,108.7117],[17.8369,47.8749,109.5574],[17.8226,47.8698,109.7094],[17.8119,47.8737,110.0903],[17.8067,47.8723,110.085],[17.804,47.8631,110.5853],[17.7958,47.8526,111.0453],[17.7931,47.8437,110.2295],[17.7946,47.8284,109.8004],[17.7934,47.8246,109.9022],[17.7893,47.8215,109.247],[17.7638,47.8113,109.6872],[17.7472,47.8086,110.0549],[17.7342,47.8109,109.4425],[17.7292,47.8098,109.948],[17.7266,47.8073,109.7703],[17.7264,47.8041,109.867],[17.7312,47.7936,114.5302],[17.7307,47.789,111.5332],[17.721,47.7798,115.6285],[17.7032,47.7697,112.5133],[17.7007,47.7668,104.0],[17.7093,47.7604,104.0],[17.725,47.7543,104.0],[17.7635,47.7494,105.0107],[17.7705,47.7446,103.5],[17.7807,47.7417,103.5],[17.8045,47.7444,103.5],[17.848,47.7424,103.5],[17.8619,47.745,103.5],[17.8695,47.7448,103.5],[17.8862,47.7393,103.5],[17.8989,47.7382,103.5],[17.91,47.7425,103.5],[17.9443,47.7445,103.5],[17.9626,47.7574,107.931],[17.9688,47.7577,103.5],[18.0033,47.747,103.5],[18.0296,47.7557,103.5],[18.0411,47.7571,104.9221],[18.083,47.7569,103.5],[18.1418,47.7506,111.0436],[18.1858,47.7394,103.5],[18.2196,47.7427,103.5],[18.2492,47.7402,103.5],[18.2787,47.7334,103.5],[18.2951,47.7327,103.0],[18.3463,47.7408,103.0],[18.3879,47.7509,103.0],[18.416,47.754,103.0],[18.4381,47.7631,103.0],[18.4483,47.7658,103.0],[18.4606,47.7643,103.0],[18.4826,47.7563,103.0],[18.4938,47.754,102.5],[18.5054,47.7547,102.5],[18.5194,47.7584,102.5],[18.5385,47.7668,102.5],[18.5524,47.7689,102.5],[18.6171,47.7592,105.7644],[18.663,47.7613,102.5],[18.6976,47.7761,102.0],[18.7257,47.7914,103.3398],[18.7344,47.8105,102.0],[18.7423,47.8155,103.8252],[18.7544,47.8183,102.0],[18.7658,47.8188,102.0],[18.833,47.8175,102.0]]]]}}