{"type":"Feature","properties":{"ISO3166-1-Alpha-3":"SVK","country":"Slovakia","fill":"#F00","id":"1054","name":"Nitriansky"},
"geometry":{"type": "Polygon","coordinates": [[[18.243,48.55554,176.9903],[18.23866,48.55642,191.1923],[18.23602,48.55828,189.4728],[18.23571,48.56293,179.902],[18.23246,48.5652,176.6581],[18.22998,48.56737,172.0306],[18.22796,48.57145,170.0646],[18.22874,48.57799,169.8686],[18.2368,48.58794,171.6227],[18.24533,48.59657,173.6363],[18.25111,48.60597,173.019],[18.2506,48.61202,173.7904],[18.24254,48.62096,198.3604],[18.23122,48.6283,216.8751],[18.21386,48.6314,211.8651],[18.17055,48.64783,248.3698],[18.16249,48.65522,276.5279],[18.15148,48.66871,231.619],[18.14621,48.67357,278.7881],[18.1243,48.6886,341.8719],[18.11608,48.69191,368.3026],[18.04487,48.70209,754.1472],[18.04317,48.70354,777.8792],[18.04224,48.70775,600.0831],[18.04239,48.71054,577.5206],[18.04208,48.71271,605.5983],[18.03914,48.71411,700.5596],[18.03619,48.71517,735.9073],[18.01537,48.7163,822.7233],[18.00823,48.71253,869.9487],[18.00327,48.70837,714.5204],[18.00234,48.70561,655.6217],[18.0025,48.70232,662.8848],[18.00467,48.69605,584.4464],[18.0056,48.69186,535.7415],[18.00606,48.68762,536.8693],[18.00591,48.68083,548.7935],[18.00668,48.67796,596.485],[18.00777,48.6762,637.6846],[18.0087,48.67569,638.2791],[18.00963,48.67455,638.8769],[18.01056,48.67308,655.4965],[18.01165,48.6699,576.6245],[18.01599,48.66339,467.3968],[18.01661,48.66261,448.0418],[18.01738,48.6622,448.0418],[18.01893,48.66171,502.3157],[18.0194,48.66124,502.3157],[18.02033,48.65967,505.1155],[18.02126,48.65889,531.4008],[18.0225,48.65801,552.8386],[18.02343,48.65716,581.5644],[18.02456,48.65589,551.2256],[18.02622,48.64959,610.8729],[18.02684,48.64396,558.0155],[18.02653,48.63941,439.2028],[18.02456,48.6331,366.6719],[18.02312,48.63062,353.0515],[18.02095,48.62949,351.3782],[18.01661,48.63093,358.342],[18.01397,48.63207,337.4952],[18.00994,48.6313,343.863],[18.0073,48.63008,330.9435],[17.98808,48.61608,440.901],[17.99056,48.60975,419.1249],[17.99165,48.60814,445.8805],[17.99258,48.606,451.0784],[17.99041,48.60396,493.6632],[17.98529,48.60158,586.1818],[17.93904,48.58913,568.1474],[17.93067,48.58835,549.1826],[17.92447,48.58882,462.7319],[17.9117,48.59461,333.272],[17.9085,48.59556,317.2279],[17.9055,48.59572,328.1627],[17.90101,48.5906,419.6561],[17.87031,48.53807,309.2869],[17.86845,48.5359,311.856],[17.85119,48.52288,257.2636],[17.89527,48.50779,263.3841],[17.89806,48.5075,258.2123],[17.90178,48.50624,240.5315],[17.92385,48.49428,200.2211],[17.96834,48.46417,183.0745],[17.94648,48.44805,179.0456],[17.87589,48.36309,214.8813],[17.8593,48.35193,195.3849],[17.85476,48.3371,183.437],[17.85352,48.33421,192.8415],[17.85248,48.33025,190.9714],[17.85196,48.3262,181.8045],[17.84778,48.30951,158.5407],[17.84623,48.30687,151.9193],[17.84421,48.30522,147.4343],[17.84158,48.30346,141.776],[17.84282,48.30046,140.5324],[17.84421,48.29829,139.4507],[17.87016,48.28282,160.7269],[17.86333,48.27457,151.6014],[17.85915,48.27052,143.1611],[17.85744,48.26755,137.8298],[17.85755,48.26532,137.1495],[17.85977,48.26233,136.4145],[17.85977,48.25954,132.2046],[17.85682,48.25612,130.3171],[17.85403,48.25411,129.2456],[17.8529,48.25106,125.5747],[17.85383,48.24749,122.1338],[17.85775,48.23956,120.5009],[17.8607,48.23664,120.244],[17.86333,48.23501,119.6613],[17.86581,48.23463,119.6125],[17.86845,48.23318,119.5609],[17.87837,48.22626,118.3903],[17.88178,48.22303,118.0755],[17.88349,48.21902,117.3571],[17.88333,48.21359,116.7254],[17.88023,48.20636,116.8147],[17.87713,48.20274,115.459],[17.87295,48.20026,115.6234],[17.85662,48.19391,116.8415],[17.84545,48.18776,117.5314],[17.84282,48.18742,119.3546],[17.8408,48.18833,119.5592],[17.82685,48.19975,120.0],[17.82406,48.20057,120.0],[17.82204,48.20042,120.0],[17.81832,48.19892,120.0],[17.81135,48.1967,118.2885],[17.81166,48.1936,117.6935],[17.81429,48.189,116.5353],[17.82282,48.17791,116.6036],[17.82592,48.17225,115.4607],[17.82545,48.16652,117.2396],[17.82297,48.16171,116.6394],[17.82111,48.16001,116.9787],[17.81863,48.15846,116.3646],[17.81584,48.15737,116.5736],[17.81274,48.15662,114.97],[17.80995,48.15654,115.0639],[17.80716,48.15711,115.7525],[17.80029,48.16003,114.7422],[17.79331,48.16223,115.5151],[17.78975,48.16269,114.8702],[17.78448,48.16223,115.2142],[17.76804,48.15802,115.0098],[17.76417,48.15494,116.0924],[17.76463,48.15143,115.0191],[17.80856,48.11892,114.2036],[17.81398,48.11205,113.1935],[17.81352,48.10389,112.736],[17.8053,48.09004,112.041],[17.80344,48.08626,112.2676],[17.80406,48.08311,111.7225],[17.80685,48.08063,112.069],[17.81367,48.07681,111.5574],[17.81801,48.07572,111.6785],[17.82344,48.07603,111.8407],[17.83987,48.07988,111.2994],[17.84592,48.08048,111.2701],[17.84902,48.07924,111.3165],[17.85088,48.07572,112.559],[17.84685,48.06782,111.7373],[17.84654,48.06528,110.8309],[17.84809,48.06371,111.2543],[17.85248,48.06123,110.8649],[17.85569,48.06045,111.0507],[17.86271,48.05986,110.3989],[17.8669,48.05882,110.9704],[17.86876,48.05867,110.7584],[17.87217,48.05867,110.2956],[17.87465,48.0581,110.4668],[17.87729,48.05681,110.2143],[17.87977,48.05278,110.3087],[17.88008,48.04746,110.0924],[17.87543,48.02573,109.6572],[17.8824,47.99102,109.3582],[17.87992,47.96513,109.4433],[17.88721,47.96069,109.4472],[17.88845,47.95769,109.1905],[17.88953,47.95382,109.2173],[17.88907,47.9501,110.2328],[17.88767,47.94694,110.0893],[17.88566,47.94359,108.4174],[17.8838,47.9317,108.964],[17.89046,47.92405,108.9547],[17.89356,47.9194,108.7956],[17.89232,47.91576,108.9229],[17.88597,47.9117,109.3301],[17.86922,47.90447,110.5897],[17.84545,47.89015,108.9557],[17.83414,47.87899,109.5591],[17.82654,47.87522,110.6438],[17.82266,47.87387,111.0726],[17.82065,47.87429,109.833],[17.81801,47.87367,109.8274],[17.81507,47.87186,109.9958],[17.80964,47.86793,110.3689],[17.80592,47.86315,110.8894],[17.80236,47.85643,110.6275],[17.80205,47.83496,111.2145],[17.79781,47.83088,110.2725],[17.79052,47.82618,109.9919],[17.77176,47.81631,110.27],[17.76355,47.81331,109.3373],[17.75781,47.81212,109.0843],[17.75549,47.81271,109.3109],[17.75331,47.813,109.8802],[17.75114,47.81303,109.9275],[17.74913,47.81331,109.4994],[17.7451,47.81489,110.8621],[17.74272,47.81527,113.6079],[17.74045,47.81362,110.4001],[17.73838,47.81021,110.9562],[17.73125,47.7868,111.367],[17.72737,47.77951,112.4648],[17.71947,47.77383,115.8534],[17.71924,47.77367,116.0269],[17.742,47.76538,111.6946],[17.82571,47.75001,110.7916],[17.88353,47.75252,109.6091],[18.11262,47.76249,116.1575],[18.23592,47.75388,109.1524],[18.27302,47.75626,108.2676],[18.34785,47.77677,115.677],[18.55259,47.79285,109.7533],[18.59745,47.79065,114.1183],[18.63383,47.77982,116.2413],[18.6637,47.7759,111.0069],[18.69284,47.77796,120.1365],[18.71723,47.78812,112.3456],[18.75031,47.81362,112.7079],[18.76767,47.8223,142.1214],[18.7903,47.82633,157.1888],[18.81492,47.83219,181.5736],[18.81645,47.83256,220.5384],[18.77801,47.85145,253.4767],[18.74876,47.87072,110.1776],[18.74225,47.88946,112.4218],[18.74473,47.91051,113.0005],[18.75475,47.9518,111.5447],[18.75144,47.96335,114.0203],[18.74452,47.96736,128.7324],[18.74318,47.97105,170.6],[18.7562,47.98183,122.8083],[18.76529,47.98539,114.3207],[18.78472,47.98761,118.1357],[18.79423,47.99314,114.9979],[18.821,48.03045,118.1387],[18.83847,48.04001,136.5748],[18.9336,48.05435,182.3224],[18.98182,48.06162,128.9404],[18.99649,48.06621,126.3676],[19.01902,48.0655,140.5471],[19.01897,48.06588,140.5471],[19.01794,48.0751,128.2119],[19.01763,48.08745,305.0826],[19.01949,48.09081,244.4974],[19.03081,48.102,231.6081],[19.0338,48.10693,256.0154],[19.0366,48.10967,326.8778],[19.04032,48.11213,297.4056],[19.04528,48.11422,364.075],[19.04977,48.11675,337.9757],[19.05566,48.12115,347.2085],[19.06295,48.12766,406.4802],[19.06652,48.1345,387.9995],[19.06698,48.1414,445.8759],[19.06094,48.15972,471.4724],[19.06063,48.16512,367.8192],[19.06342,48.17246,475.9573],[19.06543,48.17652,441.062],[19.06745,48.17944,469.2413],[19.07194,48.18373,448.4262],[19.07303,48.18579,459.3037],[19.07334,48.1877,459.7055],[19.07334,48.1907,479.9399],[19.07365,48.19241,482.1835],[19.07241,48.19499,490.6248],[19.07117,48.19665,495.7672],[19.05768,48.20677,319.828],[19.04156,48.19685,189.7495],[19.03629,48.19422,205.0061],[19.03132,48.19241,205.3542],[19.02631,48.19205,189.8481],[19.0229,48.1921,258.9178],[19.01701,48.19287,199.6583],[19.01422,48.19251,256.6289],[19.01065,48.19158,307.3333],[18.99391,48.18889,345.6821],[18.97996,48.18398,198.3793],[18.97469,48.18274,156.9675],[18.96797,48.18212,229.4234],[18.95991,48.18039,331.3435],[18.95619,48.17866,276.9485],[18.95247,48.17752,291.5722],[18.94502,48.17608,237.13],[18.94177,48.17453,263.5652],[18.93867,48.17184,292.1186],[18.93557,48.16771,268.1648],[18.93433,48.1645,258.4901],[18.93386,48.16254,259.4662],[18.93324,48.16143,257.1133],[18.93231,48.16083,257.1133],[18.93045,48.16068,255.1358],[18.92425,48.16119,232.1846],[18.9197,48.16099,220.1275],[18.91009,48.15897,223.2316],[18.90513,48.15866,227.1086],[18.90017,48.15913,209.5454],[18.89211,48.16068,159.5777],[18.88916,48.16078,152.3449],[18.88374,48.16019,153.1389],[18.88095,48.16026,142.8224],[18.87676,48.16099,138.5581],[18.87195,48.16282,137.2354],[18.85268,48.17308,136.7726],[18.84849,48.17463,138.3357],[18.84291,48.17551,139.4834],[18.83795,48.17582,140.8514],[18.83361,48.17566,149.426],[18.83035,48.17453,172.2457],[18.82787,48.17267,160.0164],[18.82555,48.1692,158.2019],[18.82353,48.16716,163.6677],[18.82105,48.16577,204.637],[18.81857,48.16538,202.2648],[18.81594,48.16579,238.9837],[18.81346,48.16714,246.1777],[18.81036,48.17008,255.2194],[18.8085,48.17419,240.4556],[18.80705,48.17928,227.3116],[18.80705,48.18517,198.0299],[18.8086,48.18951,198.7773],[18.81408,48.19473,162.2412],[18.82059,48.19879,183.6735],[18.82477,48.20233,209.1852],[18.82958,48.20393,176.5782],[18.83097,48.20561,171.2811],[18.83082,48.20863,181.6987],[18.82679,48.21515,212.3983],[18.81857,48.22496,296.2672],[18.81687,48.22863,317.5156],[18.81749,48.23122,296.0017],[18.82121,48.23346,239.4106],[18.8226,48.23494,256.4845],[18.8226,48.23649,280.7173],[18.81346,48.24297,352.931],[18.81408,48.24651,354.9402],[18.8178,48.25137,367.7408],[18.82911,48.26155,401.9254],[18.84136,48.26972,416.8974],[18.84446,48.27442,384.1121],[18.84648,48.27814,414.6772],[18.85485,48.30646,485.6449],[18.81563,48.36635,589.2745],[18.80943,48.37126,477.9992],[18.78348,48.38581,509.8613],[18.75475,48.41413,645.602],[18.74297,48.41622,708.0166],[18.73847,48.41503,552.6237],[18.73289,48.4126,497.6194],[18.72344,48.40508,439.6115],[18.70902,48.39555,573.9788],[18.70623,48.39299,632.384],[18.70266,48.38873,576.0422],[18.69687,48.38457,430.9987],[18.69563,48.38268,483.9166],[18.69522,48.38025,500.5911],[18.69398,48.37782,511.7301],[18.69191,48.37565,582.717],[18.68757,48.37242,602.1705],[18.6868,48.36935,515.2043],[18.68649,48.36609,586.4268],[18.68556,48.36382,625.5548],[18.68308,48.36108,689.7082],[18.65099,48.35415,626.8619],[18.5883,48.34767,416.641],[18.57569,48.3448,327.0206],[18.56732,48.33868,268.275],[18.56081,48.33178,181.0834],[18.5588,48.32997,181.0835],[18.55182,48.32604,180.6261],[18.54903,48.32398,182.6326],[18.54577,48.31958,247.8387],[18.54128,48.31989,179.36],[18.5312,48.33111,201.8087],[18.53616,48.33568,233.7757],[18.54453,48.34139,232.205],[18.54701,48.34366,223.8147],[18.54903,48.34604,211.0696],[18.5498,48.34868,223.3872],[18.55073,48.35113,247.4319],[18.55244,48.35302,272.5878],[18.55911,48.35664,380.0628],[18.56252,48.35922,351.8717],[18.56655,48.3634,257.7431],[18.56918,48.36826,297.1559],[18.57151,48.37436,300.5009],[18.57244,48.38097,411.6366],[18.5712,48.38891,369.1023],[18.56717,48.40196,541.6293],[18.55957,48.41162,681.5355],[18.55414,48.41583,745.9542],[18.54965,48.41689,825.9947],[18.5467,48.4171,848.446],[18.54453,48.41849,836.3484],[18.5436,48.42175,773.7722],[18.54469,48.42735,693.1445],[18.54469,48.43332,679.9928],[18.54236,48.43896,601.5291],[18.53399,48.44908,472.3247],[18.53089,48.45451,497.1923],[18.53161,48.46107,513.806],[18.5343,48.46407,526.6395],[18.54267,48.47141,544.6124],[18.54391,48.47322,519.9851],[18.54329,48.47435,444.5548],[18.53756,48.47513,416.6474],[18.53585,48.47663,473.3363],[18.53539,48.47937,473.7325],[18.53709,48.48585,440.2457],[18.53787,48.49037,509.4013],[18.53818,48.49513,508.5455],[18.53616,48.49968,551.3163],[18.53275,48.50249,507.5028],[18.52433,48.50448,611.8853],[18.51549,48.50448,600.2606],[18.49115,48.50092,499.3126],[18.48867,48.50226,496.0744],[18.48991,48.50588,472.9948],[18.49627,48.51371,494.3782],[18.51099,48.52567,435.321],[18.51316,48.52805,431.2826],[18.5113,48.53125,543.4621],[18.50448,48.53443,471.4403],[18.48991,48.54923,676.3408],[18.41948,48.52089,472.7656],[18.38749,48.50226,494.3434],[18.37276,48.49642,563.5981],[18.3709,48.49523,553.7845],[18.37028,48.49428,540.4161],[18.36997,48.49296,501.869],[18.36873,48.49229,501.869],[18.36656,48.49177,528.3795],[18.35984,48.49564,487.6046],[18.35333,48.502,529.3116],[18.35147,48.50272,513.3719],[18.3493,48.502,517.7813],[18.34666,48.49846,548.5908],[18.34449,48.49482,565.2243],[18.34387,48.49399,565.2243],[18.33705,48.4943,549.0484],[18.31256,48.50024,648.6032],[18.30124,48.52277,407.6092],[18.29173,48.53662,480.7165],[18.28724,48.53985,488.9827],[18.2677,48.54861,295.7025],[18.26243,48.55249,244.6223],[18.25887,48.55461,229.5504],[18.25499,48.55572,179.5441],[18.243,48.55554,176.9903]]]}}