{"type":"Feature","properties":{"GID_2":"SVK.5.10_1","GID_0":"SVK","country":"Slovakia","GID_1":"SVK.5_1","province":"Prešovský","NL_NAME_1":"NA","county":"StaráLubovna","VARNAME_2":"NA","NL_NAME_2":"NA","TYPE_2":"Okres","ENGTYPE_2":"District","CC_2":"710","HASC_2":"SK.PV.SL","name":"Stará_Lubovna.county"},
"geometry":{"type": "MultiPolygon","coordinates": [[[[20.7787,49.3771,490.3488],[20.758,49.3747,406.02],[20.7616,49.3838,401.6256],[20.7501,49.3904,405.3928],[20.748,49.3934,398.7026],[20.7577,49.3982,425.0998],[20.758,49.4004,405.0954],[20.755,49.4022,396.0916],[20.7423,49.4038,400.6248],[20.7431,49.4079,389.6402],[20.7461,49.4116,386.4926],[20.7444,49.4145,385.0132],[20.7399,49.4171,485.6552],[20.7264,49.416,381.3867],[20.7237,49.4201,382.4799],[20.6882,49.4207,626.2817],[20.6824,49.4165,659.7471],[20.6658,49.4094,845.767],[20.662,49.4042,886.7754],[20.6531,49.4033,933.5322],[20.6428,49.4051,968.6249],[20.636,49.4104,915.0643],[20.6239,49.4132,903.6645],[20.6164,49.4219,928.5959],[20.6119,49.4171,916.9854],[20.6124,49.4053,915.4951],[20.6059,49.4037,875.6233],[20.5986,49.3923,805.1838],[20.5932,49.3868,905.1475],[20.5826,49.3888,889.66],[20.577,49.3847,913.4608],[20.5751,49.3797,895.4908],[20.5642,49.3819,878.9415],[20.5582,49.3804,922.214],[20.5429,49.3871,885.7485],[20.5088,49.3953,812.7503],[20.5066,49.4049,721.1936],[20.481,49.4109,703.9628],[20.4723,49.4166,648.0323],[20.4547,49.418,438.172],[20.4491,49.4157,482.0482],[20.446,49.4163,459.7215],[20.4509,49.4128,488.2575],[20.4464,49.4119,516.5019],[20.4336,49.4179,467.1393],[20.4296,49.4157,526.423],[20.4287,49.4083,473.7787],[20.4369,49.4069,450.3123],[20.4341,49.4017,465.2043],[20.4346,49.3997,454.7583],[20.4477,49.3992,565.9276],[20.4501,49.3979,585.6714],[20.4505,49.3957,651.3678],[20.4396,49.3901,732.1125],[20.4253,49.3774,590.0532],[20.417,49.3616,720.6655],[20.4081,49.3533,741.5334],[20.4058,49.3472,661.4104],[20.406,49.3361,661.1106],[20.3976,49.3189,866.3693],[20.3993,49.3154,836.091],[20.4152,49.3033,795.6228],[20.4277,49.2996,851.1552],[20.4345,49.3015,818.014],[20.4551,49.3132,800.9355],[20.4646,49.3162,814.1627],[20.4773,49.3178,990.8649],[20.4864,49.3223,983.8881],[20.4909,49.322,1008.8206],[20.4926,49.3185,935.5853],[20.4929,49.2993,807.9865],[20.4954,49.2967,838.0385],[20.503,49.2945,840.3266],[20.5051,49.2922,836.019],[20.5032,49.2882,790.572],[20.4925,49.2794,708.1821],[20.4909,49.2733,647.9841],[20.4912,49.2672,611.41],[20.4936,49.264,609.0522],[20.5114,49.2539,665.8904],[20.5137,49.2463,574.6146],[20.526,49.2415,614.2789],[20.5309,49.2417,653.9761],[20.5482,49.2501,690.2003],[20.5607,49.2462,729.8935],[20.5754,49.2487,670.9913],[20.5896,49.2474,801.6852],[20.5978,49.2519,727.0545],[20.6133,49.2517,870.0165],[20.6245,49.2569,707.7338],[20.6293,49.2571,666.1948],[20.6435,49.2485,977.7534],[20.6629,49.2501,788.8286],[20.6696,49.2491,720.6144],[20.6755,49.2438,774.3937],[20.6783,49.2324,764.3769],[20.6911,49.2314,652.6995],[20.6956,49.2244,890.6514],[20.7011,49.2206,895.3982],[20.7202,49.2146,881.548],[20.7514,49.2077,978.4097],[20.7574,49.2146,787.4729],[20.7615,49.2273,707.4338],[20.766,49.2321,794.9592],[20.77,49.2332,762.3499],[20.8157,49.2322,646.1288],[20.822,49.2307,710.7636],[20.8291,49.2256,631.0846],[20.842,49.2278,564.4556],[20.8449,49.2252,681.8212],[20.8401,49.2207,728.1105],[20.8409,49.2186,694.7953],[20.8447,49.2181,751.7897],[20.8545,49.2211,705.1241],[20.866,49.2138,714.0522],[20.8687,49.2148,693.5317],[20.8695,49.2178,688.1199],[20.8683,49.2275,620.5453],[20.8714,49.2296,563.8386],[20.8755,49.2296,564.6735],[20.88,49.2269,604.2583],[20.8852,49.2096,640.4963],[20.8899,49.2095,622.3278],[20.901,49.2132,597.0472],[20.912,49.2082,608.0593],[20.9181,49.2073,619.4069],[20.9432,49.2118,673.9233],[20.9726,49.2222,853.6932],[20.979,49.2296,991.731],[20.9877,49.2321,1073.4152],[20.9924,49.2377,1034.0771],[20.9951,49.2461,834.0137],[20.9946,49.2583,962.4089],[20.9861,49.2715,927.9445],[20.9849,49.2769,971.2645],[20.9878,49.2794,923.9573],[20.998,49.281,912.6964],[21.0009,49.285,798.0359],[20.998,49.2904,799.1432],[20.9869,49.2991,654.4229],[20.9824,49.3076,634.7557],[20.9699,49.3099,602.5945],[20.9633,49.3087,596.4819],[20.9619,49.3062,590.3124],[20.9527,49.3029,551.325],[20.9241,49.296,469.3159],[20.9239,49.2995,466.5249],[20.9107,49.3069,497.241],[20.9102,49.3115,465.1856],[20.9033,49.3159,515.96],[20.9041,49.3188,462.238],[20.9076,49.3195,464.0855],[20.9051,49.3228,464.7975],[20.8928,49.3259,653.4319],[20.8855,49.3242,641.2544],[20.8827,49.3208,717.5291],[20.8732,49.3206,842.1681],[20.8796,49.3226,776.9516],[20.8824,49.3331,701.7234],[20.8705,49.3418,462.712],[20.866,49.3473,447.3856],[20.8572,49.3498,504.6642],[20.8507,49.3485,446.92],[20.8398,49.3392,481.3737],[20.8273,49.3361,432.0516],[20.8202,49.3393,430.7482],[20.8129,49.3483,435.5919],[20.8079,49.3498,521.7916],[20.7997,49.3481,447.2718],[20.8022,49.3554,422.8166],[20.7979,49.3587,447.101],[20.8007,49.3602,432.7468],[20.8047,49.3595,433.0082],[20.8057,49.3538,418.8126],[20.8071,49.3532,440.3814],[20.8106,49.3554,430.561],[20.8096,49.359,458.1751],[20.8074,49.3606,435.1476],[20.7972,49.3633,416.3022],[20.7887,49.3608,414.8564],[20.7818,49.3615,464.9233],[20.7817,49.3663,458.3214],[20.7884,49.372,411.4533],[20.786,49.3745,410.3566],[20.7787,49.3771,490.3488]]]]}}