{"type": "Feature","bbox": [18.1803,48.2627,18.558,48.5434],"geometry": {"type": "MultiPolygon","coordinates": [[[[18.4627,48.5434,436.6763],[18.4528,48.5383,571.944],[18.426,48.5315,402.7188],[18.4098,48.5197,502.9642],[18.3829,48.5126,374.8573],[18.378,48.5034,441.0771],[18.3722,48.4986,519.7383],[18.3658,48.4985,512.2865],[18.354,48.5042,503.6237],[18.3482,48.5046,494.2268],[18.3457,48.5018,473.1359],[18.3432,48.4922,568.8787],[18.3353,48.4864,589.3667],[18.3186,48.4876,535.8454],[18.3072,48.4902,562.9407],[18.2991,48.4963,679.3562],[18.2926,48.4932,693.5844],[18.2781,48.4904,681.9351],[18.2659,48.4847,683.6023],[18.2516,48.4829,668.7921],[18.2276,48.4653,547.1055],[18.2166,48.4591,412.8516],[18.2079,48.4494,396.3511],[18.1916,48.4397,441.1447],[18.1803,48.4366,352.4652],[18.1864,48.4262,414.5719],[18.2009,48.4185,316.9221],[18.2168,48.4057,375.9203],[18.2192,48.4013,318.9912],[18.2298,48.3964,343.8957],[18.2346,48.3863,235.8931],[18.2547,48.3683,180.4783],[18.2538,48.3584,230.3492],[18.2586,48.3501,204.6055],[18.251,48.3464,175.3112],[18.2397,48.3367,206.2504],[18.2427,48.3332,196.9252],[18.2529,48.3277,222.7482],[18.2549,48.3201,208.6743],[18.2582,48.3149,204.9095],[18.2614,48.3145,200.4037],[18.2715,48.3196,220.0339],[18.2809,48.3199,215.7952],[18.288,48.311,191.4667],[18.3012,48.31,176.4511],[18.3023,48.3071,179.4482],[18.3011,48.2993,171.7567],[18.3032,48.2969,168.476],[18.3495,48.2915,201.9873],[18.3504,48.2892,212.9234],[18.3459,48.2831,202.5079],[18.3455,48.2797,189.8773],[18.3467,48.2771,183.6543],[18.3517,48.2739,172.102],[18.3869,48.2647,207.6014],[18.4016,48.2627,257.3553],[18.3978,48.269,254.0724],[18.3922,48.2735,225.8267],[18.3916,48.2779,202.7432],[18.4117,48.288,186.5789],[18.4288,48.2874,227.7479],[18.4441,48.2792,288.2614],[18.4589,48.2738,253.644],[18.4655,48.2744,248.624],[18.4653,48.2779,222.7029],[18.4575,48.2832,224.1294],[18.4539,48.289,263.5561],[18.4554,48.2912,263.4097],[18.4651,48.2957,258.133],[18.4674,48.2987,281.1397],[18.4678,48.3035,251.3682],[18.4625,48.3108,233.8508],[18.4648,48.3181,215.4839],[18.4625,48.3253,228.5989],[18.4662,48.3291,241.996],[18.4787,48.3309,246.3103],[18.4949,48.3284,227.2708],[18.5093,48.3319,214.0031],[18.5211,48.3253,200.7558],[18.5266,48.3285,207.0499],[18.5265,48.3307,200.4759],[18.5186,48.3333,212.0789],[18.5175,48.3356,226.0119],[18.5432,48.3531,234.4863],[18.5568,48.3675,270.8891],[18.5568,48.3727,320.1746],[18.5513,48.3896,630.6126],[18.557,48.3966,525.5089],[18.558,48.4015,618.7662],[18.556,48.4041,714.1887],[18.5496,48.407,760.1448],[18.544,48.4197,808.0921],[18.5329,48.4213,793.5999],[18.5077,48.4303,542.1249],[18.4981,48.4312,592.0584],[18.493,48.4337,618.3204],[18.492,48.4359,531.4811],[18.4933,48.4378,467.1339],[18.5124,48.4489,445.243],[18.5255,48.4597,506.138],[18.53,48.4644,525.181],[18.5315,48.4696,481.129],[18.5298,48.4712,427.7065],[18.521,48.4713,381.8883],[18.5159,48.4734,471.0122],[18.5186,48.4825,581.3661],[18.5233,48.4907,557.4836],[18.5221,48.4992,654.9636],[18.5172,48.5051,638.8602],[18.5052,48.5083,521.6818],[18.4945,48.5084,414.0452],[18.4796,48.5033,358.0593],[18.4702,48.5032,445.4874],[18.4703,48.5054,442.3713],[18.4867,48.5181,457.5686],[18.4896,48.5225,531.8054],[18.4867,48.5247,545.9205],[18.4706,48.5249,504.7783],[18.4624,48.5285,612.2654],[18.4601,48.5308,617.0707],[18.4627,48.5434,436.6763]]]]}
,"properties": {"GID_2": "SVK.4.7_1","GID_0": "SVK","country": "Slovakia","GID_1": "SVK.4_1","province": "Nitriansky","NL_NAME_1": "NA","county": "ZlatéMoravce","VARNAME_2": "NA","NL_NAME_2": "NA","TYPE_2": "Okres","ENGTYPE_2": "District","CC_2": "407","HASC_2": "SK.NI.ZM","name": "Zlaté_Moravce.county","area_km2": 509.01,"hist_schema_id": "Elevation0-9000","hist_area_km2": {"150": 9.6032,"175": 51.8569,"200": 75.1391,"225": 67.2739,"250": 39.0035,"275": 27.6553,"300": 24.7488,"325": 20.5947,"350": 22.2084,"375": 22.9509,"400": 24.8331,"425": 20.2464,"450": 17.475,"475": 14.2829,"500": 13.0869,"525": 10.7397,"550": 8.8847,"575": 6.9455,"600": 6.3282,"625": 5.2886,"650": 4.9653,"675": 4.3891,"700": 2.9543,"725": 1.7307,"750": 1.3365,"775": 1.2522,"800": 1.0412,"825": 0.8583,"850": 0.7177,"875": 0.4363,"900": 0.183}}}