{"type": "Feature","bbox": [19.7313,48.1273,20.468,48.786],"geometry": {"type": "MultiPolygon","coordinates": [[[[20.4676,48.4557,384.0547],[20.4638,48.4572,354.3189],[20.4422,48.4569,320.9334],[20.4303,48.455,330.583],[20.4085,48.4444,312.2578],[20.3994,48.4294,314.7488],[20.3783,48.422,342.6927],[20.3487,48.4184,233.4906],[20.3112,48.4173,174.3215],[20.3083,48.4189,174.6791],[20.3008,48.4366,272.469],[20.2886,48.4353,182.671],[20.2704,48.439,188.2932],[20.262,48.4438,223.4709],[20.2556,48.4564,206.3041],[20.238,48.4588,246.8598],[20.2334,48.4677,244.5367],[20.2223,48.4711,244.9602],[20.2199,48.4857,254.6287],[20.2176,48.4887,246.6923],[20.1746,48.504,275.9195],[20.1552,48.5074,439.3426],[20.151,48.5095,432.7762],[20.1481,48.5158,318.8069],[20.1477,48.523,327.5879],[20.1495,48.5329,314.9777],[20.1556,48.5423,394.1979],[20.1534,48.5461,402.1205],[20.1378,48.5526,384.6084],[20.1258,48.5538,327.1385],[20.1139,48.5476,338.9379],[20.11,48.5404,382.508],[20.1094,48.5358,312.3716],[20.1056,48.5307,316.1203],[20.1005,48.5309,381.5082],[20.0853,48.5361,429.9493],[20.0781,48.5444,488.7913],[20.0817,48.5593,498.5357],[20.1061,48.564,267.3215],[20.1074,48.5668,308.9041],[20.1047,48.5772,355.9654],[20.0963,48.5844,308.3947],[20.0832,48.5881,390.0956],[20.0781,48.5956,543.8289],[20.0654,48.5971,556.745],[20.061,48.599,595.9794],[20.058,48.6022,542.5948],[20.0547,48.6118,444.5927],[20.0512,48.6151,459.9963],[20.0177,48.6276,871.6135],[20.0182,48.6301,903.3806],[20.0272,48.634,895.7758],[20.029,48.6372,761.4936],[20.0192,48.6462,750.3714],[20.0004,48.6564,1099.6908],[19.9993,48.668,1025.9708],[19.9966,48.675,891.8485],[19.986,48.6832,854.9886],[19.9856,48.6926,626.9609],[19.9904,48.7007,665.7083],[19.9907,48.7038,594.3269],[19.9633,48.715,1112.7141],[19.9498,48.7153,638.5244],[19.947,48.7169,647.5109],[19.9478,48.7191,775.7677],[19.9573,48.7257,924.1703],[19.9561,48.7479,1073.8547],[19.9537,48.7534,1111.7029],[19.9419,48.763,915.2264],[19.9356,48.7651,926.0823],[19.9128,48.7674,981.8679],[19.8757,48.786,1387.9891],[19.8651,48.7625,990.904],[19.8614,48.7605,928.4346],[19.8524,48.7612,989.2699],[19.8457,48.7597,855.9252],[19.8256,48.7428,779.5427],[19.8228,48.7329,760.7831],[19.8172,48.7251,831.6853],[19.8028,48.7197,879.3702],[19.8009,48.7112,986.1685],[19.7981,48.7085,886.9239],[19.7855,48.7011,1065.3005],[19.7656,48.6992,949.8905],[19.7625,48.6957,937.9097],[19.7617,48.6884,1259.7109],[19.76,48.6866,1270.1072],[19.735,48.6797,838.6288],[19.7313,48.6761,946.172],[19.7329,48.6637,1047.59],[19.7395,48.6553,1167.8704],[19.747,48.6516,1064.917],[19.78,48.6442,641.2132],[19.7867,48.6347,758.4425],[19.801,48.6328,557.251],[19.8198,48.6212,595.2759],[19.8248,48.6111,749.7059],[19.8306,48.6053,881.3838],[19.8545,48.5975,639.6548],[19.8699,48.5826,588.2074],[19.8716,48.5773,552.7173],[19.8701,48.5644,530.9465],[19.8563,48.5603,441.1309],[19.8494,48.5507,314.4598],[19.8466,48.5514,319.2645],[19.8383,48.5582,370.2957],[19.8337,48.5588,368.4462],[19.8297,48.5574,370.0413],[19.821,48.5475,385.0625],[19.8179,48.5302,500.6046],[19.822,48.5275,462.0389],[19.8292,48.5273,453.5214],[19.8416,48.5306,611.0886],[19.8647,48.5098,481.598],[19.878,48.5026,470.1621],[19.8809,48.4995,429.5096],[19.8822,48.4937,459.8057],[19.8949,48.4869,424.7433],[19.8969,48.4844,454.3307],[19.8965,48.4789,439.3041],[19.8992,48.4744,376.3779],[19.8934,48.465,365.9269],[19.8949,48.4562,317.4648],[19.9025,48.4485,320.9417],[19.9144,48.4454,303.0633],[19.922,48.4451,303.0983],[19.9272,48.4412,306.0143],[19.9265,48.4386,298.2287],[19.9185,48.436,325.7764],[19.9149,48.4322,298.653],[19.9151,48.4216,302.4156],[19.9185,48.4076,301.1091],[19.9161,48.4045,307.1765],[19.9057,48.403,271.3859],[19.8973,48.398,207.0889],[19.89,48.3964,210.0058],[19.8691,48.3996,235.1614],[19.8518,48.4052,251.2682],[19.8395,48.4049,274.6466],[19.8356,48.4022,267.7798],[19.8314,48.3955,253.1857],[19.8353,48.3863,268.0229],[19.8414,48.3798,228.8871],[19.8576,48.3721,201.2322],[19.8612,48.3687,200.4661],[19.8611,48.3651,195.8239],[19.858,48.3619,198.8824],[19.8581,48.3556,192.6146],[19.8476,48.3516,192.5352],[19.8535,48.3442,239.3112],[19.8578,48.3338,277.3788],[19.8716,48.319,367.6162],[19.8781,48.3026,446.3095],[19.8872,48.2971,403.0818],[19.8923,48.2907,397.5383],[19.9011,48.2879,310.1395],[19.9031,48.2808,308.435],[19.9092,48.2719,301.5818],[19.9095,48.2588,304.4567],[19.9137,48.2531,263.1178],[19.9335,48.2479,280.0325],[19.9379,48.243,257.611],[19.9378,48.2385,248.8258],[19.9327,48.2351,231.3486],[19.9307,48.2318,242.2494],[19.9277,48.2203,355.2637],[19.9255,48.201,577.5325],[19.9176,48.2001,534.8956],[19.9117,48.1968,556.807],[19.8953,48.1986,427.1733],[19.8914,48.1969,489.4793],[19.8962,48.1888,543.2728],[19.8968,48.1832,550.8136],[19.8945,48.177,582.5101],[19.8879,48.1697,575.5627],[19.8865,48.1658,657.978],[19.8948,48.1654,516.807],[19.9027,48.1529,509.7494],[19.9106,48.1488,378.2708],[19.9091,48.1429,341.8249],[19.8977,48.1336,440.3384],[19.8984,48.1293,436.8959],[19.9054,48.1273,461.3495],[19.9108,48.1307,477.7352],[19.9269,48.1296,468.3339],[19.934,48.1339,413.3967],[19.9517,48.1522,285.4647],[19.9609,48.1539,274.4399],[19.9676,48.1648,276.4631],[19.9735,48.1665,294.2081],[19.9826,48.1643,282.5919],[19.9871,48.1681,285.5776],[19.9979,48.1724,270.1545],[20.0107,48.1712,264.3708],[20.021,48.176,279.2964],[20.0324,48.1764,328.4508],[20.0406,48.1748,327.3569],[20.0425,48.1691,341.9594],[20.0487,48.1679,348.7362],[20.0585,48.1759,322.7059],[20.0782,48.1818,299.5831],[20.0771,48.1843,337.3695],[20.0678,48.1858,264.2874],[20.0699,48.1942,287.4102],[20.0869,48.1958,317.8643],[20.0991,48.2063,317.7401],[20.1307,48.2232,338.2478],[20.1353,48.2428,301.1044],[20.1346,48.2505,323.363],[20.1366,48.2572,339.1999],[20.1393,48.2596,267.3994],[20.16,48.2553,252.1487],[20.1991,48.2535,239.4724],[20.2082,48.2571,252.3527],[20.2084,48.2659,200.1951],[20.217,48.2636,225.4384],[20.2245,48.2645,229.3252],[20.2321,48.2681,245.4075],[20.2359,48.2731,281.6536],[20.2332,48.2807,224.3171],[20.24,48.2836,196.0231],[20.2507,48.2809,243.6432],[20.2594,48.2754,252.7454],[20.2871,48.2637,266.2753],[20.3095,48.267,294.7898],[20.3086,48.2726,258.5361],[20.3203,48.2743,231.7481],[20.3265,48.2783,193.8103],[20.3284,48.2906,152.3362],[20.3346,48.2942,152.4827],[20.3418,48.3077,154.8232],[20.3488,48.3066,163.5399],[20.3589,48.3114,178.6486],[20.3754,48.3265,202.4995],[20.3715,48.3313,210.3665],[20.3728,48.3374,236.8654],[20.3856,48.3461,285.8483],[20.3873,48.3532,279.4109],[20.3991,48.3568,296.5981],[20.4073,48.3638,272.5023],[20.4108,48.3712,292.0115],[20.4028,48.3827,387.3879],[20.4148,48.3913,346.5107],[20.4205,48.4066,329.1146],[20.4133,48.4113,342.8595],[20.4162,48.4187,327.3038],[20.4415,48.4366,358.254],[20.445,48.4448,372.8622],[20.4534,48.4503,375.676],[20.468,48.4542,385.4828],[20.4676,48.4557,384.0547]]]]}
,"properties": {"GID_2": "SVK.1.9_1","GID_0": "SVK","country": "Slovakia","GID_1": "SVK.1_1","province": "Banskobystrický","NL_NAME_1": "NA","county": "RimavskáSobota","VARNAME_2": "NA","NL_NAME_2": "NA","TYPE_2": "Okres","ENGTYPE_2": "District","CC_2": "609","HASC_2": "SK.BC.RS","name": "Rimavská_Sobota.county","area_km2": 1536.808,"hist_schema_id": "Elevation0-9000","hist_area_km2": {"150": 33.929,"175": 127.114,"200": 152.297,"225": 162.443,"250": 158.54,"275": 138.999,"300": 109.346,"325": 72.18,"350": 58.393,"375": 46.478,"400": 43.81,"425": 42.209,"450": 41.416,"475": 36.899,"500": 30.052,"525": 20.973,"550": 17.935,"575": 17.285,"600": 16.032,"625": 14.836,"650": 15.115,"675": 13.573,"700": 14.047,"725": 14.017,"750": 14.198,"775": 12.811,"800": 12.853,"825": 12.447,"850": 11.761,"875": 9.366,"900": 7.951,"925": 7.949,"950": 7.333,"975": 7.067,"1000": 6.059,"1025": 5.512,"1050": 4.953,"1075": 4.267,"1100": 3.945,"1125": 2.826,"1150": 1.608,"1175": 1.175,"1200": 1.077,"1225": 0.727,"1250": 0.601,"1275": 0.363,"1300": 0.475,"1325": 0.293,"1350": 0.321,"1375": 0.377,"1400": 0.349,"1425": 0.196,"1450": 0.028}}}