{"type":"Feature","properties":{"GID_2":"SVK.7.5_1","GID_0":"SVK","country":"Slovakia","GID_1":"SVK.7_1","province":"Trnavský","NL_NAME_1":"NA","county":"Senica","VARNAME_2":"NA","NL_NAME_2":"NA","TYPE_2":"Okres","ENGTYPE_2":"District","CC_2":"205","HASC_2":"SK.TA.SE","name":"Senica.county"},
"geometry":{"type": "MultiPolygon","coordinates": [[[[17.3533,48.7834,354.1266],[17.3525,48.786,349.2227],[17.3519,48.7834,350.6831],[17.3443,48.7835,398.1929],[17.3403,48.7819,382.9943],[17.3396,48.7796,373.4208],[17.3424,48.7719,343.1057],[17.3373,48.7589,343.606],[17.3207,48.7473,262.8931],[17.3055,48.7416,265.1007],[17.271,48.7385,297.9194],[17.2491,48.7347,437.3657],[17.2483,48.7318,448.4343],[17.2526,48.7233,353.7284],[17.2529,48.7186,310.9997],[17.2495,48.7145,289.7917],[17.2423,48.7115,280.3361],[17.2327,48.7108,260.4229],[17.2121,48.7145,287.741],[17.1987,48.7149,276.9655],[17.1934,48.7102,253.5273],[17.1801,48.7066,236.5958],[17.1757,48.6978,251.1068],[17.1722,48.6948,243.2149],[17.1526,48.6901,220.7852],[17.1479,48.6915,211.5097],[17.1471,48.6994,209.1632],[17.1376,48.7066,242.7101],[17.1139,48.6986,223.5156],[17.106,48.6984,209.3494],[17.0912,48.7014,192.3659],[17.0773,48.6992,181.5315],[17.0583,48.6916,171.9798],[17.0419,48.6933,170.3062],[17.0361,48.691,163.4487],[17.0266,48.6833,157.6441],[17.0172,48.6807,157.109],[17.0076,48.6811,154.4721],[16.9942,48.6843,154.6903],[16.9853,48.6841,153.7002],[16.976,48.6894,177.6092],[16.9722,48.687,152.7961],[16.9603,48.6446,161.9068],[16.9551,48.635,178.3951],[16.9458,48.6277,151.2552],[16.9243,48.6214,179.8042],[16.9414,48.6177,159.1642],[16.9407,48.615,177.5591],[16.9434,48.6107,153.212],[16.9432,48.6066,174.9883],[16.9406,48.604,170.0021],[16.9356,48.6025,156.6123],[16.9349,48.6007,175.6759],[16.9404,48.5841,169.9883],[16.9369,48.575,164.2353],[16.9371,48.5714,158.4217],[16.9399,48.5658,151.5567],[16.9461,48.5602,148.4474],[16.944,48.5529,149.6923],[16.9518,48.5473,149.3515],[16.9716,48.5505,149.1643],[16.9796,48.5567,149.9137],[16.9895,48.5591,168.0117],[17.0178,48.5603,177.3096],[17.0234,48.5593,178.0011],[17.0288,48.5563,169.4259],[17.0333,48.5565,160.3001],[17.0349,48.5579,157.6358],[17.0346,48.5599,156.9006],[17.0236,48.5707,152.8127],[17.0237,48.573,160.7663],[17.0262,48.5742,168.3234],[17.031,48.5734,158.4381],[17.0525,48.5628,160.0332],[17.0688,48.5579,184.7559],[17.0768,48.5574,193.8498],[17.0845,48.5612,196.0641],[17.0923,48.5568,200.8745],[17.1045,48.5561,196.6952],[17.1461,48.5567,225.587],[17.1721,48.564,232.1857],[17.2077,48.5681,239.0454],[17.2239,48.5715,235.3329],[17.2339,48.5753,248.5877],[17.2346,48.5838,245.0492],[17.2363,48.586,245.7094],[17.2579,48.592,231.4991],[17.2634,48.5948,231.7957],[17.2657,48.6066,254.3729],[17.2864,48.6223,237.6305],[17.3177,48.6543,189.9939],[17.3219,48.6559,188.1615],[17.3309,48.6517,206.9636],[17.3496,48.648,192.2478],[17.3645,48.6324,200.5466],[17.3678,48.6237,219.2862],[17.3627,48.6161,212.3966],[17.3437,48.6008,226.6445],[17.3248,48.5992,234.9214],[17.3159,48.5963,236.2717],[17.313,48.5938,240.7765],[17.3087,48.5852,230.8364],[17.2942,48.5734,247.5392],[17.2864,48.5678,244.8544],[17.2715,48.562,230.4225],[17.2636,48.5568,237.8241],[17.2616,48.5538,236.2798],[17.2637,48.551,237.1413],[17.2982,48.5346,202.581],[17.3045,48.5263,219.065],[17.3229,48.5237,294.889],[17.3258,48.5182,358.0399],[17.3397,48.5101,439.0938],[17.3406,48.5081,422.6846],[17.3469,48.508,460.4164],[17.3529,48.5101,557.365],[17.3544,48.5133,574.2289],[17.3411,48.5156,372.5851],[17.3389,48.518,349.657],[17.3472,48.5228,348.1183],[17.3532,48.5391,286.5439],[17.3578,48.5451,286.4141],[17.3824,48.5622,428.4561],[17.3898,48.5632,437.457],[17.4221,48.5595,347.9611],[17.4388,48.5666,326.7637],[17.445,48.5663,331.9675],[17.4547,48.5631,312.4277],[17.4605,48.5649,286.6338],[17.4646,48.5688,350.4445],[17.4694,48.5818,308.4387],[17.4809,48.5848,392.0476],[17.4944,48.5913,434.9544],[17.4982,48.5996,451.111],[17.5149,48.621,372.0427],[17.5194,48.6245,398.6706],[17.5298,48.6285,416.0265],[17.5074,48.6451,248.179],[17.4962,48.6488,283.2398],[17.4889,48.6538,326.6944],[17.4832,48.6597,400.4206],[17.4822,48.6657,414.1519],[17.4729,48.6774,306.252],[17.4597,48.6872,324.352],[17.456,48.6957,332.9221],[17.4483,48.7007,336.1229],[17.4418,48.7078,291.9265],[17.4412,48.7149,325.8405],[17.4436,48.7189,267.5328],[17.4639,48.7293,305.1703],[17.4708,48.7358,407.4249],[17.4722,48.7482,374.5715],[17.4705,48.7545,429.0936],[17.4646,48.7593,479.0435],[17.4315,48.7658,342.5287],[17.4054,48.767,323.6498],[17.3719,48.7815,425.3636],[17.3533,48.7834,354.1266]]]]}}