{"type":"Feature","properties":{"GID_2":"SVK.1.4_1","GID_0":"SVK","country":"Slovakia","GID_1":"SVK.1_1","province":"Banskobystrický","NL_NAME_1":"NA","county":"Detva","VARNAME_2":"NA","NL_NAME_2":"NA","TYPE_2":"Okres","ENGTYPE_2":"District","CC_2":"604","HASC_2":"SK.BC.DT","name":"Detva.county"},
"geometry":{"type": "MultiPolygon","coordinates": [[[[19.49,48.6575,1265.4453],[19.4727,48.655,984.0388],[19.457,48.6474,971.1708],[19.4366,48.6286,1079.5671],[19.4307,48.6167,928.6334],[19.4242,48.6107,796.8636],[19.4129,48.6099,722.7423],[19.4077,48.6177,807.5503],[19.3848,48.6217,724.9319],[19.3805,48.6201,623.2421],[19.3752,48.6125,539.4104],[19.3673,48.6092,542.6123],[19.3332,48.6072,453.9504],[19.331,48.6017,423.9976],[19.3222,48.5934,416.4415],[19.3239,48.588,406.8291],[19.3314,48.5827,398.5037],[19.3424,48.5857,392.1325],[19.3617,48.5762,399.3245],[19.3628,48.574,396.291],[19.3578,48.5697,384.0509],[19.358,48.5667,378.9885],[19.3674,48.56,387.3084],[19.3812,48.5539,444.4579],[19.382,48.5522,441.0579],[19.3712,48.5515,474.7431],[19.3503,48.5615,389.2066],[19.3411,48.5628,364.3225],[19.3279,48.5621,355.8341],[19.322,48.5664,372.3882],[19.3194,48.5734,382.3215],[19.3171,48.5751,378.7248],[19.3054,48.573,383.8794],[19.2941,48.5745,370.9484],[19.2888,48.567,357.1155],[19.2786,48.5597,350.107],[19.2758,48.5559,343.4219],[19.2763,48.5528,337.3404],[19.2861,48.5382,424.7703],[19.285,48.5356,413.7061],[19.2769,48.5341,556.177],[19.2743,48.5307,554.7952],[19.2754,48.5273,509.8878],[19.2862,48.5174,648.5378],[19.2836,48.5038,695.2831],[19.2764,48.501,645.9173],[19.2635,48.5052,567.2817],[19.2595,48.5051,557.3746],[19.2573,48.5033,579.5768],[19.2594,48.4962,574.7292],[19.2573,48.493,601.1828],[19.2548,48.4935,620.7887],[19.2511,48.4978,640.546],[19.2392,48.4959,793.9997],[19.2356,48.4914,828.9452],[19.2359,48.4871,771.4742],[19.2392,48.482,745.1527],[19.2537,48.4707,892.9719],[19.2712,48.4677,868.2678],[19.2747,48.4658,872.3954],[19.2754,48.461,851.9922],[19.2729,48.4528,861.3165],[19.2741,48.4468,926.2383],[19.3041,48.436,942.4203],[19.3197,48.4352,829.3408],[19.3281,48.4315,723.3052],[19.3453,48.4154,667.17],[19.3467,48.4021,682.3951],[19.3533,48.3886,663.3348],[19.3603,48.3861,569.7498],[19.3655,48.3862,518.316],[19.3772,48.3913,355.9689],[19.3874,48.3977,527.6991],[19.3877,48.3997,567.413],[19.3865,48.4114,655.6285],[19.3794,48.4354,777.1364],[19.3652,48.4504,692.61],[19.3646,48.4531,698.5817],[19.3671,48.4553,684.3584],[19.3852,48.4579,652.231],[19.3882,48.4598,593.8052],[19.3786,48.4683,633.4255],[19.3789,48.4706,581.4577],[19.3835,48.4762,616.4118],[19.3835,48.4792,656.4637],[19.3639,48.4863,685.43],[19.3632,48.4889,768.0294],[19.3723,48.4903,765.2158],[19.4009,48.4854,702.9921],[19.4089,48.4858,715.8065],[19.4166,48.4887,647.6174],[19.4233,48.4829,604.2021],[19.4266,48.4829,590.6006],[19.4321,48.4907,598.908],[19.4367,48.5014,567.2611],[19.4411,48.5067,513.7338],[19.4473,48.52,503.5298],[19.4506,48.5217,477.088],[19.4678,48.5237,472.5547],[19.4772,48.5341,546.0216],[19.4886,48.5364,525.4125],[19.4942,48.5415,562.8484],[19.4962,48.5507,563.0992],[19.5011,48.555,641.9009],[19.5133,48.5531,715.4699],[19.5384,48.5544,714.3529],[19.5553,48.5499,757.1663],[19.5663,48.5437,865.3473],[19.5782,48.5429,855.1951],[19.6025,48.5446,839.6613],[19.6091,48.5413,895.3912],[19.6153,48.5313,798.2841],[19.6206,48.5295,816.188],[19.6222,48.531,818.2267],[19.6237,48.5388,846.6688],[19.6301,48.5463,894.8759],[19.6318,48.5515,821.1498],[19.639,48.5546,775.8536],[19.637,48.5583,845.0124],[19.6404,48.5612,804.438],[19.6371,48.5647,786.726],[19.6379,48.5676,809.2051],[19.6464,48.5683,781.7213],[19.6725,48.5763,954.1421],[19.6943,48.5743,844.4438],[19.7133,48.5888,677.5338],[19.7129,48.5907,696.5377],[19.7063,48.5938,818.0195],[19.7056,48.5968,811.9703],[19.7147,48.5993,844.7431],[19.7172,48.6015,794.9482],[19.7003,48.614,1015.0829],[19.6705,48.6242,1032.7292],[19.6577,48.6276,1048.1609],[19.6345,48.6286,1032.4128],[19.6325,48.6346,936.4719],[19.6387,48.6417,969.1575],[19.637,48.6442,985.0975],[19.6228,48.6425,970.3274],[19.6114,48.6494,951.8771],[19.5977,48.6509,982.0128],[19.5797,48.6561,930.754],[19.5521,48.6578,946.5858],[19.5387,48.6609,921.2949],[19.5007,48.6598,1185.8983],[19.49,48.6575,1265.4453]]]]}}