{"type":"Feature","properties":{"GID_2":"SVK.5.4_1","GID_0":"SVK","country":"Slovakia","GID_1":"SVK.5_1","province":"Prešovský","NL_NAME_1":"NA","county":"Levoca","VARNAME_2":"NA","NL_NAME_2":"NA","TYPE_2":"Okres","ENGTYPE_2":"District","CC_2":"704","HASC_2":"SK.PV.LE","name":"Levoca.county"},
"geometry":{"type": "MultiPolygon","coordinates": [[[[20.8678,48.9722,976.1443],[20.8783,48.9763,986.3862],[20.8816,48.9805,1051.4825],[20.8798,48.9906,790.6588],[20.8817,48.997,705.7954],[20.872,49.0027,727.4326],[20.8705,49.0096,741.7966],[20.876,49.0264,1032.8225],[20.8772,49.0414,1030.7302],[20.8899,49.0558,917.0023],[20.8938,49.0765,874.0236],[20.8847,49.0839,840.5204],[20.8633,49.0906,770.2037],[20.8561,49.0893,608.1536],[20.8354,49.079,571.2219],[20.8227,49.0791,654.8863],[20.8188,49.0816,697.3809],[20.8142,49.0883,788.743],[20.7833,49.1126,955.4323],[20.7754,49.1139,889.6016],[20.7656,49.1113,925.0054],[20.7606,49.1118,999.1382],[20.7551,49.1155,940.3289],[20.754,49.1245,1045.8751],[20.7363,49.1269,829.7831],[20.7282,49.1264,676.8932],[20.7245,49.1245,689.5549],[20.7223,49.1164,743.5952],[20.7151,49.1067,776.3058],[20.6879,49.1124,1028.8383],[20.6759,49.1108,988.428],[20.665,49.1068,948.0403],[20.6535,49.0987,969.8157],[20.6513,49.0951,1046.855],[20.6534,49.0904,962.1443],[20.6648,49.0827,876.7317],[20.6648,49.0791,858.9746],[20.6618,49.0771,861.843],[20.6414,49.0793,806.4457],[20.6319,49.0724,759.4075],[20.6233,49.0702,678.5446],[20.6137,49.0723,660.3902],[20.6037,49.0782,692.0789],[20.5975,49.0788,773.4498],[20.5941,49.0764,748.2554],[20.5959,49.0709,680.3228],[20.5947,49.0682,629.1408],[20.5786,49.0608,652.9338],[20.556,49.0572,893.7011],[20.5345,49.0645,894.0604],[20.5316,49.0628,914.8455],[20.5329,49.0579,916.3333],[20.5285,49.0546,919.0888],[20.5003,49.0469,851.8063],[20.4917,49.0478,756.4401],[20.4789,49.0544,841.1969],[20.468,49.0547,803.3702],[20.4599,49.0497,812.7947],[20.4599,49.0414,799.2522],[20.4577,49.038,755.8849],[20.4377,49.0353,709.1291],[20.4422,49.0195,610.2212],[20.4399,49.0178,602.3359],[20.4294,49.0194,609.4697],[20.4261,49.0103,678.4176],[20.4306,49.0039,565.7167],[20.4299,48.9976,594.4814],[20.433,48.9952,563.126],[20.4448,48.9902,532.0143],[20.4608,48.989,535.7545],[20.4653,48.9864,527.4282],[20.4676,48.9819,514.2991],[20.4663,48.9741,520.8419],[20.47,48.9722,517.188],[20.4752,48.9721,501.1161],[20.4782,48.9743,499.0135],[20.4766,48.9833,512.96],[20.4787,48.9906,519.7089],[20.4732,48.9978,545.1934],[20.4737,49.0034,554.6111],[20.4898,49.0123,657.54],[20.4939,49.0173,632.6213],[20.4993,49.0181,618.2369],[20.5052,49.013,668.2184],[20.5049,49.0048,618.1489],[20.5247,48.9965,554.4573],[20.532,48.9908,533.4735],[20.542,48.9888,540.8284],[20.5551,48.9825,522.9695],[20.585,48.981,541.4585],[20.6054,48.9656,608.5404],[20.6454,48.9568,532.6055],[20.656,48.9564,545.3417],[20.6714,48.9626,491.333],[20.6902,48.9645,490.8751],[20.7134,48.9719,467.7964],[20.7214,48.9717,522.3563],[20.7357,48.9681,494.8054],[20.7401,48.9694,459.386],[20.748,48.9756,421.014],[20.7632,48.9755,461.4355],[20.7643,48.9771,422.7369],[20.7589,48.9859,434.1566],[20.7566,48.9981,437.5302],[20.7589,49.002,447.2568],[20.7635,49.0037,472.7983],[20.773,49.0025,488.4099],[20.7882,48.9933,472.9822],[20.7917,48.989,452.8403],[20.8035,48.9865,459.6124],[20.8114,48.9824,550.3127],[20.836,48.9802,571.7587],[20.8515,48.9733,602.8072],[20.8678,48.9722,976.1443]]]]}}