{"type":"Feature","properties":{"GID_2":"SVK.3.7_1","GID_0":"SVK","country":"Slovakia","GID_1":"SVK.3_1","province":"Košický","NL_NAME_1":"NA","county":"Michalovce","VARNAME_2":"NA","NL_NAME_2":"NA","TYPE_2":"Okres","ENGTYPE_2":"District","CC_2":"807","HASC_2":"SK.KI.MI","name":"Michalovce.county"},
"geometry":{"type": "MultiPolygon","coordinates": [[[[22.1646,48.8999,846.2596],[22.164,48.9011,820.9514],[22.161,48.9004,866.8896],[22.1558,48.8947,938.3666],[22.1362,48.8842,791.0256],[22.135,48.8751,672.8966],[22.1369,48.8647,574.6373],[22.1346,48.857,414.4503],[22.1311,48.8544,385.4019],[22.0938,48.8567,587.9308],[22.0795,48.8599,559.1339],[22.0678,48.8596,637.4053],[22.0538,48.8567,609.6812],[22.0239,48.859,669.4433],[21.9851,48.8505,539.3429],[21.9577,48.8561,342.8401],[21.9522,48.862,321.1763],[21.94,48.8704,435.5262],[21.9329,48.8793,290.9916],[21.9053,48.8902,328.1811],[21.8897,48.8926,376.3574],[21.8651,48.8934,512.132],[21.837,48.8992,142.6768],[21.8193,48.9066,239.9635],[21.811,48.9053,224.6365],[21.8013,48.8994,276.393],[21.8,48.8963,221.3959],[21.8009,48.8854,173.1002],[21.7913,48.8738,184.5018],[21.793,48.8639,203.9404],[21.7902,48.8465,215.6505],[21.7972,48.8329,195.0477],[21.7988,48.8219,182.3441],[21.8043,48.8104,204.338],[21.8043,48.806399999999996,195.3007],[21.7925,48.7991,177.9153],[21.7693,48.7958,113.7878],[21.7616,48.7919,112.6745],[21.7617,48.782,111.3483],[21.7664,48.7787,110.4492],[21.7657,48.7726,110.0441],[21.7759,48.7674,109.5845],[21.7775,48.7617,110.1531],[21.7685,48.7457,108.5804],[21.7615,48.7415,108.0935],[21.7535,48.7391,108.6713],[21.7303,48.7394,108.3776],[21.7266,48.7355,107.592],[21.7281,48.7324,107.7388],[21.7345,48.728,107.2444],[21.7381,48.7189,106.8992],[21.7457,48.7139,106.0648],[21.7449,48.7113,105.7697],[21.7376,48.7058,105.4372],[21.7373,48.703,105.0772],[21.7669,48.6955,104.9532],[21.7718,48.6873,104.6582],[21.7764,48.6677,103.7099],[21.7828,48.6576,103.2767],[21.7926,48.6494,102.2609],[21.8037,48.6494,101.1815],[21.8068,48.647,100.933],[21.8066,48.6184,101.1688],[21.8163,48.5978,99.3974],[21.8143,48.5948,99.4211],[21.8064,48.5919,100.016],[21.8085,48.5716,98.787],[21.8117,48.5691,98.5484],[21.8225,48.5666,98.3817],[21.8219,48.5645,98.8133],[21.8165,48.5631,99.8136],[21.8141,48.5606,99.3248],[21.8187,48.5421,98.6656],[21.8252,48.5348,98.568],[21.8379,48.5323,98.5162],[21.8387,48.5293,98.29],[21.8336,48.5239,98.1495],[21.8409,48.5235,98.2125],[21.8425,48.5221,98.1363],[21.8358,48.5184,98.0594],[21.8194,48.5167,98.1463],[21.8164,48.5149,98.1376],[21.8177,48.5079,98.2108],[21.8345,48.4928,97.5835],[21.8306,48.4871,99.5472],[21.828,48.4756,99.5473],[21.8324,48.4704,97.5398],[21.8196,48.4679,98.9155],[21.8188,48.4652,100.2783],[21.8273,48.463,99.0478],[21.8373,48.457,105.9305],[21.8397,48.457,104.0425],[21.8498,48.4664,110.4093],[21.8486,48.4729,97.9563],[21.855,48.4768,98.3882],[21.8562,48.4837,98.4606],[21.871,48.4871,98.6839],[21.8751,48.4915,98.391],[21.8882,48.4921,98.1174],[21.8884,48.4946,98.5225],[21.8836,48.498,100.437],[21.8844,48.4999,100.8034],[21.8959,48.4963,99.342],[21.9024,48.5026,101.4681],[21.9061,48.5027,102.267],[21.9104,48.5004,99.1452],[21.9145,48.5033,102.1698],[21.9181,48.4991,98.4969],[21.9244,48.4996,100.9095],[21.9292,48.4956,100.1528],[21.935,48.5012,100.3068],[21.9599,48.5008,102.256],[21.9985,48.5048,103.4142],[22.0253,48.5124,103.468],[22.0381,48.5126,101.9077],[22.0457,48.5149,105.7015],[22.0541,48.5085,103.9527],[22.0619,48.5049,106.3821],[22.0654,48.4976,102.059],[22.0784,48.4923,101.5147],[22.0903,48.4826,102.3089],[22.1043,48.4767,109.0648],[22.1238,48.4762,109.0851],[22.1337,48.4725,100.7934],[22.137,48.4685,100.9028],[22.1389,48.4568,101.4029],[22.1492,48.4505,104.5249],[22.153,48.4577,101.6989],[22.1584,48.4819,101.0559],[22.1631,48.5122,103.3869],[22.1624,48.5182,102.7374],[22.1697,48.5245,105.2293],[22.1678,48.5425,104.6937],[22.1738,48.5608,109.3176],[22.17,48.5592,108.6372],[22.1686,48.5778,105.3674],[22.1652,48.5855,105.5106],[22.1596,48.5913,105.6398],[22.1472,48.5982,105.7345],[22.1398,48.6075,107.6654],[22.1367,48.6227,104.884],[22.143,48.6328,104.4773],[22.1311,48.6353,103.9635],[22.1278,48.6434,103.3546],[22.112,48.6537,102.3025],[22.1088,48.6588,101.861],[22.1032,48.6555,102.1595],[22.0977,48.6597,102.11],[22.0843,48.6627,101.2636],[22.0841,48.6649,101.1812],[22.0895,48.6723,101.1215],[22.0926,48.6819,101.1459],[22.0973,48.687,101.3844],[22.0981,48.6929,101.6176],[22.1044,48.6962,102.4789],[22.1052,48.6996,102.7368],[22.0996,48.7041,102.3353],[22.0818,48.7051,100.8406],[22.0842,48.7134,101.3831],[22.0674,48.7325,101.5164],[22.0635,48.7409,102.1728],[22.0635,48.7466,102.3193],[22.0655,48.7503,102.8007],[22.0701,48.7536,104.1692],[22.0887,48.7591,114.3799],[22.1074,48.7599,108.851],[22.114,48.7623,112.3278],[22.114,48.764,112.2267],[22.1119,48.765,111.8402],[22.0952,48.7648,115.7671],[22.092,48.7681,117.7716],[22.09,48.7813,108.0248],[22.0999,48.7881,112.7486],[22.1005,48.7925,115.2199],[22.0983,48.7975,117.7444],[22.1036,48.8049,127.8848],[22.1138,48.81,141.1455],[22.1247,48.8108,163.2736],[22.1357,48.8144,168.3663],[22.1526,48.8149,183.2079],[22.1612,48.8217,200.5367],[22.1598,48.837,255.0366],[22.1752,48.8787,661.8647],[22.1664,48.8935,833.4984],[22.1646,48.8999,846.2596]]]]}}