{"type": "Feature","bbox": [20.2818,48.7918,20.921,49.0182],"geometry": {"type": "MultiPolygon","coordinates": [[[[20.9008,48.9631,878.6111],[20.8821,48.9701,935.8617],[20.8515,48.9733,602.8072],[20.836,48.9802,571.7587],[20.8114,48.9824,550.3127],[20.8035,48.9865,459.6124],[20.7917,48.989,452.8403],[20.7882,48.9933,472.9822],[20.773,49.0025,488.4099],[20.7635,49.0037,472.7983],[20.7589,49.002,447.2568],[20.7566,48.9981,437.5302],[20.7589,48.9859,434.1566],[20.7643,48.9771,422.7369],[20.7632,48.9755,461.4355],[20.748,48.9756,421.014],[20.7401,48.9694,459.386],[20.7357,48.9681,494.8054],[20.7214,48.9717,522.3563],[20.7134,48.9719,467.7964],[20.6902,48.9645,490.8751],[20.6714,48.9626,491.333],[20.656,48.9564,545.3417],[20.6434,48.957,540.369],[20.6054,48.9656,608.5404],[20.585,48.981,541.4585],[20.5551,48.9825,522.9695],[20.542,48.9888,540.8284],[20.532,48.9908,533.4735],[20.5247,48.9965,554.4573],[20.5049,49.0048,618.1489],[20.5052,49.013,668.2184],[20.5024,49.0167,631.0095],[20.4978,49.0182,627.2222],[20.4939,49.0173,632.6213],[20.4898,49.0123,657.54],[20.4737,49.0034,554.6111],[20.4732,48.9978,545.1934],[20.4787,48.9906,519.7089],[20.4766,48.9833,512.96],[20.4782,48.9743,499.0135],[20.4752,48.9721,501.1161],[20.47,48.9722,517.188],[20.4663,48.9741,520.8419],[20.4675,48.9829,519.9391],[20.463,48.9866,528.6018],[20.4457,48.9886,527.2705],[20.4178,49.0,586.2511],[20.4125,49.0007,605.7662],[20.4079,48.9985,591.3704],[20.4048,48.9922,565.8646],[20.4014,48.9895,569.813],[20.3866,48.9893,558.7313],[20.3682,48.9836,564.8235],[20.3525,48.9809,594.4318],[20.3331,48.973,775.5845],[20.2972,48.9619,846.3085],[20.2859,48.956,913.1664],[20.2818,48.9482,855.4083],[20.2885,48.9436,732.4096],[20.3115,48.9383,903.5866],[20.3185,48.9315,764.2397],[20.3201,48.9234,677.6465],[20.351,48.9137,891.1802],[20.3596,48.9074,995.0161],[20.3646,48.9069,954.6168],[20.3738,48.9094,951.1144],[20.3809,48.9049,894.1505],[20.3993,48.9052,793.447],[20.3995,48.9032,729.9255],[20.3954,48.9012,756.9388],[20.3855,48.9001,934.1587],[20.3726,48.9013,925.1029],[20.3665,48.8977,965.0774],[20.3671,48.8951,968.058],[20.3764,48.8857,902.5462],[20.3786,48.8736,1061.75],[20.3908,48.8706,966.2158],[20.3929,48.8685,972.1826],[20.3904,48.8657,902.7197],[20.3788,48.8648,784.5],[20.372,48.8614,841.3455],[20.3701,48.8553,874.374],[20.3725,48.8487,764.3232],[20.3811,48.8457,848.2897],[20.4056,48.8428,898.868],[20.4136,48.8359,736.1352],[20.438,48.8339,914.7906],[20.454,48.8284,1094.7847],[20.4585,48.8239,1130.3522],[20.4622,48.8142,1100.4543],[20.471,48.8077,906.5673],[20.4719,48.801,688.1635],[20.4688,48.7941,763.8926],[20.4712,48.7918,664.3276],[20.4739,48.793,695.5115],[20.4781,48.8005,739.8307],[20.489,48.8056,938.4606],[20.4947,48.8041,916.5543],[20.5076,48.7965,972.4337],[20.5188,48.7942,1107.1628],[20.5185,48.8037,893.4617],[20.5217,48.8084,692.4642],[20.5272,48.8123,604.3516],[20.538,48.8151,625.8384],[20.5423,48.8181,598.2222],[20.5432,48.8213,664.6387],[20.541,48.8273,806.2535],[20.5419,48.8296,812.4734],[20.5563,48.8371,1045.3983],[20.5628,48.8472,827.1199],[20.5759,48.8526,740.349],[20.5759,48.8547,682.6488],[20.571,48.8591,712.4629],[20.571,48.8661,703.4935],[20.5739,48.8699,686.328],[20.5932,48.8827,527.3626],[20.598,48.8875,571.2454],[20.6301,48.895,466.9495],[20.6338,48.8948,488.0015],[20.6396,48.8916,582.2508],[20.6482,48.8923,628.8429],[20.6518,48.8909,636.4777],[20.6528,48.8785,644.6985],[20.656,48.8713,650.5776],[20.6529,48.8637,820.8599],[20.6529,48.8587,818.2092],[20.6575,48.8489,868.7969],[20.6619,48.8491,902.6487],[20.6621,48.8559,896.4221],[20.6656,48.86,898.2197],[20.6717,48.8612,875.7557],[20.6808,48.8602,883.2804],[20.6948,48.854,932.2505],[20.7128,48.8511,991.4053],[20.7234,48.8429,1025.7573],[20.7369,48.8399,933.9211],[20.745,48.8324,1018.4021],[20.7517,48.829,1044.2142],[20.7929,48.8404,911.2333],[20.8442,48.848,867.9911],[20.8682,48.8545,992.6101],[20.888,48.8747,891.4203],[20.9165,48.8943,614.3919],[20.921,48.8992,593.6262],[20.9193,48.9028,554.8406],[20.911,48.9103,617.1912],[20.9078,48.9178,528.4724],[20.9048,48.9205,435.6768],[20.8963,48.9231,366.0129],[20.8827,48.9224,369.7338],[20.879,48.9242,362.6178],[20.8801,48.9259,440.2508],[20.8877,48.9282,472.8051],[20.8918,48.9325,416.0539],[20.8917,48.9359,533.8013],[20.8864,48.9467,618.7127],[20.8867,48.9536,740.9587],[20.9008,48.9631,878.6111]]]]}
,"properties": {"GID_2": "SVK.3.10_1","GID_0": "SVK","country": "Slovakia","GID_1": "SVK.3_1","province": "Košický","NL_NAME_1": "NA","county": "SpišskáNováVes","VARNAME_2": "NA","NL_NAME_2": "NA","TYPE_2": "Okres","ENGTYPE_2": "District","CC_2": "810","HASC_2": "SK.KI.SN","name": "Spišská_Nová_Ves.county","area_km2": 612.038,"hist_schema_id": "Elevation0-9000","hist_area_km2": {"350": 0.0139,"375": 6.5327,"400": 13.1889,"425": 22.1586,"450": 37.4911,"475": 46.8066,"500": 39.2305,"525": 38.8504,"550": 42.7181,"575": 29.6782,"600": 23.6131,"625": 20.261,"650": 17.965,"675": 19.0956,"700": 17.2423,"725": 18.9855,"750": 19.3077,"775": 20.8276,"800": 19.644,"825": 19.6994,"850": 18.0542,"875": 17.9994,"900": 17.7902,"925": 15.7272,"950": 13.6921,"975": 11.8801,"1000": 10.5425,"1025": 8.2561,"1050": 7.3088,"1075": 6.1785,"1100": 3.6545,"1125": 1.8274,"1150": 1.7716,"1175": 1.0602,"1200": 1.367,"1225": 1.0323,"1250": 0.4742,"1275": 0.1116}}}