{"type":"Feature","properties":{"GID_2":"SVK.3.8_1","GID_0":"SVK","country":"Slovakia","GID_1":"SVK.3_1","province":"Košický","NL_NAME_1":"NA","county":"Rožnava","VARNAME_2":"NA","NL_NAME_2":"NA","TYPE_2":"Okres","ENGTYPE_2":"District","CC_2":"808","HASC_2":"SK.KI.RV","name":"Rožnava.county"},
"geometry":{"type": "MultiPolygon","coordinates": [[[[20.8051,48.575,446.7074],[20.8064,48.5752,446.7074],[20.8028,48.5815,218.7079],[20.8033,48.6003,207.3089],[20.8083,48.6013,226.3589],[20.8179,48.5972,201.9945],[20.8205,48.5989,205.03],[20.8179,48.6062,225.0981],[20.8082,48.6166,376.0102],[20.8078,48.618899999999996,473.2513],[20.8169,48.6216,521.5797],[20.8271,48.6212,500.5068],[20.8344,48.6187,356.1091],[20.8378,48.6208,592.4312],[20.8299,48.6318,469.3593],[20.8194,48.6374,541.8707],[20.8038,48.6574,701.1896],[20.7938,48.6612,716.7059],[20.7629,48.6642,951.9693],[20.7504,48.6681,1025.1195],[20.7359,48.6688,1173.6887],[20.698,48.6795,1022.0087],[20.6877,48.6848,1031.2366],[20.672,48.684,1129.6567],[20.6598,48.6858,1106.1224],[20.6558,48.6883,1069.8188],[20.6483,48.6994,985.7093],[20.6472,48.7097,1025.2329],[20.6521,48.7201,1159.3506],[20.6487,48.736,1154.9851],[20.645,48.7398,1114.6941],[20.6349,48.7434,990.7327],[20.6312,48.7486,994.0794],[20.623,48.7523,1101.9758],[20.6158,48.7525,1137.5067],[20.6023,48.7467,1167.8734],[20.591,48.7475,1199.3578],[20.5774,48.7429,1251.3895],[20.5696,48.7435,1150.1711],[20.555,48.751,1132.9441],[20.5498,48.7559,1164.5273],[20.5484,48.7635,1098.969],[20.5496,48.7713,976.2928],[20.5422,48.7819,1131.2195],[20.529,48.7841,1038.3444],[20.5188,48.7942,1107.1628],[20.5076,48.7965,972.4337],[20.4904,48.8055,948.6003],[20.4845,48.8043,867.0385],[20.4781,48.8005,739.8307],[20.4739,48.793,695.5115],[20.4703,48.7919,664.3276],[20.4688,48.7941,763.8926],[20.4719,48.801,688.1635],[20.471,48.8077,906.5673],[20.4622,48.8142,1100.4543],[20.4585,48.8239,1130.3522],[20.454,48.8284,1094.7847],[20.438,48.8339,914.7906],[20.4136,48.8359,736.1352],[20.4103,48.8375,730.5964],[20.407,48.842,805.9865],[20.4029,48.8436,908.1592],[20.3811,48.8457,848.2897],[20.3733,48.8479,801.6867],[20.3701,48.8553,874.374],[20.372,48.8614,841.3455],[20.3788,48.8648,784.5],[20.3904,48.8657,902.7197],[20.3929,48.8685,972.1826],[20.3908,48.8706,966.2158],[20.3786,48.8736,1061.75],[20.3764,48.8857,902.5462],[20.3671,48.8951,968.058],[20.3665,48.8977,965.0774],[20.3726,48.9013,925.1029],[20.3855,48.9001,934.1587],[20.3954,48.9012,756.9388],[20.3995,48.9032,729.9255],[20.3985,48.9055,853.3214],[20.3809,48.9049,894.1505],[20.3738,48.9094,951.1144],[20.3608,48.907,983.058],[20.351,48.9137,891.1802],[20.3201,48.9234,677.6465],[20.3192,48.925,688.4171],[20.3183,48.9219,740.0436],[20.3139,48.919,699.0909],[20.2905,48.9152,760.806],[20.2877,48.9109,805.4719],[20.2811,48.9066,884.3224],[20.2791,48.9004,1089.1804],[20.2686,48.8954,1098.6056],[20.2555,48.8805,906.8461],[20.2484,48.879,998.3786],[20.2436,48.8812,970.3692],[20.2395,48.8742,1007.5407],[20.2279,48.8671,963.4807],[20.2171,48.8633,984.7299],[20.2074,48.8416,1050.6705],[20.1904,48.8256,1010.4827],[20.1865,48.8189,1041.6268],[20.1861,48.8118,1061.8013],[20.1819,48.801,1113.3049],[20.1848,48.7828,1051.1383],[20.1716,48.7742,1000.1054],[20.1681,48.7699,1058.588],[20.1694,48.7469,966.2435],[20.1755,48.7381,1122.8812],[20.242,48.7066,740.1559],[20.2697,48.6908,653.1942],[20.2794,48.6817,825.2038],[20.2867,48.6775,640.9785],[20.2911,48.6649,672.9371],[20.2903,48.6556,629.0861],[20.294,48.6439,618.2516],[20.2891,48.6293,482.3601],[20.2902,48.6259,513.4697],[20.3248,48.6191,431.7841],[20.342,48.6124,417.392],[20.3509,48.6053,536.5172],[20.3529,48.595,403.236],[20.3484,48.5887,345.9851],[20.3477,48.5841,317.9694],[20.3436,48.5798,284.3086],[20.3403,48.5648,398.5341],[20.3333,48.5533,270.7042],[20.3193,48.5401,301.3829],[20.3203,48.5306,269.4673],[20.3175,48.5261,243.2321],[20.318,48.5207,213.6785],[20.331,48.5073,233.5267],[20.3305,48.5042,240.8365],[20.3242,48.4957,270.2339],[20.3269,48.491,277.74],[20.3406,48.4907,192.92],[20.346,48.4856,190.62],[20.3748,48.485,231.1876],[20.396,48.4899,298.6758],[20.4208,48.4935,325.3569],[20.4247,48.4927,351.4071],[20.4296,48.4886,347.3275],[20.4423,48.4875,358.2978],[20.4479,48.4889,336.6985],[20.4571,48.4963,410.7009],[20.4606,48.4969,414.0516],[20.4686,48.495,381.5694],[20.4821,48.4881,369.9091],[20.4858,48.4796,414.4837],[20.4869,48.4802,415.0984],[20.4897,48.4773,414.0144],[20.4955,48.4856,439.2813],[20.5018,48.4896,352.4824],[20.5056,48.5049,512.197],[20.5097,48.5089,476.4285],[20.5074,48.5143,475.8261],[20.5019,48.518,476.9427],[20.5075,48.5331,460.5152],[20.5188,48.5346,498.3562],[20.5364,48.5259,533.1903],[20.5469,48.5459,501.2906],[20.5641,48.5445,490.447],[20.5903,48.5363,444.6281],[20.6069,48.5456,460.8507],[20.6186,48.5445,466.2769],[20.6238,48.5523,396.5417],[20.6326,48.5534,379.1644],[20.6399,48.5591,277.3102],[20.6512,48.5603,429.0073],[20.6566,48.5644,457.9923],[20.6688,48.5645,496.0926],[20.6787,48.5667,549.8115],[20.684,48.5609,495.5328],[20.7071,48.5696,531.9775],[20.7201,48.5712,518.1505],[20.7438,48.5704,545.6099],[20.7424,48.5735,546.8593],[20.7439,48.5771,504.5152],[20.7983,48.5768,439.921],[20.8051,48.575,446.7074]]]]}}