{"type":"Feature","properties":{"GID_2":"SVK.8.11_1","GID_0":"SVK","country":"Slovakia","GID_1":"SVK.8_1","province":"Žilinský","NL_NAME_1":"NA","county":"Žilina","VARNAME_2":"NA","NL_NAME_2":"NA","TYPE_2":"Okres","ENGTYPE_2":"District","CC_2":"511","HASC_2":"SK.ZI.ZA","name":"Žilina.county"},
"geometry":{"type": "MultiPolygon","coordinates": [[[[18.5745,49.1203,552.2155],[18.5744,49.1215,592.4009],[18.5738,49.1238,652.7708],[18.5744,49.1182,511.2259],[18.5745,49.1203,552.2155]]],
[[[18.4886,48.9367,721.9224],[18.4884,48.9379,704.3513],[18.5086,48.938,832.0126],[18.532,48.9456,953.8204],[18.5655,48.9672,820.2128],[18.5699,48.9671,874.2269],[18.5754,48.9644,866.3688],[18.5777,48.9547,637.6644],[18.58,48.9522,709.8228],[18.5908,48.9563,974.9379],[18.6064,48.9585,917.304],[18.6241,48.9584,732.446],[18.64,48.9693,1176.1035],[18.6411,48.9722,1235.459],[18.6402,48.9795,1236.2761],[18.6424,48.9829,1205.0106],[18.659,48.9906,1101.582],[18.6711,48.994,907.713],[18.6815,48.9953,956.7812],[18.6923,48.9913,1118.3721],[18.7023,48.9896,1102.1982],[18.7198,48.9922,822.3646],[18.7216,48.9945,754.8696],[18.7207,48.9991,945.8145],[18.7219,49.0013,993.4073],[18.7348,49.0092,893.4564],[18.7327,49.017,849.4084],[18.7334,49.02,956.8818],[18.7435,49.0266,1101.0728],[18.7504,49.0338,1034.3864],[18.7495,49.0426,812.4843],[18.7449,49.049,921.0908],[18.7453,49.0512,1038.3301],[18.7548,49.0539,1042.4249],[18.7573,49.0586,1030.856],[18.7665,49.0563,1007.3501],[18.7726,49.0572,1141.5826],[18.8057,49.0708,1273.7833],[18.8163,49.0784,1385.1609],[18.8226,49.0898,1346.7329],[18.8391,49.1357,1039.5472],[18.8465,49.1476,1006.8809],[18.8504,49.1512,893.1198],[18.859,49.1526,916.1285],[18.8816,49.1488,507.8069],[18.8876,49.1494,388.9927],[18.8911,49.151,429.9677],[18.8952,49.1574,438.4675],[18.9002,49.1615,508.5561],[18.9106,49.1643,768.9757],[18.9378,49.1754,1044.1145],[18.9438,49.1763,1172.0145],[18.9579,49.1744,1254.9598],[18.9773,49.1847,1368.6936],[18.9976,49.1855,1525.0723],[19.0128,49.1934,1509.8413],[19.0182,49.193,1520.778],[19.0271,49.1865,1569.3369],[19.0375,49.1898,1495.1703],[19.0556,49.1884,1524.4583],[19.0612,49.1945,1544.4067],[19.0654,49.2044,1497.8057],[19.0658,49.2102,1400.714],[19.0675,49.2118,1361.4288],[19.0861,49.2156,1307.2109],[19.0919,49.2152,1498.8318],[19.0964,49.2123,1569.6672],[19.0995,49.213,1417.3406],[19.1047,49.2198,1332.0667],[19.1023,49.2331,1526.4994],[19.1084,49.2486,1266.6875],[19.1042,49.2731,941.9663],[19.1048,49.2863,901.7369],[19.1082,49.2931,822.6724],[19.1153,49.3013,986.3666],[19.1272,49.3096,977.4188],[19.1211,49.3107,983.4697],[19.1118,49.3086,974.9097],[19.0983,49.31,828.3243],[19.0894,49.305,883.17],[19.0758,49.3005,840.9306],[19.0666,49.3019,803.5223],[19.0572,49.3008,789.2225],[19.0424,49.3066,771.0454],[19.0329,49.3034,784.9324],[19.0286,49.3037,752.1957],[19.0197,49.3066,710.541],[19.0182,49.3115,761.0381],[19.0151,49.3131,799.2108],[18.9983,49.3104,838.5494],[18.988,49.3186,907.3492],[18.9726,49.32,790.1024],[18.9526,49.3161,648.058],[18.9438,49.3117,537.3408],[18.9368,49.3056,627.431],[18.9307,49.3047,630.2864],[18.9202,49.3086,616.0498],[18.9104,49.3219,807.6329],[18.9008,49.3249,655.3792],[18.8943,49.3189,821.6877],[18.8948,49.311,637.54],[18.899,49.3063,776.9596],[18.9104,49.3034,748.8945],[18.9183,49.2988,756.0911],[18.9241,49.2927,768.8547],[18.9278,49.2818,732.8381],[18.9261,49.2746,707.0919],[18.9228,49.271,707.8054],[18.8929,49.2556,573.8614],[18.8802,49.2539,658.1928],[18.8597,49.2595,498.9189],[18.8497,49.2695,455.6321],[18.8446,49.2695,444.2505],[18.8355,49.2663,578.9241],[18.8294,49.271,572.8535],[18.8122,49.2703,629.6562],[18.8086,49.2683,588.1049],[18.8046,49.2596,538.3274],[18.7927,49.253,484.4304],[18.7766,49.2648,476.4041],[18.7742,49.2729,568.2664],[18.769,49.2763,353.3451],[18.7571,49.2776,344.8382],[18.7494,49.2718,341.3559],[18.741,49.2699,446.6739],[18.7283,49.2699,580.1104],[18.7205,49.2731,553.082],[18.7161,49.2776,498.0309],[18.7069,49.2941,572.4294],[18.6967,49.3061,702.0745],[18.6908,49.3183,697.6158],[18.6801,49.3325,779.6896],[18.6767,49.3421,796.234],[18.6728,49.3469,851.6542],[18.6652,49.3511,814.3236],[18.6314,49.3679,773.4879],[18.6269,49.3666,737.1088],[18.6214,49.3565,726.356],[18.6179,49.3539,710.7493],[18.6099,49.353,762.6166],[18.5987,49.3556,730.556],[18.5891,49.3478,773.3956],[18.5858,49.3359,717.1215],[18.5863,49.3325,757.6904],[18.5915,49.3267,744.9485],[18.5948,49.3181,725.4299],[18.5956,49.3038,628.0428],[18.5981,49.2966,472.578],[18.5975,49.2857,546.8192],[18.6166,49.264,518.9922],[18.6283,49.2591,467.0957],[18.6329,49.2512,376.9758],[18.6308,49.2446,332.1217],[18.6282,49.2419,312.2756],[18.6055,49.2392,313.2767],[18.5909,49.2266,306.8105],[18.593,49.224,307.8756],[18.6007,49.2205,360.1363],[18.6026,49.2178,440.9337],[18.6026,49.2128,489.1691],[18.6059,49.2067,488.8825],[18.599,49.1925,564.0808],[18.6079,49.1863,741.9528],[18.6104,49.1571,711.066],[18.6133,49.1435,746.5417],[18.6255,49.1256,660.9453],[18.6229,49.1238,697.686],[18.6126,49.1235,733.4238],[18.5831,49.1137,598.293],[18.5736,49.1132,525.1197],[18.5744,49.1182,511.2259],[18.5726,49.1129,525.1197],[18.5673,49.1074,445.123],[18.5456,49.0949,418.7103],[18.5458,49.0913,443.8383],[18.5485,49.0893,488.7642],[18.5872,49.0795,495.4143],[18.5989,49.0721,580.4406],[18.6024,49.0562,654.9602],[18.5974,49.0462,608.9937],[18.5972,49.0349,772.8511],[18.5918,49.0278,717.9265],[18.5823,49.02,723.3335],[18.5698,49.0026,725.4648],[18.5655,48.9994,691.8871],[18.5188,48.9902,847.3624],[18.5058,48.9846,899.6762],[18.4829,48.9679,850.5606],[18.4565,48.9572,832.1313],[18.4594,48.9474,859.0612],[18.465,48.9417,768.9072],[18.4771,48.9381,797.9172],[18.4886,48.9367,721.9224]]]]}}