{"type":"Feature","properties":{"GID_2":"SVK.8.7_1","GID_0":"SVK","country":"Slovakia","GID_1":"SVK.8_1","province":"Žilinský","NL_NAME_1":"NA","county":"Námestovo","VARNAME_2":"NA","NL_NAME_2":"NA","TYPE_2":"Okres","ENGTYPE_2":"District","CC_2":"507","HASC_2":"SK.ZI.NO","name":"Námestovo.county"},
"geometry":{"type": "MultiPolygon","coordinates": [[[[19.5293,49.573,1711.4868],[19.5238,49.5721,1607.3466],[19.5182,49.5734,1586.3195],[19.5171,49.5779,1450.6682],[19.5143,49.5779,1486.9167],[19.5102,49.5824,1371.328],[19.4964,49.5824,1413.7268],[19.4963,49.5869,1223.4615],[19.4894,49.5868,1307.1082],[19.4894,49.5913,1034.8231],[19.4825,49.5913,1064.897],[19.4824,49.5958,915.8345],[19.4755,49.5958,970.6513],[19.4755,49.6003,972.8847],[19.4718,49.6003,1006.6042],[19.4746,49.6047,1019.0338],[19.4674,49.6138,1140.8401],[19.4549,49.6109,1144.0645],[19.4482,49.6138,1074.3896],[19.443,49.6092,995.7662],[19.4421,49.6046,979.7742],[19.4451,49.6016,906.2999],[19.442,49.5985,910.7497],[19.4306,49.5954,830.9247],[19.4134,49.5955,896.5521],[19.4135,49.5927,1042.3411],[19.41,49.5921,1029.6166],[19.4071,49.5868,935.8202],[19.4076,49.5808,856.5769],[19.4037,49.5774,812.8985],[19.393,49.5773,776.5848],[19.393,49.5728,877.937],[19.3792,49.5727,827.6754],[19.3793,49.5706,856.0601],[19.3714,49.5674,935.3915],[19.3725,49.5568,911.0782],[19.3666,49.5537,931.853],[19.3688,49.5473,849.8466],[19.3671,49.5411,830.5895],[19.3452,49.5409,958.3448],[19.3452,49.5364,1089.7064],[19.3246,49.5363,1400.7354],[19.3245,49.5408,1208.2844],[19.3107,49.5407,1244.3943],[19.3038,49.5407,1132.7198],[19.3039,49.5361,1307.2614],[19.2625,49.5359,1129.6261],[19.2626,49.5318,1213.8027],[19.2607,49.5312,1217.1365],[19.261,49.5273,1155.2991],[19.2558,49.5268,1131.7723],[19.2526,49.5223,1087.425],[19.249,49.5222,1033.5964],[19.249,49.52,1071.1971],[19.2422,49.5177,950.3169],[19.2406,49.5149,930.6176],[19.2333,49.5105,951.6411],[19.2348,49.5077,974.5579],[19.234,49.5037,955.7917],[19.237,49.5017,975.5306],[19.2355,49.4957,1028.3691],[19.2288,49.495,1024.4839],[19.2278,49.4919,1064.9749],[19.2315,49.4868,1113.3877],[19.2258,49.4815,1072.7042],[19.2221,49.4814,1023.9317],[19.2222,49.4764,1068.5505],[19.2205,49.4735,1034.957],[19.22,49.4693,1031.5874],[19.2271,49.4669,976.0715],[19.2283,49.4637,895.7587],[19.2253,49.4543,872.7216],[19.2196,49.4509,900.5344],[19.219,49.4486,948.3955],[19.209,49.4518,1000.6711],[19.1986,49.4482,1031.0206],[19.1857,49.4347,1054.4932],[19.1863,49.432,1011.2285],[19.1934,49.426,963.3571],[19.191,49.421,968.0271],[19.1972,49.4137,1119.3594],[19.1875,49.4097,1140.4729],[19.1773,49.414,959.4144],[19.1682,49.4134,949.3132],[19.1683,49.4107,989.2036],[19.1651,49.4088,996.4427],[19.1431,49.4086,1046.8657],[19.1375,49.41,1101.8082],[19.1326,49.4081,1083.4517],[19.1324,49.4057,1059.9652],[19.128,49.404,1071.2697],[19.1262,49.3978,1000.9912],[19.1276,49.381,960.3568],[19.1168,49.3711,955.3631],[19.1159,49.3672,944.2991],[19.1188,49.366,965.4889],[19.1309,49.3666,901.8981],[19.1531,49.3558,875.537],[19.1542,49.3535,916.692],[19.1508,49.3385,907.4533],[19.151,49.3328,947.5858],[19.1683,49.3251,974.0262],[19.1728,49.3174,1073.2632],[19.1768,49.3143,1023.2039],[19.1847,49.3131,947.3936],[19.2127,49.3209,1210.0271],[19.2418,49.3171,1237.9957],[19.2448,49.3121,1150.967],[19.2435,49.3022,1085.6733],[19.2495,49.2908,1105.1704],[19.2491,49.2819,1274.5923],[19.2511,49.2797,1240.265],[19.2556,49.2813,1114.1083],[19.2616,49.2908,946.2709],[19.2684,49.2961,888.0787],[19.3009,49.3051,806.7025],[19.3217,49.302,928.3988],[19.3433,49.3048,992.7815],[19.3631,49.3006,854.7917],[19.3746,49.3013,880.0385],[19.3808,49.2996,934.5944],[19.387,49.2934,1020.7576],[19.3964,49.2937,930.9716],[19.4219,49.3162,1032.4578],[19.4376,49.3264,915.1265],[19.4371,49.334,1160.7461],[19.44,49.3377,1163.2413],[19.4841,49.3547,914.9714],[19.4944,49.3635,897.9973],[19.5016,49.3673,979.5099],[19.5074,49.3767,821.933],[19.5232,49.3839,687.347],[19.5527,49.4063,598.5281],[19.5688,49.4122,600.675],[19.5948,49.4321,598.0],[19.5931,49.4408,598.0],[19.5848,49.4498,619.8336],[19.5909,49.4584,636.7749],[19.5815,49.4554,623.3276],[19.5806,49.4612,648.1174],[19.5751,49.4639,664.6817],[19.57,49.47,691.0654],[19.5669,49.4712,681.5156],[19.5691,49.4745,740.2426],[19.5656,49.4805,787.6561],[19.562,49.4822,784.2374],[19.5584,49.488,771.4914],[19.5574,49.4869,748.1712],[19.5536,49.4899,803.6201],[19.5544,49.4987,742.1495],[19.5516,49.5076,781.3586],[19.5429,49.5183,795.9197],[19.5415,49.5233,858.0498],[19.5351,49.5263,914.819],[19.5356,49.5305,861.7668],[19.5304,49.5358,846.2761],[19.5291,49.5411,901.8786],[19.5299,49.5492,1011.1459],[19.5274,49.5612,1372.2236],[19.5293,49.573,1711.4868]]]]}}