{"type": "Feature","bbox": [21.3744,49.0699,21.7723,49.4473],"geometry": {"type": "MultiPolygon","coordinates": [[[[21.4442,49.4124,576.6911],[21.4218,49.3935,463.106],[21.4174,49.3851,615.8491],[21.4129,49.3812,536.9261],[21.4043,49.3779,406.6447],[21.3787,49.3748,430.5413],[21.3754,49.3729,434.2308],[21.3744,49.3699,389.3735],[21.3773,49.3676,369.5916],[21.41,49.3584,332.0497],[21.4217,49.352,460.1957],[21.4231,49.3474,489.4968],[21.4133,49.3359,384.2447],[21.4129,49.3322,356.2304],[21.4145,49.3291,335.8928],[21.4353,49.3154,297.627],[21.4469,49.3172,364.989],[21.4507,49.3164,383.0609],[21.4524,49.3128,367.9063],[21.451,49.2998,294.8015],[21.4534,49.2961,309.4525],[21.4602,49.2919,277.6415],[21.4773,49.2863,291.824],[21.5003,49.2701,449.8589],[21.5007,49.2655,404.9545],[21.4912,49.2591,329.3645],[21.4901,49.2559,335.4843],[21.5043,49.245,346.0626],[21.5064,49.2331,425.7108],[21.5135,49.2258,322.3703],[21.5147,49.2211,396.9506],[21.5121,49.2178,381.7399],[21.5018,49.2114,311.718],[21.4872,49.2075,383.8717],[21.4817,49.204,360.0133],[21.4785,49.1978,354.0456],[21.4802,49.1865,412.5922],[21.4863,49.1798,363.9888],[21.5034,49.1747,249.5676],[21.5028,49.1668,319.1682],[21.5052,49.1637,313.772],[21.5151,49.1612,355.5922],[21.532,49.1524,319.2654],[21.5325,49.1508,312.8336],[21.5307,49.1495,310.0297],[21.5227,49.1514,357.6076],[21.5201,49.1504,377.6074],[21.5205,49.147,336.6978],[21.5237,49.1425,290.1876],[21.5289,49.1405,273.8666],[21.5458,49.139,202.2174],[21.5493,49.1358,197.8622],[21.5454,49.133,211.8478],[21.5313,49.1317,228.0107],[21.526,49.1326,219.3293],[21.5136,49.1389,244.7564],[21.4979,49.1358,181.6833],[21.4872,49.1499,186.6647],[21.475,49.1542,188.3341],[21.4658,49.1605,201.9119],[21.4625,49.161,191.0013],[21.4402,49.1468,383.6813],[21.4391,49.1449,353.7495],[21.4402,49.1403,321.7048],[21.437,49.1374,302.7618],[21.4179,49.1335,283.252],[21.402,49.1341,283.1413],[21.3889,49.1308,340.0227],[21.3846,49.1237,438.5827],[21.384,49.1181,460.6738],[21.42,49.1117,379.9843],[21.4344,49.0992,312.153],[21.45,49.0962,240.2677],[21.4517,49.0867,388.7021],[21.4671,49.0804,365.2194],[21.4746,49.0749,289.9567],[21.4929,49.0793,367.4415],[21.5016,49.0795,350.9862],[21.5125,49.0756,325.3491],[21.5213,49.0746,205.8122],[21.5277,49.0704,320.8931],[21.5317,49.0699,312.1145],[21.5647,49.0793,312.3985],[21.5698,49.0832,317.058],[21.5713,49.1,415.8841],[21.5687,49.1193,365.4961],[21.5601,49.1258,266.1134],[21.5589,49.129,241.7872],[21.5634,49.134,281.8157],[21.5673,49.134,262.822],[21.5764,49.1266,242.5016],[21.5818,49.1187,336.1237],[21.5868,49.1204,272.9153],[21.5979,49.1279,281.9433],[21.5994,49.1326,344.335],[21.5986,49.1381,418.9907],[21.5829,49.1516,383.7293],[21.5785,49.1586,370.6033],[21.5769,49.165,308.2606],[21.590699999999998,49.1852,404.3641],[21.591,49.1909,286.8724],[21.5984,49.1938,297.1434],[21.6008,49.1971,332.0082],[21.6024,49.2055,426.2319],[21.5991,49.2217,424.1006],[21.6004,49.2361,258.8353],[21.6048,49.2412,292.3229],[21.616,49.2466,214.2936],[21.6227,49.2534,246.9892],[21.6238,49.2567,230.9961],[21.6219,49.2672,324.8497],[21.6232,49.2748,377.0728],[21.6401,49.2875,430.5811],[21.6367,49.2987,393.2563],[21.6372,49.3038,386.6562],[21.6416,49.3057,300.6592],[21.6592,49.3037,394.6034],[21.667,49.3052,413.1629],[21.6752,49.3138,417.4417],[21.6918,49.3219,511.9394],[21.6927,49.3257,469.5683],[21.6899,49.3321,488.5501],[21.6913,49.3351,468.4224],[21.7016,49.3421,586.529],[21.7084,49.3439,475.7014],[21.7145,49.3417,477.8438],[21.7177,49.3356,499.1892],[21.7375,49.3137,392.979],[21.7436,49.3049,413.9656],[21.7558,49.3008,344.1624],[21.7678,49.3017,478.2177],[21.7703,49.3046,408.4726],[21.7698,49.3083,396.9985],[21.7572,49.3217,448.6885],[21.7489,49.3337,563.8167],[21.7475,49.3382,564.9091],[21.7505,49.3495,611.2958],[21.7602,49.363,531.715],[21.7669,49.3695,578.4052],[21.7718,49.363,638.3621],[21.7723,49.3745,555.0507],[21.7654,49.3746,626.0292],[21.7657,49.3836,568.8626],[21.7589,49.3854,575.1127],[21.759,49.3882,554.7822],[21.7522,49.3883,575.5115],[21.7523,49.3928,584.9673],[21.7395,49.3931,538.0475],[21.7388,49.3976,542.2053],[21.7347,49.399,579.455],[21.7269,49.3981,577.7167],[21.7243,49.4031,549.3663],[21.7235,49.4108,576.6882],[21.7205,49.4128,571.8204],[21.7102,49.4134,547.4907],[21.6994,49.4185,518.077],[21.6812,49.4108,624.9412],[21.6744,49.4143,635.994],[21.6589,49.4168,609.3149],[21.6564,49.4205,566.4299],[21.6565,49.4246,547.2787],[21.6494,49.4302,598.9186],[21.6443,49.4307,631.5793],[21.6309,49.4473,641.3802],[21.6148,49.4448,564.3865],[21.6016,49.4353,726.3835],[21.5971,49.437,740.9457],[21.5751,49.4363,651.4219],[21.5752,49.4408,608.0289],[21.564,49.4413,723.2556],[21.5566,49.4381,605.394],[21.5521,49.4331,673.4746],[21.5303,49.4351,654.2977],[21.5241,49.4317,578.9356],[21.5218,49.4271,629.2817],[21.5187,49.4254,671.7771],[21.5199,49.4224,657.6052],[21.5235,49.4199,698.8907],[21.522,49.419,692.8405],[21.5131,49.4204,669.0715],[21.4983,49.4295,666.808],[21.4914,49.4308,658.4796],[21.4865,49.4286,629.4867],[21.479,49.4158,591.7347],[21.4737,49.4136,616.9055],[21.467,49.4132,661.9705],[21.4562,49.4163,659.5061],[21.4442,49.4124,576.6911]]]]}
,"properties": {"GID_2": "SVK.5.12_1","GID_0": "SVK","country": "Slovakia","GID_1": "SVK.5_1","province": "Prešovský","NL_NAME_1": "NA","county": "Svidník","VARNAME_2": "NA","NL_NAME_2": "NA","TYPE_2": "Okres","ENGTYPE_2": "District","CC_2": "712","HASC_2": "SK.PV.SK","name": "Svidník.county","area_km2": 538.7209,"hist_schema_id": "Elevation0-9000","hist_area_km2": {"175": 12.115,"200": 13.5754,"225": 24.7212,"250": 32.5381,"275": 38.4904,"300": 44.8243,"325": 51.1904,"350": 50.7035,"375": 45.5839,"400": 38.5417,"425": 35.3635,"450": 30.4119,"475": 28.002,"500": 25.8586,"525": 20.8022,"550": 15.0595,"575": 11.1387,"600": 7.7703,"625": 5.6026,"650": 3.3525,"675": 2.2754,"700": 0.6205,"725": 0.1655,"750": 0.0138}}}