{"type":"Feature","properties":{"GID_2":"SVK.5.1_1","GID_0":"SVK","country":"Slovakia","GID_1":"SVK.5_1","province":"Prešovský","NL_NAME_1":"NA","county":"Bardejov","VARNAME_2":"NA","NL_NAME_2":"NA","TYPE_2":"Okres","ENGTYPE_2":"District","CC_2":"701","HASC_2":"SK.PV.BJ","name":"Bardejov.county"},
"geometry":{"type": "MultiPolygon","coordinates": [[[[21.3465,49.45,696.5089],[21.3371,49.4514,631.7614],[21.3294,49.4495,573.5903],[21.3108,49.4495,564.9791],[21.2992,49.4524,666.5692],[21.2789,49.4611,675.5574],[21.2698,49.4605,633.1722],[21.2654,49.4554,675.451],[21.2634,49.4494,767.098],[21.2495,49.4433,684.6608],[21.2423,49.4368,743.7357],[21.2327,49.4365,770.7186],[21.2238,49.4275,655.3197],[21.2262,49.418,727.2078],[21.2062,49.4046,746.5242],[21.199,49.4053,720.3868],[21.1894,49.4023,659.6938],[21.1832,49.4056,683.8117],[21.1794,49.4104,662.0361],[21.1686,49.4149,713.1838],[21.1647,49.4183,649.8016],[21.1552,49.421,662.2214],[21.1554,49.4244,709.8741],[21.1523,49.427,768.0359],[21.124,49.4366,890.1534],[21.1189,49.4333,768.0823],[21.1137,49.4239,946.0662],[21.1025,49.4265,985.578],[21.0946,49.4301,879.7769],[21.0798,49.4266,671.0406],[21.0717,49.4271,640.6885],[21.0608,49.4217,760.4082],[21.0487,49.4194,781.6096],[21.0473,49.4183,759.1479],[21.0474,49.4155,716.0735],[21.0543,49.4042,691.4268],[21.0602,49.4023,692.6836],[21.0665,49.4023,720.4158],[21.068,49.3955,721.2052],[21.0832,49.389,717.9861],[21.0894,49.3838,711.1614],[21.0942,49.3831,705.3227],[21.1002,49.3794,692.0308],[21.1013,49.3764,695.1838],[21.0868,49.3673,771.8246],[21.0762,49.3637,741.9194],[21.0644,49.366,725.6155],[21.0546,49.3638,774.0831],[21.0458,49.3674,835.0532],[21.0234,49.356,770.1665],[21.0143,49.3476,740.3853],[21.0113,49.3476,729.8011],[21.007,49.3402,725.1391],[21.009,49.3372,741.5236],[20.9929,49.332,807.3978],[20.987,49.326,828.9066],[20.9904,49.3189,774.4672],[20.9867,49.311,681.8064],[20.9811,49.3096,653.1743],[20.9869,49.2991,654.4229],[20.998,49.2904,799.1432],[21.0009,49.285,798.0359],[20.998,49.281,912.6964],[20.9878,49.2794,923.9573],[20.9849,49.2769,971.2645],[20.9861,49.2715,927.9445],[20.9937,49.261,951.1647],[20.9951,49.2547,894.0981],[20.9942,49.2413,954.8441],[20.9877,49.2321,1073.4152],[20.9998,49.2262,983.5637],[21.013,49.215,900.3768],[21.0184,49.2137,954.6225],[21.0525,49.2193,949.3734],[21.0575,49.2185,903.7352],[21.0672,49.2134,829.7966],[21.0772,49.2126,910.7297],[21.0963,49.2176,968.1723],[21.116,49.2207,995.6917],[21.1365,49.204,990.6144],[21.1467,49.1999,1073.2653],[21.164,49.1972,1021.0821],[21.1705,49.1919,1033.718],[21.1745,49.1841,1035.8269],[21.1841,49.179,925.788],[21.1979,49.1752,871.4048],[21.2063,49.1663,835.4875],[21.2227,49.1592,680.2455],[21.2375,49.1553,510.4136],[21.2559,49.1532,466.583],[21.2721,49.1562,438.103],[21.2851,49.1529,418.6746],[21.2956,49.1433,361.403],[21.2945,49.1333,442.1602],[21.2957,49.1287,398.329],[21.3004,49.125,372.5986],[21.307,49.1229,355.919],[21.3151,49.1234,345.915],[21.3201,49.1328,323.3176],[21.3243,49.1344,346.5534],[21.3272,49.1332,380.5048],[21.3322,49.1269,428.1335],[21.3431,49.1267,465.3364],[21.3616,49.1178,501.7487],[21.384,49.1181,460.6738],[21.3846,49.1237,438.5827],[21.3889,49.1308,340.0227],[21.402,49.1341,283.1413],[21.4179,49.1335,283.252],[21.437,49.1374,302.7618],[21.4402,49.1403,321.7048],[21.4391,49.1449,353.7495],[21.4402,49.1468,383.6813],[21.4625,49.161,191.0013],[21.4658,49.1605,201.9119],[21.475,49.1542,188.3341],[21.4872,49.1499,186.6647],[21.4979,49.1358,181.6833],[21.5136,49.1389,244.7564],[21.5285,49.1319,196.0557],[21.5483,49.1342,197.5996],[21.5492,49.1368,197.8622],[21.5458,49.139,202.2174],[21.5289,49.1405,273.8666],[21.5237,49.1425,290.1876],[21.5205,49.147,336.6978],[21.5201,49.1504,377.6074],[21.5227,49.1514,357.6076],[21.5307,49.1495,310.0297],[21.5325,49.1508,312.8336],[21.532,49.1524,319.2654],[21.5151,49.1612,355.5922],[21.5052,49.1637,313.772],[21.5028,49.1668,319.1682],[21.5034,49.1747,249.5676],[21.4863,49.1798,363.9888],[21.4802,49.1865,412.5922],[21.4785,49.1978,354.0456],[21.4817,49.204,360.0133],[21.4872,49.2075,383.8717],[21.5018,49.2114,311.718],[21.5121,49.2178,381.7399],[21.5147,49.2211,396.9506],[21.5135,49.2258,322.3703],[21.5064,49.2331,425.7108],[21.5043,49.245,346.0626],[21.4901,49.2559,335.4843],[21.4912,49.2591,329.3645],[21.5007,49.2655,404.9545],[21.5003,49.2701,449.8589],[21.4773,49.2863,291.824],[21.4602,49.2919,277.6415],[21.4534,49.2961,309.4525],[21.451,49.2998,294.8015],[21.4524,49.3128,367.9063],[21.4507,49.3164,383.0609],[21.4469,49.3172,364.989],[21.4353,49.3154,297.627],[21.4145,49.3291,335.8928],[21.4129,49.3322,356.2304],[21.4133,49.3359,384.2447],[21.4231,49.3474,489.4968],[21.4217,49.352,460.1957],[21.41,49.3584,332.0497],[21.3773,49.3676,369.5916],[21.3744,49.3699,389.3735],[21.3754,49.3729,434.2308],[21.3787,49.3748,430.5413],[21.4043,49.3779,406.6447],[21.4129,49.3812,536.9261],[21.4174,49.3851,615.8491],[21.4218,49.3935,463.106],[21.4388,49.4066,513.6622],[21.4461,49.4155,583.7377],[21.4323,49.4158,577.4019],[21.4098,49.4292,617.748],[21.4037,49.4351,640.6254],[21.3927,49.4376,623.6772],[21.3741,49.4354,598.7655],[21.3621,49.4428,653.3174],[21.3503,49.4468,673.7648],[21.3465,49.45,696.5089]]]]}}