{"type": "Feature","bbox": [22.0634,48.5592,22.3846,48.9297],"geometry": {"type": "MultiPolygon","coordinates": [[[[22.1738,48.5608,109.3176],[22.1731,48.5668,108.2174],[22.193,48.6036,108.6983],[22.201,48.6044,108.9767],[22.2003,48.6102,106.6686],[22.2164,48.6121,109.7537],[22.215699999999998,48.6179,109.8112],[22.2237,48.618899999999996,111.2349],[22.223,48.6247,110.7011],[22.2317,48.6198,112.2222],[22.2396,48.6208,112.9175],[22.239,48.6266,112.143],[22.2469,48.6276,114.8734],[22.2463,48.6334,113.66],[22.2536,48.6402,156.8122],[22.2614,48.6414,146.5016],[22.2602,48.6528,129.4213],[22.2751,48.6551,170.3616],[22.2749,48.6609,182.7147],[22.2817,48.662,210.3277],[22.2885,48.6688,169.5281],[22.2957,48.6701,190.1311],[22.2952,48.6757,195.6112],[22.3027,48.6771,222.2286],[22.3021,48.6826,236.8605],[22.3541,48.6976,281.3356],[22.3465,48.7112,405.129],[22.3579,48.7147,507.9937],[22.3524,48.7235,612.3491],[22.3611,48.7312,552.4106],[22.3584,48.7357,704.0871],[22.3692,48.7384,597.0188],[22.3616,48.7522,521.0245],[22.3501,48.7486,814.5959],[22.3481,48.7533,772.3573],[22.3401,48.7575,825.007],[22.3472,48.7587,864.3179],[22.3462,48.7756,916.6564],[22.3529,48.7766,879.2583],[22.3594,48.7834,945.195],[22.368,48.7854,904.1352],[22.3662,48.7903,762.3514],[22.3767,48.7932,897.5039],[22.3722,48.8025,770.3598],[22.3826,48.8054,903.344],[22.3782,48.8148,792.7668],[22.3779,48.8496,392.3758],[22.3839,48.8503,378.6927],[22.3846,48.8688,492.048],[22.3816,48.8685,434.7197],[22.374,48.8741,409.4147],[22.3677,48.8758,328.0959],[22.3564,48.8733,261.2285],[22.3124,48.8738,435.9701],[22.2995,48.8692,441.0229],[22.2857,48.8677,523.826],[22.2755,48.8623,601.2929],[22.2691,48.8625,699.4897],[22.2672,48.8645,714.1399],[22.2675,48.8733,669.775],[22.2619,48.8792,683.3319],[22.2601,48.8847,637.5544],[22.2558,48.889,619.4648],[22.2534,48.8949,621.5114],[22.2436,48.9035,891.809],[22.2406,48.9197,917.4728],[22.2227,48.9297,889.6768],[22.2116,48.9288,1000.7332],[22.1997,48.9242,738.8638],[22.1646,48.8999,846.2596],[22.1664,48.8935,833.4984],[22.1752,48.8787,661.8647],[22.1598,48.837,255.0366],[22.1612,48.8217,200.5367],[22.1526,48.8149,183.2079],[22.1357,48.8144,168.3663],[22.1247,48.8108,163.2736],[22.1138,48.81,141.1455],[22.1036,48.8049,127.8848],[22.0983,48.7975,117.7444],[22.1005,48.7925,115.2199],[22.0999,48.7881,112.7486],[22.09,48.7813,108.0248],[22.092,48.7681,117.7716],[22.0952,48.7648,115.7671],[22.1119,48.765,111.8402],[22.114,48.764,112.2267],[22.114,48.7623,112.3278],[22.1074,48.7599,108.851],[22.0887,48.7591,114.3799],[22.0701,48.7536,104.1692],[22.0641,48.7483,102.4285],[22.0634,48.743,102.0743],[22.0674,48.7325,101.5164],[22.0842,48.7134,101.3831],[22.0818,48.7051,100.8406],[22.0996,48.7041,102.3353],[22.1052,48.6996,102.7368],[22.1044,48.6962,102.4789],[22.0981,48.6929,101.6176],[22.0973,48.687,101.3844],[22.0926,48.6819,101.1459],[22.0895,48.6723,101.1215],[22.0841,48.6649,101.1812],[22.0843,48.6627,101.2636],[22.0977,48.6597,102.11],[22.1032,48.6555,102.1595],[22.1088,48.6588,101.861],[22.112,48.6537,102.3025],[22.1278,48.6434,103.3546],[22.1311,48.6353,103.9635],[22.143,48.6328,104.4773],[22.1367,48.6227,104.884],[22.1398,48.6075,107.6654],[22.1472,48.5982,105.7345],[22.1596,48.5913,105.6398],[22.1652,48.5855,105.5106],[22.1686,48.5778,105.3674],[22.17,48.5592,108.6372],[22.1738,48.5608,109.3176]]]]}
,"properties": {"GID_2": "SVK.3.9_1","GID_0": "SVK","country": "Slovakia","GID_1": "SVK.3_1","province": "Košický","NL_NAME_1": "NA","county": "Sobrance","VARNAME_2": "NA","NL_NAME_2": "NA","TYPE_2": "Okres","ENGTYPE_2": "District","CC_2": "809","HASC_2": "SK.KI.SO","name": "Sobrance.county","area_km2": 515.3441,"hist_schema_id": "Elevation0-9000","hist_area_km2": {"100": 144.167,"125": 54.2485,"150": 25.9725,"175": 26.0688,"200": 21.7786,"225": 15.8368,"250": 11.3044,"275": 10.0323,"300": 9.8919,"325": 11.6789,"350": 11.3116,"375": 11.4501,"400": 12.5649,"425": 13.4145,"450": 13.316,"475": 12.3256,"500": 11.2651,"525": 9.3392,"550": 8.2778,"575": 8.3754,"600": 7.7892,"625": 7.5092,"650": 7.2577,"675": 7.48,"700": 7.1452,"725": 6.3924,"750": 6.0293,"775": 5.289,"800": 4.1866,"825": 3.6284,"850": 2.9029,"875": 2.3864,"900": 1.7024,"925": 1.1021,"950": 0.9341,"975": 0.6409,"1000": 0.3483}}}