{"type": "Feature","bbox": [17.2926,48.2409,17.7537,48.6413],"geometry": {"type": "MultiPolygon","coordinates": [[[[17.3114,48.4558,440.2747],[17.3304,48.4517,383.4067],[17.3604,48.4483,376.058],[17.3779,48.4426,486.0085],[17.3799,48.4355,468.5557],[17.3775,48.4282,395.4419],[17.3784,48.4216,270.0089],[17.408,48.4102,202.1986],[17.4149,48.4017,199.8806],[17.4224,48.3847,242.1871],[17.4278,48.3782,222.3253],[17.4305,48.3712,209.1275],[17.4555,48.3693,195.8277],[17.463,48.3657,191.8576],[17.4663,48.3548,182.6501],[17.4653,48.3431,169.5835],[17.451,48.3257,166.0775],[17.443,48.3203,169.7695],[17.4432,48.318,168.0721],[17.4488,48.3143,163.9367],[17.4671,48.31,156.6576],[17.4789,48.2937,149.7494],[17.4881,48.2855,144.5307],[17.4928,48.2786,139.9257],[17.506,48.2791,143.4644],[17.5125,48.2773,142.0497],[17.5328,48.2627,132.6772],[17.5492,48.2449,131.355],[17.5573,48.2409,130.4048],[17.5651,48.241,124.3687],[17.5837,48.2485,126.0592],[17.5878,48.2513,125.6902],[17.5964,48.2621,137.1143],[17.6063,48.2686,137.1529],[17.6185,48.2666,131.9802],[17.6409,48.2672,124.8296],[17.6552,48.2645,124.4046],[17.6562,48.2665,124.3689],[17.653,48.2734,125.519],[17.6539,48.2758,125.5716],[17.6849,48.282,126.3293],[17.6871,48.284,126.8034],[17.689,48.2899,127.3778],[17.6974,48.2952,127.7386],[17.6977,48.2976,127.3979],[17.6903,48.304,128.366],[17.6914,48.3068,127.8734],[17.6959,48.3104,128.5218],[17.7068,48.3147,129.7963],[17.7227,48.3164,130.8688],[17.7342,48.3225,130.4485],[17.7384,48.3219,130.7873],[17.741,48.318,125.756],[17.7438,48.3168,127.659],[17.7472,48.3179,130.3099],[17.749,48.321,129.5126],[17.7537,48.3405,132.3864],[17.7051,48.3555,132.2068],[17.7012,48.3582,144.5076],[17.6982,48.3631,132.4089],[17.6976,48.3666,132.7521],[17.6993,48.368899999999996,133.1318],[17.7118,48.3711,133.5014],[17.7168,48.3742,134.444],[17.7159,48.3896,151.4985],[17.7183,48.3972,136.6549],[17.7181,48.4064,138.1837],[17.7246,48.4151,138.9339],[17.7252,48.4181,138.4141],[17.723,48.4213,138.8813],[17.7139,48.4277,139.6077],[17.6915,48.4305,149.978],[17.6863,48.4335,150.0],[17.6825,48.4433,158.9284],[17.6804,48.4622,163.6264],[17.6796,48.4755,179.2081],[17.6818,48.4827,170.8929],[17.673,48.4916,174.9701],[17.6732,48.4949,172.5417],[17.6576,48.5098,183.9286],[17.6454,48.5101,196.2058],[17.6348,48.517,203.6608],[17.6298,48.5229,202.4813],[17.6268,48.5305,203.0701],[17.6127,48.541,191.3407],[17.6096,48.5466,201.267],[17.6016,48.5532,195.975],[17.5846,48.5743,331.5867],[17.5763,48.5768,273.5975],[17.5613,48.5759,276.3001],[17.5562,48.5797,255.639],[17.5555,48.5863,254.2699],[17.5573,48.5908,267.0968],[17.5737,48.5995,342.0336],[17.5735,48.6037,298.3509],[17.5687,48.6111,289.5006],[17.5771,48.6178,370.7779],[17.5737,48.624,455.9832],[17.5735,48.6282,465.2134],[17.5792,48.6399,493.5464],[17.5824,48.6413,468.5545],[17.5577,48.6374,465.7569],[17.5371,48.631,410.9218],[17.5267,48.6309,406.662],[17.5298,48.6285,416.0265],[17.5194,48.6245,398.6706],[17.5149,48.621,372.0427],[17.4982,48.5996,451.111],[17.4951,48.592,434.9544],[17.4809,48.5848,392.0476],[17.4694,48.5818,308.4387],[17.4646,48.5688,350.4445],[17.4585,48.5639,342.1754],[17.4529,48.5633,312.4277],[17.445,48.5663,331.9675],[17.4388,48.5666,326.7637],[17.4221,48.5595,347.9611],[17.3843,48.5629,433.509],[17.3659,48.5515,390.6844],[17.3542,48.5411,300.5237],[17.3472,48.5228,348.1183],[17.3389,48.518,349.657],[17.3428,48.5151,431.5948],[17.3541,48.5137,574.2289],[17.3529,48.5101,557.365],[17.3489,48.5082,469.4334],[17.3406,48.5081,422.6846],[17.3238,48.4936,425.5344],[17.3031,48.4878,474.6534],[17.2932,48.4814,457.6598],[17.2926,48.4737,595.912],[17.295,48.4676,582.0042],[17.3012,48.4612,460.9103],[17.3114,48.4558,440.2747]]]]}
,"properties": {"GID_2": "SVK.7.7_1","GID_0": "SVK","country": "Slovakia","GID_1": "SVK.7_1","province": "Trnavský","NL_NAME_1": "NA","county": "Trnava","VARNAME_2": "NA","NL_NAME_2": "NA","TYPE_2": "Okres","ENGTYPE_2": "District","CC_2": "207","HASC_2": "SK.TA.TT","name": "Trnava.county","area_km2": 750.5672,"hist_schema_id": "Elevation0-9000","hist_area_km2": {"125": 92.0378,"150": 210.7968,"175": 107.6012,"200": 93.7789,"225": 58.9013,"250": 28.1763,"275": 18.5043,"300": 21.0154,"325": 21.255,"350": 20.0201,"375": 18.2364,"400": 13.6888,"425": 10.4188,"450": 8.539,"475": 7.0929,"500": 5.0409,"525": 4.1842,"550": 3.483,"575": 2.5987,"600": 1.7562,"625": 1.2644,"650": 0.9832,"675": 0.5617,"700": 0.337,"725": 0.2106,"750": 0.0702,"775": 0.014}}}