{"type": "Feature","bbox": [19.8648,48.7689,22.5678,49.4611],"geometry": {"type": "MultiPolygon","coordinates": [[[[21.5459,48.7945,826.1359],[21.5488,48.7928,787.2192],[21.5788,48.7872,660.1005],[21.5999,48.7869,645.0421],[21.6281,48.7824,361.5914],[21.6541,48.7823,210.3055],[21.6924,48.7689,124.0963],[21.713,48.7692,110.6098],[21.7351,48.7779,110.9314],[21.7549,48.779,111.7369],[21.7621,48.7807,111.3483],[21.7611,48.7901,112.4486],[21.7628,48.7929,112.4554],[21.7693,48.7958,113.7878],[21.7925,48.7991,177.9153],[21.8043,48.806399999999996,195.3007],[21.8043,48.8104,204.338],[21.7988,48.8219,182.3441],[21.7972,48.8329,195.0477],[21.7903,48.8447,201.6906],[21.7904,48.854,220.0157],[21.793,48.8639,203.9404],[21.7913,48.8738,184.5018],[21.8009,48.8854,173.1002],[21.8,48.8963,221.3959],[21.8013,48.8994,276.393],[21.8096,48.9047,224.6365],[21.8174,48.9067,248.7149],[21.837,48.8992,142.6768],[21.8651,48.8934,512.132],[21.8897,48.8926,376.3574],[21.9085,48.8892,363.3528],[21.9329,48.8793,290.9916],[21.94,48.8704,435.5262],[21.9522,48.862,321.1763],[21.9562,48.8569,344.0503],[21.9682,48.8532,423.6614],[21.9851,48.8505,539.3429],[22.0221,48.8588,688.8205],[22.0538,48.8567,609.6812],[22.0747,48.86,494.5046],[22.0938,48.8567,587.9308],[22.1127,48.8562,375.4523],[22.1278,48.8539,415.4743],[22.1332,48.8554,386.5272],[22.1359,48.8604,476.2069],[22.1371,48.867,610.9785],[22.135,48.8767,642.2286],[22.1358,48.8834,776.868],[22.1374,48.8854,791.0256],[22.1527,48.8927,896.0614],[22.161,48.9004,866.8896],[22.164,48.9011,820.9514],[22.1646,48.8999,846.2596],[22.1997,48.9242,738.8638],[22.2116,48.9288,1000.7332],[22.2212,48.9298,891.7921],[22.2277,48.928,996.9811],[22.2406,48.9197,917.4728],[22.2436,48.9035,891.809],[22.2534,48.8949,621.5114],[22.2558,48.889,619.4648],[22.2601,48.8847,637.5544],[22.2619,48.8792,683.3319],[22.2675,48.8733,669.775],[22.2672,48.8645,714.1399],[22.2691,48.8625,699.4897],[22.2755,48.8623,601.2929],[22.2857,48.8677,523.826],[22.2995,48.8692,441.0229],[22.3124,48.8738,435.9701],[22.3564,48.8733,261.2285],[22.3677,48.8758,328.0959],[22.374,48.8741,409.4147],[22.3807,48.868899999999996,425.4899],[22.384,48.8684,461.28],[22.3848,48.8739,415.6868],[22.3907,48.8745,473.8428],[22.3968,48.881,507.8387],[22.4134,48.8881,202.4473],[22.4152,48.9061,315.861],[22.4211,48.9124,316.9788],[22.4221,48.9245,411.579],[22.4278,48.9248,483.1951],[22.4282,48.9308,456.4657],[22.4225,48.9305,468.779],[22.4229,48.9365,424.5875],[22.4286,48.9368,393.7507],[22.429,48.9429,458.2075],[22.4636,48.9737,769.2869],[22.4629,48.9802,524.6395],[22.4715,48.9795,625.5205],[22.4701,48.9924,688.3643],[22.478,48.9981,633.3194],[22.4953,48.997,711.6235],[22.4945,49.0033,669.6802],[22.5033,49.0028,771.0335],[22.5043,48.9966,751.3945],[22.5239,48.9977,1047.3076],[22.5322,49.0039,1009.411],[22.5422,49.0046,1015.9016],[22.5375,49.0213,677.7706],[22.5473,49.022,685.8279],[22.5458,49.0275,603.6283],[22.548,49.0561,642.5565],[22.547,49.0623,775.0433],[22.554,49.0742,808.775],[22.5631,49.0741,839.1348],[22.5609,49.0862,1135.5564],[22.5677,49.0862,1163.033],[22.5678,49.0915,1129.6626],[22.5456,49.092,1178.6844],[22.5394,49.0947,1142.7938],[22.528,49.0927,1162.5508],[22.5064,49.093,956.9451],[22.5063,49.091,983.3638],[22.5025,49.0893,941.895],[22.5002,49.0862,938.7229],[22.497,49.0859,950.8593],[22.486,49.0889,947.718],[22.4848,49.091,993.98],[22.477,49.0934,978.0862],[22.4671,49.1006,1151.0559],[22.457,49.1036,1123.1309],[22.4181,49.1041,1076.3407],[22.4184,49.1086,1008.9642],[22.4115,49.1088,1033.1123],[22.4118,49.1133,1011.2466],[22.4049,49.1134,1113.968],[22.4052,49.118,1044.5714],[22.3983,49.1181,1052.5601],[22.3988,49.1271,917.9745],[22.392,49.1273,1039.9774],[22.3922,49.1318,1003.6774],[22.3854,49.132,998.7411],[22.3858,49.141,931.5511],[22.379,49.1411,944.8568],[22.3792,49.1456,1024.4963],[22.3662,49.1469,1073.6877],[22.3346,49.1465,904.0819],[22.3296,49.1441,795.8278],[22.3205,49.1356,995.7568],[22.306,49.137,938.1442],[22.3036,49.1386,972.486],[22.3038,49.1428,915.6829],[22.2833,49.1433,983.8177],[22.2836,49.1478,866.8213],[22.2617,49.1483,918.6039],[22.247,49.1533,913.4239],[22.2397,49.1519,900.5767],[22.236,49.1544,938.5737],[22.2366,49.1669,743.5317],[22.2434,49.1667,727.8744],[22.2438,49.1758,723.052],[22.237,49.1759,716.4565],[22.2372,49.1804,701.2802],[22.2304,49.1808,710.8948],[22.2306,49.1851,715.7569],[22.2172,49.1838,716.1246],[22.211,49.1856,716.7924],[22.2099,49.1827,702.0858],[22.2063,49.1821,696.7173],[22.205,49.1798,695.4314],[22.1899,49.174,793.3907],[22.1878,49.1744,801.1094],[22.1858,49.1783,854.1306],[22.1757,49.1831,840.3185],[22.1759,49.1862,798.276],[22.1623,49.1865,813.713],[22.1431,49.1927,777.4723],[22.1438,49.2005,850.7433],[22.13,49.2002,781.9364],[22.1245,49.2022,894.5932],[22.1176,49.201,852.0396],[22.1049,49.2052,871.6127],[22.078,49.2088,789.5734],[22.0675,49.2122,764.7773],[22.0677,49.2155,706.368],[22.054,49.2158,770.943],[22.0542,49.2203,731.1531],[22.0473,49.2205,747.7265],[22.0475,49.225,684.9604],[22.0407,49.2251,694.7675],[22.0424,49.2657,634.1013],[22.0356,49.2658,680.8329],[22.0363,49.2839,670.1857],[22.0295,49.284,698.8493],[22.0297,49.2885,652.3306],[22.0228,49.2886,677.1476],[22.023,49.2932,638.2644],[22.0162,49.2933,651.9431],[22.0164,49.2978,681.6216],[22.0095,49.2979,681.0513],[22.0097,49.3024,724.9802],[22.0028,49.3026,707.0004],[22.003,49.3071,651.0923],[21.9962,49.3072,709.7616],[21.9964,49.3117,728.3994],[21.9895,49.3119,755.9098],[21.9899,49.3209,707.5704],[21.983,49.321,717.3256],[21.9836,49.3345,712.5997],[21.9767,49.3347,784.338],[21.9771,49.3437,775.7902],[21.9702,49.3438,791.4689],[21.9704,49.3483,781.5485],[21.9524,49.3501,830.058],[21.9503,49.3487,821.2853],[21.9361,49.349,769.1519],[21.9363,49.3535,768.1769],[21.918,49.3542,698.6199],[21.9079,49.3533,685.5194],[21.9038,49.35,740.8403],[21.9004,49.3541,746.0891],[21.8918,49.3586,674.1905],[21.8893,49.3623,690.7104],[21.891,49.3644,697.9965],[21.8873,49.369,703.5465],[21.8755,49.3736,714.391],[21.8615,49.3729,690.6533],[21.8619,49.3819,643.3221],[21.855,49.382,681.3522],[21.8552,49.3865,684.4296],[21.8483,49.3867,714.6251],[21.8485,49.3912,668.5468],[21.8383,49.3917,771.2704],[21.8258,49.3908,821.7601],[21.8174,49.3843,710.5236],[21.8069,49.3829,736.7465],[21.8069,49.3815,745.608],[21.803,49.3822,761.6235],[21.8021,49.3804,732.0024],[21.7969,49.3785,657.0222],[21.7951,49.374,630.8972],[21.7918,49.3727,581.6255],[21.7878,49.3677,607.5728],[21.7908,49.3606,641.9253],[21.7885,49.3582,690.8035],[21.7892,49.3555,688.7658],[21.778,49.356,625.7144],[21.7736,49.3591,662.6324],[21.7718,49.3628,638.3621],[21.7723,49.3745,555.0507],[21.7654,49.3746,626.0292],[21.7657,49.3836,568.8626],[21.7589,49.3854,575.1127],[21.759,49.3882,554.7822],[21.7522,49.3883,575.5115],[21.7523,49.3928,584.9673],[21.7395,49.3931,538.0475],[21.7388,49.3976,542.2053],[21.7347,49.399,579.455],[21.7269,49.3981,577.7167],[21.7243,49.4031,549.3663],[21.7238,49.4101,566.8707],[21.7218,49.4123,580.9004],[21.7152,49.4141,571.7485],[21.7102,49.4134,547.4907],[21.6994,49.4185,518.077],[21.6812,49.4108,624.9412],[21.6744,49.4143,635.994],[21.6589,49.4168,609.3149],[21.6564,49.4205,566.4299],[21.6565,49.4246,547.2787],[21.6494,49.4302,598.9186],[21.6443,49.4307,631.5793],[21.6309,49.4473,641.3802],[21.6148,49.4448,564.3865],[21.6016,49.4353,726.3835],[21.5971,49.437,740.9457],[21.5751,49.4363,651.4219],[21.5752,49.4408,608.0289],[21.564,49.4413,723.2556],[21.5566,49.4381,605.394],[21.5521,49.4331,673.4746],[21.5303,49.4351,654.2977],[21.5241,49.4317,578.9356],[21.5218,49.4271,629.2817],[21.5187,49.4254,671.7771],[21.5199,49.4224,657.6052],[21.5235,49.4199,698.8907],[21.522,49.419,692.8405],[21.5131,49.4204,669.0715],[21.4983,49.4295,666.808],[21.4914,49.4308,658.4796],[21.4865,49.4286,629.4867],[21.479,49.4158,591.7347],[21.4737,49.4136,616.9055],[21.467,49.4132,661.9705],[21.4562,49.4163,659.5061],[21.4448,49.4123,570.1838],[21.4461,49.4155,583.7377],[21.4323,49.4158,577.4019],[21.424,49.4198,601.1536],[21.4098,49.4292,617.748],[21.4037,49.4351,640.6254],[21.3927,49.4376,623.6772],[21.3741,49.4354,598.7655],[21.3621,49.4428,653.3174],[21.3503,49.4468,673.7648],[21.3465,49.45,696.5089],[21.3371,49.4514,631.7614],[21.3294,49.4495,573.5903],[21.3108,49.4495,564.9791],[21.2992,49.4524,666.5692],[21.2789,49.4611,675.5574],[21.2698,49.4605,633.1722],[21.2654,49.4554,675.451],[21.2634,49.4494,767.098],[21.2495,49.4433,684.6608],[21.2423,49.4368,743.7357],[21.2327,49.4365,770.7186],[21.2238,49.4275,655.3197],[21.2262,49.418,727.2078],[21.2062,49.4046,746.5242],[21.199,49.4053,720.3868],[21.1894,49.4023,659.6938],[21.1832,49.4056,683.8117],[21.1794,49.4104,662.0361],[21.1686,49.4149,713.1838],[21.1647,49.4183,649.8016],[21.1552,49.421,662.2214],[21.1554,49.4244,709.8741],[21.1523,49.427,768.0359],[21.124,49.4366,890.1534],[21.1189,49.4333,768.0823],[21.1137,49.4239,946.0662],[21.1025,49.4265,985.578],[21.0946,49.4301,879.7769],[21.0798,49.4266,671.0406],[21.0717,49.4271,640.6885],[21.0608,49.4217,760.4082],[21.0557,49.4215,785.9655],[21.0473,49.4183,759.1479],[21.0498,49.4105,699.3844],[21.0543,49.4042,691.4268],[21.0602,49.4023,692.6836],[21.0665,49.4023,720.4158],[21.068,49.3955,721.2052],[21.0832,49.389,717.9861],[21.0894,49.3838,711.1614],[21.0942,49.3831,705.3227],[21.1002,49.3794,692.0308],[21.1013,49.3764,695.1838],[21.0868,49.3673,771.8246],[21.0762,49.3637,741.9194],[21.0644,49.366,725.6155],[21.0546,49.3638,774.0831],[21.0458,49.3674,835.0532],[21.0234,49.356,770.1665],[21.0143,49.3476,740.3853],[21.0113,49.3476,729.8011],[21.007,49.3402,725.1391],[21.009,49.3372,741.5236],[20.9929,49.332,807.3978],[20.9891,49.3284,861.1655],[20.987,49.326,828.9066],[20.9904,49.3189,774.4672],[20.9867,49.311,681.8064],[20.9811,49.3096,653.1743],[20.9824,49.3076,634.7557],[20.9699,49.3099,602.5945],[20.9633,49.3087,596.4819],[20.9619,49.3062,590.3124],[20.9527,49.3029,551.325],[20.9241,49.296,469.3159],[20.9239,49.2995,466.5249],[20.9107,49.3069,497.241],[20.9102,49.3115,465.1856],[20.9033,49.3159,515.96],[20.9041,49.3188,462.238],[20.9076,49.3195,464.0855],[20.9051,49.3228,464.7975],[20.8928,49.3259,653.4319],[20.8855,49.3242,641.2544],[20.8827,49.3208,717.5291],[20.8732,49.3206,842.1681],[20.8796,49.3226,776.9516],[20.8824,49.3331,701.7234],[20.8705,49.3418,462.712],[20.8688,49.3453,444.0905],[20.8655,49.3475,447.3856],[20.8572,49.3498,504.6642],[20.8507,49.3485,446.92],[20.8398,49.3392,481.3737],[20.8273,49.3361,432.0516],[20.8202,49.3393,430.7482],[20.8129,49.3483,435.5919],[20.8079,49.3498,521.7916],[20.7997,49.3481,447.2718],[20.8022,49.3554,422.8166],[20.7979,49.3587,447.101],[20.8007,49.3602,432.7468],[20.8047,49.3595,433.0082],[20.8057,49.3538,418.8126],[20.8071,49.3532,440.3814],[20.8106,49.3554,430.561],[20.8096,49.359,458.1751],[20.8074,49.3606,435.1476],[20.7972,49.3633,416.3022],[20.7887,49.3608,414.8564],[20.7818,49.3615,464.9233],[20.7817,49.3663,458.3214],[20.7883,49.3716,408.3062],[20.786,49.3745,410.3566],[20.7809,49.3771,520.95],[20.758,49.3747,406.02],[20.7616,49.3838,401.6256],[20.7501,49.3904,405.3928],[20.748,49.3934,398.7026],[20.7577,49.3982,425.0998],[20.7582,49.4002,405.0954],[20.755,49.4022,396.0916],[20.7423,49.4038,400.6248],[20.7431,49.4079,389.6402],[20.7461,49.4118,386.4926],[20.7444,49.4145,385.0132],[20.7399,49.4171,485.6552],[20.7264,49.416,381.3867],[20.7237,49.4201,382.4799],[20.6882,49.4207,626.2817],[20.6824,49.4165,659.7471],[20.6658,49.4094,845.767],[20.662,49.4042,886.7754],[20.6531,49.4033,933.5322],[20.6428,49.4051,968.6249],[20.636,49.4104,915.0643],[20.6239,49.4132,903.6645],[20.6164,49.4219,928.5959],[20.6119,49.4171,916.9854],[20.6124,49.4053,915.4951],[20.6059,49.4037,875.6233],[20.5986,49.3923,805.1838],[20.5932,49.3868,905.1475],[20.5826,49.3888,889.66],[20.577,49.3847,913.4608],[20.5751,49.3797,895.4908],[20.5642,49.3819,878.9415],[20.5582,49.3804,922.214],[20.5429,49.3871,885.7485],[20.5088,49.3953,812.7503],[20.5066,49.4049,721.1936],[20.481,49.4109,703.9628],[20.4723,49.4166,648.0323],[20.4547,49.418,438.172],[20.4491,49.4157,482.0482],[20.446,49.4163,459.7215],[20.4509,49.4128,488.2575],[20.4464,49.4119,516.5019],[20.4382,49.4148,492.2345],[20.4367,49.4175,512.0571],[20.4331,49.4178,467.1393],[20.4296,49.4157,526.423],[20.4287,49.4083,473.7787],[20.4369,49.4069,450.3123],[20.4341,49.4017,465.2043],[20.4346,49.3997,454.7583],[20.4303,49.3986,493.4266],[20.4268,49.4028,482.7706],[20.4169,49.4058,461.7759],[20.4142,49.4035,463.1589],[20.4145,49.4001,455.0362],[20.4033,49.3949,495.5986],[20.3867,49.3916,465.2138],[20.3811,49.3935,460.8129],[20.3809,49.4033,463.56],[20.3739,49.4108,532.0019],[20.3682,49.4069,472.31],[20.3677,49.402,480.063],[20.3555,49.4004,474.2513],[20.3497,49.4034,497.0558],[20.3341,49.4059,482.0297],[20.3375,49.4025,478.266],[20.3351,49.4015,513.2756],[20.3251,49.403,607.0038],[20.3222,49.4017,628.1836],[20.3179,49.3931,632.6512],[20.3175,49.3887,597.4388],[20.3284,49.391,536.6181],[20.3211,49.3774,575.8115],[20.3256,49.3713,679.9716],[20.3258,49.3669,697.9598],[20.3224,49.3504,811.3835],[20.3124,49.3439,812.3424],[20.2928,49.3516,622.7444],[20.2731,49.3514,685.6754],[20.2703,49.3489,713.7108],[20.2622,49.3489,781.3214],[20.2537,49.3521,895.5312],[20.2421,49.352,822.0262],[20.2301,49.3469,846.9429],[20.2208,49.3518,972.66],[20.214,49.3484,921.6663],[20.2134,49.3457,923.1276],[20.1986,49.3437,927.39],[20.1922,49.3412,913.5938],[20.1901,49.3384,910.1781],[20.1892,49.3323,916.1043],[20.1842,49.3278,948.2623],[20.1735,49.329,886.8646],[20.1706,49.3277,935.9233],[20.1736,49.325,945.5985],[20.1674,49.3232,867.0533],[20.1735,49.314,931.4346],[20.1654,49.3079,990.7691],[20.1582,49.3092,842.3898],[20.1471,49.3227,834.9533],[20.1449,49.3153,821.7616],[20.141,49.3144,851.0198],[20.1362,49.306,848.8135],[20.1342,49.3059,848.2795],[20.1359,49.3036,862.7226],[20.13,49.296,878.537],[20.1321,49.2934,916.1921],[20.1279,49.2866,903.183],[20.127,49.2764,941.9517],[20.1008,49.2501,994.615],[20.1018,49.2467,1020.5021],[20.0978,49.2346,1031.2623],[20.0999,49.2276,1069.6849],[20.1017,49.2264,1081.2228],[20.0925,49.217,1307.6388],[20.0872,49.2076,1682.609],[20.0872,49.1994,1991.299],[20.0844,49.1962,1960.4973],[20.0859,49.1892,2022.3386],[20.0893,49.1878,2141.1089],[20.0868,49.1848,2208.8777],[20.0882,49.1832,2324.835],[20.0879,49.1795,2423.4922],[20.0769,49.1785,2231.7095],[20.0693,49.1807,2275.332],[20.0602,49.187,2246.4292],[20.0472,49.1903,2020.932],[20.0407,49.195,2089.062],[20.0401,49.1973,2084.5513],[20.0205,49.2015,1928.4968],[20.0082,49.2139,2057.4065],[20.0098,49.2199,2222.0288],[19.9948,49.2244,1978.2317],[19.9845,49.2325,1853.8291],[19.973,49.2325,1703.7374],[19.9343,49.2369,1949.8301],[19.9227,49.2372,1873.5837],[19.9024,49.2308,2062.9033],[19.9026,49.2234,1710.3597],[19.899,49.2168,1697.5774],[19.8886,49.2114,1706.2626],[19.884,49.2049,2033.2638],[19.8765,49.2045,1750.0283],[19.8648,49.1984,1898.3118],[19.8755,49.1884,1882.1497],[19.8932,49.1666,1652.6724],[19.8955,49.1418,957.5125],[19.8974,49.1364,916.8495],[19.9012,49.1324,949.3165],[19.905,49.132,957.8078],[19.9128,49.1366,996.8594],[19.9358,49.1361,1029.2611],[19.9378,49.1343,1016.3618],[19.9385,49.128,986.9565],[19.946,49.1152,969.6554],[19.9522,49.1147,927.2405],[19.9555,49.1198,981.6196],[19.9581,49.1205,1043.2863],[19.9665,49.1114,1008.5156],[19.9704,49.1099,1018.2726],[19.9811,49.1123,1100.3367],[19.9928,49.1129,1000.1429],[20.0032,49.1168,1044.6047],[20.0144,49.1175,1152.8092],[20.0238,49.123,1300.1663],[20.031,49.1224,1303.3591],[20.0343,49.1206,1299.6907],[20.0321,49.1057,1027.2208],[20.0253,49.0967,925.1145],[20.0203,49.0838,869.9409],[20.0137,49.0774,856.1132],[20.016,49.0728,832.3294],[20.0161,49.0675,831.5797],[20.0096,49.0493,882.1105],[20.0095,49.0266,918.1147],[19.998,49.0236,847.5814],[19.9746,49.0232,963.8394],[19.9689,49.0187,819.3694],[19.9901,49.0007,1036.4631],[19.9937,48.9915,1240.8066],[20.0015,48.9801,1265.2358],[20.0052,48.9717,1258.2074],[20.0259,48.948,1326.0234],[20.0298,48.9457,1340.5675],[20.0354,48.9454,1194.8912],[20.0508,48.9478,1302.3865],[20.0555,48.9467,1342.7384],[20.0578,48.9438,1334.1499],[20.0551,48.9371,1381.1671],[20.0476,48.9326,1326.3372],[20.0202,48.9268,1295.6438],[20.0015,48.9253,1232.3622],[19.9916,48.9212,1434.558],[19.9988,48.917,1388.1608],[20.0365,48.9114,1280.0576],[20.0553,48.9041,1299.25],[20.0736,48.8993,1544.8378],[20.1005,48.8989,1524.7415],[20.1197,48.8942,1525.8206],[20.1468,48.8918,1654.8962],[20.1545,48.8948,1545.3464],[20.1649,48.908,1299.6588],[20.1721,48.91,1503.7168],[20.2032,48.8958,1063.7047],[20.2344,48.8877,956.6312],[20.2456,48.8797,989.77],[20.25,48.879,959.7597],[20.256,48.8809,906.8461],[20.2585,48.8855,982.6829],[20.2686,48.8954,1098.6056],[20.2791,48.9004,1089.1804],[20.2811,48.9066,884.3224],[20.2877,48.9109,805.4719],[20.2905,48.9152,760.806],[20.3139,48.919,699.0909],[20.3189,48.9228,671.5385],[20.3185,48.9315,764.2397],[20.313,48.9374,903.5866],[20.2885,48.9436,732.4096],[20.2824,48.947,784.3549],[20.2859,48.956,913.1664],[20.3009,48.9634,959.5493],[20.3331,48.973,775.5845],[20.3525,48.9809,594.4318],[20.3682,48.9836,564.8235],[20.3866,48.9893,558.7313],[20.4014,48.9895,569.813],[20.4048,48.9922,565.8646],[20.4079,48.9985,591.3704],[20.4114,49.0005,609.0135],[20.4178,49.0,586.2511],[20.4457,48.9886,527.2705],[20.463,48.9866,528.6018],[20.4675,48.9829,519.9391],[20.4663,48.9741,520.8419],[20.4742,48.9719,508.4907],[20.4782,48.9743,499.0135],[20.4766,48.9833,512.96],[20.4787,48.9906,519.7089],[20.4732,48.9978,545.1934],[20.4737,49.0034,554.6111],[20.4898,49.0123,657.54],[20.4939,49.0173,632.6213],[20.4993,49.0181,618.2369],[20.5052,49.013,668.2184],[20.5049,49.0048,618.1489],[20.5247,48.9965,554.4573],[20.532,48.9908,533.4735],[20.542,48.9888,540.8284],[20.5551,48.9825,522.9695],[20.585,48.981,541.4585],[20.6054,48.9656,608.5404],[20.6434,48.957,540.369],[20.655,48.9563,545.3417],[20.6714,48.9626,491.333],[20.6902,48.9645,490.8751],[20.7134,48.9719,467.7964],[20.7214,48.9717,522.3563],[20.7357,48.9681,494.8054],[20.7401,48.9694,459.386],[20.748,48.9756,421.014],[20.7632,48.9755,461.4355],[20.7643,48.9771,422.7369],[20.7589,48.9859,434.1566],[20.7566,48.9981,437.5302],[20.7599,49.0026,456.7415],[20.7663,49.0037,507.4551],[20.773,49.0025,488.4099],[20.7882,48.9933,472.9822],[20.7917,48.989,452.8403],[20.8035,48.9865,459.6124],[20.8126,48.9821,550.3127],[20.836,48.9802,571.7587],[20.8515,48.9733,602.8072],[20.8832,48.9698,891.2435],[20.9008,48.9631,878.6111],[20.9249,48.9579,639.7196],[20.9382,48.9503,702.6523],[20.9584,48.947,565.4202],[20.9677,48.9471,596.3701],[20.9748,48.9497,572.0193],[20.9809,48.9483,634.194],[20.9905,48.9405,774.0848],[21.0024,48.9355,774.2302],[21.013,48.9227,998.4212],[21.0223,48.9188,728.4149],[21.0248,48.9103,572.6961],[21.0298,48.9069,515.8667],[21.0832,48.9026,655.0059],[21.096,48.8988,635.7842],[21.1084,48.9032,439.2339],[21.1213,48.9013,507.409],[21.1362,48.9024,454.9128],[21.1607,48.8894,406.8292],[21.1663,48.889,462.6654],[21.176,48.8928,479.3863],[21.1827,48.8927,415.2663],[21.1851,48.8907,426.1116],[21.1876,48.8809,633.9728],[21.1952,48.8762,459.3712],[21.2246,48.8725,295.4925],[21.2353,48.874,321.7188],[21.2504,48.8698,240.9734],[21.2626,48.8713,212.5411],[21.2662,48.8676,212.0176],[21.2651,48.8599,211.8961],[21.2562,48.8541,236.1127],[21.2474,48.8454,333.3101],[21.2488,48.8403,370.7582],[21.2481,48.8349,402.901],[21.2511,48.8308,396.752],[21.2483,48.8249,338.6379],[21.2509,48.8217,331.5442],[21.2591,48.819,312.9023],[21.2693,48.8186,301.788],[21.2761,48.8246,257.2499],[21.2936,48.8302,215.0814],[21.3081,48.8306,204.6817],[21.3204,48.836,220.7331],[21.3518,48.8412,288.5761],[21.3632,48.8465,360.3173],[21.3852,48.853,420.1038],[21.3875,48.8551,403.685],[21.3872,48.8582,400.1052],[21.3774,48.8707,475.0265],[21.3778,48.8783,504.6929],[21.3837,48.881,519.6544],[21.3924,48.8815,476.8086],[21.4119,48.8781,425.1516],[21.4139,48.8806,453.624],[21.4144,48.8911,490.4319],[21.4189,48.893,480.2942],[21.4273,48.8826,475.2765],[21.4404,48.875,409.1811],[21.4581,48.8694,544.9844],[21.472,48.86,653.097],[21.4876,48.8571,800.0151],[21.4893,48.8476,878.0521],[21.4922,48.8431,889.2632],[21.4965,48.8397,830.4525],[21.5168,48.8303,726.6796],[21.5265,48.8218,668.9834],[21.5292,48.8107,673.1614],[21.5459,48.7945,826.1359]]]]}
,"properties": {"GID_1": "SVK.5_1","GID_0": "SVK","country": "Slovakia","province": "Prešovský","VARNAME_1": "NA","NL_NAME_1": "NA","TYPE_1": "Kraj","ENGTYPE_1": "Region","CC_1": "NA","HASC_1": "SK.PV","ISO_1": "NA","name": "Prešovský.province","area_km2": 8936.606,"hist_schema_id": "Elevation0-9000","hist_area_km2": {"100": 4.359,"125": 109.47,"150": 113.449,"175": 152.678,"200": 186.972,"225": 235.062,"250": 279.807,"275": 321.144,"300": 346.835,"325": 376.298,"350": 384.947,"375": 384.673,"400": 348.946,"425": 324.768,"450": 310.295,"475": 311.652,"500": 288.857,"525": 273.964,"550": 254.97,"575": 251.008,"600": 246.698,"625": 253.569,"650": 262.554,"675": 274.017,"700": 266.66,"725": 227.803,"750": 203.569,"775": 184.793,"800": 165.043,"825": 157.946,"850": 152.225,"875": 141.357,"900": 128.396,"925": 109.662,"950": 92.391,"975": 79.74,"1000": 68.907,"1025": 60.313,"1050": 51.11,"1075": 44.761,"1100": 39.354,"1125": 35.664,"1150": 30.438,"1175": 26.25,"1200": 22.176,"1225": 19.068,"1250": 16.848,"1275": 15.85,"1300": 15.515,"1325": 15.137,"1350": 13.509,"1375": 12.159,"1400": 12.268,"1425": 11.227,"1450": 10.848,"1475": 9.598,"1500": 10.151,"1525": 9.928,"1550": 8.969,"1575": 9.163,"1600": 8.136,"1625": 8.176,"1650": 7.788,"1675": 7.94,"1700": 7.787,"1725": 7.787,"1750": 7.537,"1775": 7.219,"1800": 6.637,"1825": 6.748,"1850": 6.928,"1875": 6.125,"1900": 6.429,"1925": 5.959,"1950": 6.541,"1975": 5.419,"2000": 4.684,"2025": 5.128,"2050": 4.241,"2075": 4.269,"2100": 3.687,"2125": 3.701,"2150": 3.23,"2175": 3.133,"2200": 2.606,"2225": 2.342,"2250": 2.204,"2275": 2.232,"2300": 1.58,"2325": 1.206,"2350": 0.942,"2375": 0.513,"2400": 0.554,"2425": 0.346,"2450": 0.346,"2475": 0.277,"2500": 0.222,"2525": 0.069,"2550": 0.111}}}