{"type":"Feature","properties":{"ISO3166-1-Alpha-3":"SVK","country":"Slovakia","fill":"#F00","id":"1058","name":"Prešov"},
"geometry":{"type": "Polygon","coordinates": [[[21.42787,49.4098,517.8646],[21.33041,49.42779,490.6232],[21.27439,49.44727,715.2413],[21.26054,49.44944,757.5134],[21.24245,49.44127,658.4935],[21.21124,49.41109,609.2322],[21.19409,49.4006,634.4569],[21.17259,49.39828,665.2302],[21.15729,49.40515,534.822],[21.14303,49.41554,544.8674],[21.12494,49.42365,780.4665],[21.10944,49.42458,969.3566],[21.06882,49.41921,719.3422],[21.05353,49.41445,669.6033],[21.03327,49.39967,589.4511],[21.04546,49.39058,591.2334],[21.06851,49.38143,632.1613],[21.08071,49.36634,720.7191],[21.07254,49.3572,689.3319],[21.05404,49.35477,646.1905],[21.03296,49.35461,731.8961],[21.01725,49.35244,791.1581],[20.99668,49.33937,686.1652],[20.96402,49.3081,596.4819],[20.94242,49.29586,548.2052],[20.91896,49.29033,512.9879],[20.90056,49.2926,579.6927],[20.88434,49.3003,660.9229],[20.86801,49.31141,829.7094],[20.8493,49.3205,631.3232],[20.83359,49.32206,524.9298],[20.81654,49.32138,650.007],[20.79411,49.32366,629.6597],[20.7783,49.3312,509.9375],[20.68952,49.4005,670.4366],[20.67391,49.40231,819.7285],[20.63608,49.39833,949.1733],[20.61448,49.40045,940.2749],[20.60528,49.40003,899.9031],[20.59505,49.39626,780.5453],[20.57914,49.3834,925.6388],[20.56766,49.37637,913.7302],[20.544,49.37084,717.9623],[20.52209,49.37435,657.9174],[20.43754,49.40252,475.7628],[20.42194,49.40019,580.5419],[20.42214,49.38298,498.1652],[20.37047,49.38169,612.0811],[20.32954,49.39177,524.2508],[20.31765,49.39161,597.4498],[20.30742,49.3866,652.2802],[20.3037,49.3804,619.1622],[20.30163,49.3712,644.7299],[20.29647,49.35694,597.1044],[20.28933,49.34309,669.3064],[20.28437,49.33864,690.6416],[20.20717,49.3342,888.8984],[20.19198,49.32862,851.2773],[20.17017,49.31162,1019.0057],[20.16035,49.30562,869.9246],[20.13834,49.30733,849.2934],[20.13586,49.30888,856.1042],[20.13017,49.30392,880.3295],[20.11105,49.27586,1113.6982],[20.10537,49.26397,1122.6414],[20.09844,49.25286,1023.9338],[20.08604,49.24304,1337.3469],[20.08036,49.20811,1382.084],[20.07002,49.1831,2286.4258],[20.05049,49.17323,2091.7869],[20.01731,49.18387,1506.6797],[19.96574,49.21565,1568.5159],[19.93794,49.22511,1466.0453],[19.9059,49.22278,1745.9796],[19.88781,49.214,1564.656],[19.86829,49.20079,1833.0267],[19.86936,49.19767,1981.6592],[19.8905,49.17421,1809.6279],[19.89546,49.1662,1565.6377],[19.89918,49.15684,1289.83],[19.89964,49.14452,969.1705],[19.90088,49.13814,926.0148],[19.90553,49.13261,958.0128],[19.90879,49.13129,974.8613],[19.91158,49.13176,983.6945],[19.91344,49.13362,994.0614],[19.91685,49.13612,1023.1354],[19.92073,49.13767,1038.7307],[19.92801,49.13824,1049.9711],[19.93427,49.13736,1059.9307],[19.94031,49.13393,1006.6816],[19.94527,49.1285,981.7407],[19.95148,49.11853,930.6475],[19.95535,49.11494,963.3398],[19.95845,49.11406,959.9089],[19.96109,49.11581,1022.0867],[19.96357,49.11664,1013.0987],[19.96651,49.11561,1041.0034],[19.96961,49.11183,1031.0546],[19.97271,49.1092,1015.7125],[19.97597,49.10739,979.2859],[19.97985,49.10739,974.7924],[19.99943,49.10972,1009.467],[20.01307,49.11388,1093.868],[20.01834,49.11499,1111.2933],[20.02362,49.1153,1058.5309],[20.02641,49.11111,1053.1769],[20.02718,49.10331,999.0797],[20.02098,49.07385,856.9197],[20.02067,49.06279,887.2257],[20.01943,49.05445,889.163],[20.01462,49.04011,976.1864],[20.01369,49.0275,1031.4906],[20.01183,49.02143,1070.4807],[20.00811,49.01879,979.0236],[20.00145,49.01833,867.8437],[19.99059,49.01492,792.1532],[19.98517,49.01476,848.2466],[19.97799,49.01538,793.1846],[19.97473,49.01476,827.8933],[19.97364,49.01225,865.7264],[19.97457,49.00804,986.5596],[20.00873,48.97866,1222.4668],[20.01478,48.97479,1274.6218],[20.01958,48.97071,1255.7747],[20.02284,48.96595,1260.2637],[20.02424,48.95727,1356.0027],[20.02827,48.94737,1292.6801],[20.03044,48.94347,1277.7712],[20.03261,48.94079,1276.1138],[20.03571,48.93862,1304.6201],[20.04067,48.93737,1336.616],[20.05173,48.93598,1389.6909],[20.05405,48.93368,1387.4148],[20.05188,48.92957,1315.4453],[20.04098,48.92208,1335.7161],[20.03028,48.9166,1216.6997],[19.99618,48.90658,1555.6664],[20.14015,48.89474,1575.2827],[20.15911,48.89567,1508.0516],[20.17461,48.90474,1439.043],[20.18128,48.90482,1347.7411],[20.19957,48.89857,1144.4056],[20.21916,48.89433,993.0828],[20.22458,48.89242,1010.7124],[20.23187,48.88857,974.0555],[20.2727,48.87278,886.6534],[20.28742,48.88208,1046.3701],[20.29921,48.90149,1042.4508],[20.30603,48.90813,1026.7123],[20.31161,48.9119,839.1492],[20.34127,48.92448,673.241],[20.3267,48.9367,682.8672],[20.31362,48.93949,951.3707],[20.302,48.94068,910.2607],[20.29921,48.9428,958.1659],[20.29967,48.94492,958.4316],[20.31145,48.95221,985.452],[20.32406,48.96394,820.9781],[20.32918,48.9673,803.847],[20.34236,48.97303,718.0068],[20.38613,48.9858,552.3958],[20.3931,48.9897,568.9926],[20.39574,48.99078,572.6193],[20.39837,48.99094,573.0974],[20.40054,48.99008,569.813],[20.4038,48.9904,558.5758],[20.40845,48.99215,571.6552],[20.42395,49.00202,598.562],[20.42798,49.00337,579.8435],[20.43046,49.00269,574.4735],[20.433,49.00125,597.6991],[20.43403,49.00001,595.1763],[20.44121,48.99892,546.384],[20.46385,48.98874,529.58],[20.4795,48.97396,499.0135],[20.48323,48.97122,499.0386],[20.48509,48.9704,496.2065],[20.48462,48.97148,506.4813],[20.48354,48.97228,508.1874],[20.48183,48.97319,508.1874],[20.47997,48.97489,504.3148],[20.47826,48.97753,501.6361],[20.47656,48.98257,512.96],[20.47625,48.98474,521.6317],[20.47671,48.98626,526.4132],[20.4795,48.98719,536.5785],[20.50312,48.99257,565.1431],[20.50669,48.99391,578.7523],[20.50638,48.99567,577.9458],[20.50126,49.00176,574.4048],[20.5025,49.00494,607.7498],[20.50529,49.00833,672.555],[20.5132,49.01365,685.3095],[20.51785,49.01458,661.8011],[20.52296,49.01329,654.9221],[20.52374,49.01057,643.1895],[20.52141,49.00342,620.5797],[20.52358,49.00047,591.4885],[20.52886,48.99719,580.0827],[20.55526,48.98378,537.5765],[20.57929,48.97443,460.2174],[20.60022,48.97293,627.714],[20.60849,48.97164,617.9097],[20.61361,48.96998,583.5026],[20.61547,48.9675,541.7725],[20.62771,48.95407,496.3039],[20.63391,48.95226,540.245],[20.64554,48.95169,530.2915],[20.658,48.95267,516.9308],[20.66838,48.95582,430.1155],[20.67241,48.9575,465.9164],[20.6752,48.95908,498.4988],[20.68032,48.96275,562.9092],[20.68094,48.96373,562.9092],[20.68047,48.96502,591.953],[20.67768,48.96895,586.3498],[20.67706,48.97055,602.5568],[20.67722,48.97205,602.5568],[20.6783,48.97339,563.2054],[20.68249,48.97474,559.9399],[20.68885,48.97598,608.7525],[20.70714,48.97675,485.7764],[20.76982,48.9698,503.3297],[20.77323,48.97071,514.4224],[20.77499,48.97153,507.4931],[20.7753,48.97262,473.3194],[20.77344,48.97381,423.812],[20.76848,48.97613,431.8996],[20.76672,48.97717,455.9377],[20.76564,48.97825,422.7369],[20.76564,48.98006,458.6367],[20.7661,48.98254,496.992],[20.76734,48.98647,485.3828],[20.76781,48.98941,503.4473],[20.7675,48.99184,492.1907],[20.76502,48.99533,490.8652],[20.76424,48.99732,537.1973],[20.76533,49.00006,536.8855],[20.76817,49.00047,591.9761],[20.77933,48.99866,517.4369],[20.80305,48.99164,458.5171],[20.81871,48.98923,552.0861],[20.82398,48.98724,537.1199],[20.82491,48.98528,569.69],[20.82088,48.98239,559.7475],[20.82103,48.9799,585.666],[20.82419,48.97737,547.143],[20.83566,48.97386,519.7639],[20.84202,48.97277,576.7935],[20.84667,48.97246,580.0531],[20.87829,48.97696,986.3862],[20.89834,48.96549,892.6467],[20.91912,48.96339,636.948],[20.94723,48.95122,584.2628],[20.95172,48.95066,449.399],[20.95312,48.9519,472.312],[20.95389,48.95314,442.7809],[20.95731,48.95443,466.2701],[20.96304,48.95577,461.5471],[20.97668,48.95712,478.7085],[20.98257,48.95665,506.2906],[20.98645,48.95526,512.5813],[20.98909,48.95001,593.8739],[20.98955,48.9475,621.6823],[20.98955,48.94518,678.0327],[20.98924,48.94244,720.7376],[20.99141,48.93779,822.6682],[20.99596,48.93334,908.3245],[21.01255,48.92285,992.7322],[21.01534,48.92012,884.2614],[21.01549,48.91846,893.1349],[21.01658,48.91608,903.9711],[21.01859,48.91285,813.8396],[21.02433,48.90709,507.0876],[21.02836,48.90466,509.1026],[21.03224,48.90373,614.0344],[21.03611,48.90428,631.6401],[21.0389,48.9049,659.4347],[21.0527,48.90596,779.7124],[21.09073,48.89748,683.444],[21.10996,48.89585,574.5864],[21.11466,48.89598,591.3338],[21.13295,48.89986,465.0179],[21.13776,48.89965,412.5048],[21.14148,48.89885,472.1233],[21.14458,48.89733,406.2714],[21.14954,48.89541,427.3048],[21.15326,48.89361,420.252],[21.15605,48.89167,423.3773],[21.15791,48.88957,464.5099],[21.16101,48.88671,413.3729],[21.16587,48.88306,397.8278],[21.17471,48.87774,451.1374],[21.1806,48.87604,434.2119],[21.20106,48.87867,481.312],[21.21564,48.8751,465.4991],[21.2253,48.87495,262.7433],[21.23228,48.87286,334.9109],[21.2391,48.86942,284.5144],[21.24406,48.86849,272.8275],[21.24964,48.8687,235.7912],[21.25584,48.87045,212.6912],[21.25863,48.87007,212.6771],[21.26003,48.8688,212.6212],[21.26049,48.86704,212.1707],[21.2622,48.86363,211.8143],[21.26189,48.86213,211.8143],[21.26049,48.86058,211.3491],[21.25444,48.85676,241.0379],[21.25243,48.85495,251.7484],[21.25088,48.85291,281.0061],[21.24514,48.84823,350.8537],[21.24313,48.84609,350.2961],[21.2422,48.84389,375.9479],[21.24235,48.8419,408.5831],[21.24282,48.8394,414.4963],[21.25367,48.82782,367.9794],[21.27196,48.81687,293.2115],[21.28287,48.8132,275.2755],[21.29496,48.81232,225.9738],[21.30829,48.81327,201.2193],[21.31108,48.81405,203.2982],[21.31201,48.81501,203.2982],[21.31186,48.81575,201.0826],[21.31031,48.81692,203.5693],[21.3055,48.81948,200.8629],[21.30395,48.82103,203.5536],[21.30302,48.82304,204.115],[21.30287,48.82513,204.5093],[21.30364,48.8273,203.3891],[21.30519,48.82922,204.0989],[21.30752,48.831,204.6817],[21.31139,48.83208,205.4231],[21.31651,48.83263,208.0067],[21.33093,48.83258,266.3522],[21.33547,48.83309,290.3159],[21.34726,48.83624,261.5429],[21.36322,48.83733,398.2166],[21.36648,48.83795,416.5554],[21.3702,48.83919,415.939],[21.37361,48.84144,426.0777],[21.37656,48.8457,425.02],[21.3795,48.85288,440.517],[21.38198,48.8658,416.7031],[21.38167,48.86896,426.1052],[21.38043,48.87133,437.6031],[21.37718,48.87536,464.9187],[21.37842,48.8772,504.6929],[21.38198,48.87888,526.3575],[21.39128,48.88094,476.8086],[21.39614,48.88105,420.7444],[21.39986,48.88027,450.8894],[21.40699,48.87629,498.1982],[21.41102,48.87324,495.8565],[21.41366,48.8727,435.5153],[21.41537,48.87469,408.1875],[21.41661,48.87867,411.6609],[21.41769,48.88624,444.1361],[21.41986,48.88818,481.6213],[21.42157,48.88808,497.5196],[21.42281,48.88565,507.4816],[21.42327,48.88317,488.3344],[21.42591,48.87996,481.9019],[21.43025,48.8764,437.7905],[21.44317,48.87208,428.6661],[21.45076,48.87133,475.9153],[21.45882,48.8727,529.8881],[21.46348,48.87474,546.4179],[21.46596,48.87642,562.0806],[21.48006,48.88107,649.5711],[21.49185,48.86188,835.7181],[21.49293,48.85699,916.438],[21.49417,48.84694,925.4439],[21.49732,48.84082,872.8693],[21.50301,48.8332,786.4573],[21.50771,48.82849,749.0854],[21.5367,48.79382,861.306],[21.59954,48.77744,707.9048],[21.62533,48.77436,376.8871],[21.64284,48.7749,229.7106],[21.65106,48.77434,190.9289],[21.65819,48.77237,168.2274],[21.677,48.76317,125.79],[21.68785,48.76082,121.7472],[21.69747,48.76012,118.1541],[21.70537,48.76105,114.574],[21.71095,48.76237,113.0307],[21.71498,48.76385,113.0781],[21.71762,48.76532,112.7092],[21.71917,48.76689,111.1792],[21.72057,48.77025,111.331],[21.7215,48.7716,111.8148],[21.72821,48.77374,110.5049],[21.751,48.77656,111.4063],[21.76744,48.78638,111.4525],[21.7864,48.79056,145.9202],[21.79198,48.79278,159.6113],[21.79601,48.79578,175.0695],[21.79911,48.80121,181.8016],[21.80066,48.80555,188.2129],[21.80051,48.80919,179.3963],[21.79896,48.81325,207.7131],[21.79338,48.82203,209.9196],[21.79198,48.82503,198.482],[21.79152,48.82759,195.7257],[21.79214,48.83387,185.2346],[21.79152,48.83588,184.8912],[21.78733,48.84624,202.2381],[21.78671,48.85004,211.6036],[21.78671,48.86322,203.1507],[21.78609,48.86611,177.7512],[21.78516,48.86803,166.0003],[21.78454,48.86989,151.8333],[21.78563,48.89526,219.899],[21.8233,48.89454,183.2832],[21.91999,48.87381,454.558],[21.93363,48.86942,392.7307],[21.93905,48.8672,408.1159],[21.94153,48.86549,360.5781],[21.94122,48.86399,357.0913],[21.94732,48.86038,330.1923],[21.9929,48.84221,458.7244],[22.01404,48.83862,499.8292],[22.03264,48.83829,356.4851],[22.06256,48.84152,332.7881],[22.12013,48.84237,258.1712],[22.12375,48.84296,255.4945],[22.12576,48.84389,265.3738],[22.127,48.84699,282.416],[22.12654,48.85167,348.2031],[22.12375,48.8612,534.1415],[22.11971,48.8704,701.5661],[22.11889,48.87286,780.5778],[22.11878,48.87516,795.9827],[22.1192,48.87733,781.6384],[22.12266,48.87996,857.5706],[22.12545,48.88182,884.0543],[22.14669,48.88782,796.3726],[22.18395,48.92146,842.2381],[22.21108,48.92172,812.1627],[22.22844,48.9151,770.2614],[22.23175,48.91128,887.713],[22.23278,48.90735,939.9897],[22.23299,48.90366,929.6041],[22.23485,48.89893,859.1902],[22.2502,48.87487,793.7957],[22.25082,48.86839,829.5666],[22.2519,48.86332,804.9812],[22.25547,48.861,788.066],[22.26058,48.85976,869.8177],[22.2935,48.861,497.0353],[22.31924,48.86601,442.0988],[22.3242,48.86627,430.1783],[22.37014,48.85836,355.4549],[22.3708,48.85825,375.1321],[22.37841,48.86544,410.0748],[22.40238,48.87883,467.1213],[22.41179,48.88777,213.8491],[22.41375,48.89386,225.1905],[22.41365,48.90678,307.1104],[22.41489,48.91169,291.4384],[22.42729,48.92947,472.6186],[22.449,48.97143,476.2371],[22.46657,48.98053,599.7639],[22.50501,48.98425,685.1545],[22.52052,48.99293,911.6292],[22.5201,49.00983,863.5953],[22.52475,49.03287,503.9965],[22.53199,49.05571,578.0529],[22.53964,49.0722,708.8708],[22.50501,49.08341,764.3057],[22.42678,49.08564,986.2493],[22.39009,49.09303,597.5411],[22.33944,49.12646,563.332],[22.31815,49.13199,781.3876],[22.26286,49.13059,626.0518],[22.21594,49.14,648.6374],[22.20849,49.14418,676.2084],[22.20622,49.15049,586.155],[22.20901,49.15695,650.5544],[22.20891,49.16398,562.5103],[22.19795,49.17199,632.8826],[22.18968,49.17302,767.03],[22.16571,49.17111,511.6868],[22.15568,49.17152,653.8953],[22.14411,49.17488,646.8381],[22.11155,49.18863,519.1075],[22.04075,49.19746,461.4584],[22.01243,49.21105,519.3002],[22.00582,49.24289,688.0305],[21.99321,49.27818,542.1657],[21.964479999999998,49.30857,602.5361],[21.92841,49.33079,579.1194],[21.87456,49.34836,548.7861],[21.83787,49.37042,588.8261],[21.81958,49.37725,656.7139],[21.79942,49.37482,594.4276],[21.78216,49.36448,582.3287],[21.768,49.35347,560.9468],[21.75757,49.34893,624.5197],[21.74217,49.35709,500.5357],[21.70858,49.39089,488.1707],[21.69173,49.40215,576.7342],[21.68181,49.40407,528.595],[21.6663,49.40179,505.7538],[21.65876,49.40246,504.5348],[21.64863,49.40706,512.1425],[21.63003,49.4189,427.2812],[21.6199,49.42334,514.7432],[21.60119,49.42649,691.4123],[21.52957,49.42122,561.54],[21.51442,49.41721,663.0796],[21.49619,49.41239,534.4157],[21.48151,49.41523,599.4102],[21.44441,49.40991,562.5852],[21.42787,49.4098,517.8646]]]}}