{"type":"Feature","properties":{"GID_2":"SVK.5.2_1","GID_0":"SVK","country":"Slovakia","GID_1":"SVK.5_1","province":"Prešovský","NL_NAME_1":"NA","county":"Humenné","VARNAME_2":"NA","NL_NAME_2":"NA","TYPE_2":"Okres","ENGTYPE_2":"District","CC_2":"NA","HASC_2":"SK.PV.HE","name":"Humenné.county"},
"geometry":{"type": "MultiPolygon","coordinates": [[[[22.1188,49.201,849.7095],[22.1157,49.201,852.0396],[22.1104,49.1926,608.7999],[22.1001,49.1852,641.2688],[22.0932,49.1741,513.7777],[22.0868,49.1673,491.9906],[22.0881,49.1599,446.5349],[22.0851,49.1563,495.0531],[22.0567,49.1437,524.0344],[22.0406,49.1404,672.9749],[22.0306,49.1364,589.7166],[22.0184,49.1275,390.6752],[21.9884,49.1272,288.4656],[21.9679,49.1247,385.0589],[21.9644,49.1203,397.9472],[21.9622,49.101,395.1473],[21.9576,49.0963,343.0614],[21.9502,49.0942,270.6009],[21.939,49.0972,210.6975],[21.9286,49.1053,282.3362],[21.9153,49.1059,293.1423],[21.9051,49.103,461.2495],[21.8956,49.0938,490.9159],[21.8902,49.0928,549.4181],[21.8846,49.098,486.0023],[21.8825,49.1084,453.2812],[21.8792,49.1122,408.914],[21.8524,49.1135,327.3887],[21.8362,49.1194,235.2405],[21.8196,49.1305,394.594],[21.8153,49.1355,465.5335],[21.7854,49.1959,498.5654],[21.7759,49.191,435.3377],[21.7735,49.1873,401.0432],[21.7737,49.1778,356.4119],[21.7712,49.1652,517.0481],[21.7738,49.1551,383.6634],[21.7551,49.1445,343.9852],[21.7503,49.1398,373.1849],[21.7489,49.1359,434.4359],[21.7535,49.1311,385.7463],[21.755,49.1271,400.5618],[21.7551,49.1012,365.6664],[21.7717,49.0846,278.6731],[21.7744,49.073,276.1657],[21.782,49.0681,257.0837],[21.7807,49.0661,257.5718],[21.7707,49.0614,253.6856],[21.7617,49.0463,267.6122],[21.7535,49.0384,275.6075],[21.7526,49.0354,312.7369],[21.7558,49.0325,334.8133],[21.7737,49.0285,202.3306],[21.779,49.0253,156.2896],[21.78,49.0215,175.8972],[21.7764,49.0139,219.6736],[21.7836,49.0045,322.4791],[21.7842,48.9957,339.3148],[21.7865,48.9898,235.3196],[21.7906,48.985,230.2145],[21.8026,48.9769,291.1556],[21.8057,48.9727,275.1395],[21.8063,48.9664,243.3139],[21.8027,48.9544,190.0046],[21.7968,48.9454,230.5195],[21.7887,48.9385,214.0155],[21.783,48.9265,215.6928],[21.7884,48.9162,171.6046],[21.7877,48.905,134.6066],[21.8042,48.9018,298.412],[21.8125,48.9058,250.3443],[21.8193,48.9066,239.9635],[21.837,48.8992,142.6768],[21.8651,48.8934,512.132],[21.8897,48.8926,376.3574],[21.9053,48.8902,328.1811],[21.9329,48.8793,290.9916],[21.94,48.8704,435.5262],[21.9522,48.862,321.1763],[21.9577,48.8561,342.8401],[21.9842,48.8505,539.3429],[22.0239,48.859,669.4433],[22.0538,48.8567,609.6812],[22.0678,48.8596,637.4053],[22.0795,48.8599,559.1339],[22.0938,48.8567,587.9308],[22.1127,48.8562,375.4523],[22.125,48.8539,421.2328],[22.1332,48.8554,386.5272],[22.1369,48.8647,574.6373],[22.135,48.8751,672.8966],[22.1366,48.8847,791.0256],[22.1527,48.8927,896.0614],[22.161,48.9004,866.8896],[22.164,48.9011,820.9514],[22.1646,48.8999,846.2596],[22.1941,48.9209,714.4779],[22.206,48.9273,901.6063],[22.2031,48.9307,874.6875],[22.1965,48.9358,709.3699],[22.1879,48.9381,673.7892],[22.1647,48.9387,457.1517],[22.1617,48.9465,417.0135],[22.1558,48.953,378.3883],[22.1519,48.9521,348.0715],[22.145,48.945,452.0561],[22.1304,48.9443,443.4401],[22.1275,48.9415,510.5488],[22.1267,48.9362,638.4436],[22.1213,48.9347,689.4188],[22.1068,48.9361,663.3374],[22.095,48.943,471.5938],[22.0793,48.9444,339.7225],[22.0608,48.9535,187.0855],[22.0387,48.952,175.431],[22.0335,48.9551,175.5274],[22.0293,48.9619,193.9025],[22.0308,48.9658,253.1342],[22.0568,48.9833,224.698],[22.0606,48.9909,289.1288],[22.0604,49.0059,393.697],[22.0644,49.0112,407.5351],[22.072,49.014,289.3913],[22.0955,49.0128,363.866],[22.1071,49.0171,363.3253],[22.1132,49.0234,400.305],[22.1205,49.0275,375.8005],[22.1206,49.0309,287.8336],[22.1055,49.0401,357.5532],[22.1073,49.0483,349.2632],[22.1034,49.055,286.7574],[22.1036,49.0577,323.6258],[22.1146,49.0674,428.7059],[22.1393,49.0758,532.5856],[22.1422,49.0786,477.438],[22.14,49.0933,506.766],[22.1372,49.0981,524.1807],[22.1309,49.1014,583.6583],[22.1184,49.1025,608.2676],[22.1151,49.1055,509.7342],[22.1181,49.1372,400.3457],[22.1229,49.142,411.9917],[22.1387,49.1464,430.9674],[22.1394,49.1485,454.9303],[22.1369,49.1557,530.1898],[22.1382,49.163,571.1345],[22.1465,49.1709,609.8787],[22.151,49.179,674.2426],[22.1623,49.1865,813.713],[22.1431,49.1927,777.4723],[22.1438,49.2005,850.7433],[22.13,49.2002,781.9364],[22.1245,49.2022,894.5932],[22.1188,49.201,849.7095]]]]}}