{"type":"Feature","properties":{"GID_2":"SVK.3.11_1","GID_0":"SVK","country":"Slovakia","GID_1":"SVK.3_1","province":"Košický","NL_NAME_1":"NA","county":"Trebišov","VARNAME_2":"NA","NL_NAME_2":"NA","TYPE_2":"Okres","ENGTYPE_2":"District","CC_2":"811","HASC_2":"SK.KI.TV","name":"Trebišov.county"},
"geometry":{"type": "MultiPolygon","coordinates": [[[[22.1238,48.3815,103.0775],[22.1422,48.3842,103.6577],[22.136,48.3934,96.0],[22.1568,48.401,105.2983],[22.1573,48.4054,103.6124],[22.1428,48.4034,103.1157],[22.1508,48.4101,104.056],[22.1417,48.4151,105.9838],[22.1404,48.4271,102.6581],[22.1483,48.4274,102.6341],[22.1464,48.4454,101.3108],[22.1492,48.4505,104.5249],[22.1389,48.4568,101.4029],[22.137,48.4685,100.9028],[22.1337,48.4725,100.7934],[22.1238,48.4762,109.0851],[22.1043,48.4767,109.0648],[22.0903,48.4826,102.3089],[22.0784,48.4923,101.5147],[22.0654,48.4976,102.059],[22.0619,48.5049,106.3821],[22.0541,48.5085,103.9527],[22.0467,48.5148,105.7015],[22.0381,48.5126,101.9077],[22.0253,48.5124,103.468],[21.9985,48.5048,103.4142],[21.9599,48.5008,102.256],[21.935,48.5012,100.3068],[21.9292,48.4956,100.1528],[21.9244,48.4996,100.9095],[21.9181,48.4991,98.4969],[21.9145,48.5033,102.1698],[21.9104,48.5004,99.1452],[21.9061,48.5027,102.267],[21.9024,48.5026,101.4681],[21.8959,48.4963,99.342],[21.8844,48.4999,100.8034],[21.8836,48.498,100.437],[21.8884,48.4946,98.5225],[21.8882,48.4921,98.1174],[21.8751,48.4915,98.391],[21.871,48.4871,98.6839],[21.8562,48.4837,98.4606],[21.855,48.4768,98.3882],[21.8486,48.4729,97.9563],[21.8498,48.4664,110.4093],[21.8397,48.457,104.0425],[21.8373,48.457,105.9305],[21.8273,48.463,99.0478],[21.8188,48.4652,100.2783],[21.8196,48.4679,98.9155],[21.8324,48.4704,97.5398],[21.828,48.4756,99.5473],[21.8306,48.4871,99.5472],[21.8345,48.4928,97.5835],[21.8177,48.5079,98.2108],[21.8164,48.5149,98.1376],[21.8194,48.5167,98.1463],[21.8358,48.5184,98.0594],[21.8425,48.5221,98.1363],[21.8409,48.5235,98.2125],[21.8336,48.5239,98.1495],[21.8387,48.5293,98.29],[21.8379,48.5323,98.5162],[21.8252,48.5348,98.568],[21.8187,48.5421,98.6656],[21.8141,48.5606,99.3248],[21.8165,48.5631,99.8136],[21.8219,48.5645,98.8133],[21.8225,48.5666,98.3817],[21.8117,48.5691,98.5484],[21.8085,48.5716,98.787],[21.8064,48.5919,100.016],[21.8143,48.5948,99.4211],[21.8163,48.5978,99.3974],[21.8066,48.6184,101.1688],[21.8068,48.647,100.933],[21.8037,48.6494,101.1815],[21.7926,48.6494,102.2609],[21.7828,48.6576,103.2767],[21.7764,48.6677,103.7099],[21.7718,48.6873,104.6582],[21.7669,48.6955,104.9532],[21.7373,48.703,105.0772],[21.7376,48.7058,105.4372],[21.7449,48.7113,105.7697],[21.7457,48.7139,106.0648],[21.7381,48.7189,106.8992],[21.7345,48.728,107.2444],[21.7267,48.7348,107.823],[21.7275,48.7378,107.9335],[21.7303,48.7394,108.3776],[21.7504,48.7388,108.9408],[21.7579,48.7401,108.9731],[21.7657,48.7436,108.984],[21.7708,48.7482,108.5295],[21.7775,48.7617,110.1531],[21.7752,48.7681,109.5845],[21.7662,48.7717,109.9702],[21.7658,48.7794,110.652],[21.7621,48.7807,111.3483],[21.7549,48.779,111.7369],[21.7378,48.7784,111.0289],[21.713,48.7692,110.6098],[21.6924,48.7689,124.0963],[21.6541,48.7823,210.3055],[21.6281,48.7824,361.5914],[21.5999,48.7869,645.0421],[21.5788,48.7872,660.1005],[21.5468,48.7932,816.0535],[21.5458,48.7836,707.0967],[21.5481,48.7789,692.4133],[21.5526,48.7752,708.6458],[21.5462,48.7709,737.4774],[21.5454,48.7676,737.5574],[21.5488,48.757,459.6743],[21.5497,48.7427,477.9805],[21.5545,48.7374,424.7707],[21.5552,48.7275,439.057],[21.551,48.7154,665.9176],[21.5507,48.706,588.2408],[21.54,48.6984,630.4274],[21.5419,48.6792,474.0251],[21.5362,48.6627,437.6481],[21.5361,48.6571,328.5787],[21.5439,48.6427,259.4776],[21.5535,48.6374,231.6212],[21.5634,48.6261,224.4157],[21.5758,48.6194,229.398],[21.5692,48.6125,199.951],[21.559,48.6136,168.2154],[21.545,48.6107,188.5106],[21.5364,48.6054,252.414],[21.5279,48.6034,284.8837],[21.524,48.5998,353.6971],[21.5223,48.5957,394.857],[21.5239,48.5935,341.8728],[21.5409,48.5899,220.5895],[21.5426,48.5883,250.3713],[21.539,48.5823,248.2738],[21.5223,48.5666,298.6066],[21.5229,48.5595,251.6714],[21.5347,48.5485,294.4032],[21.5337,48.5454,301.596],[21.5236,48.5346,486.7575],[21.5388,48.5163,353.2214],[21.5454,48.5152,333.9167],[21.5477,48.5115,308.7895],[21.5607,48.5105,331.7136],[21.5665,48.5136,241.4555],[21.5726,48.5068,270.5718],[21.5812,48.5066,269.1895],[21.5981,48.5198,137.7562],[21.6058,48.5125,127.3488],[21.6146,48.5129,125.1707],[21.6177,48.4996,123.0264],[21.6225,48.4903,120.2872],[21.6255,48.4699,117.0312],[21.6338,48.4479,112.9582],[21.6461,48.4403,112.0737],[21.6562,48.4305,109.5115],[21.6668,48.4163,105.1656],[21.6671,48.4073,103.4649],[21.6761,48.3935,100.089],[21.6895,48.3913,99.9202],[21.7033,48.3868,99.142],[21.7098,48.3758,97.6261],[21.71,48.3695,97.6871],[21.7187,48.3668,97.0229],[21.7201,48.3579,97.4138],[21.7329,48.3499,96.4716],[21.7457,48.3504,96.8443],[21.7579,48.3478,96.6217],[21.7734,48.3408,96.5939],[21.8049,48.3419,96.7208],[21.8149,48.3397,96.1712],[21.8285,48.3342,97.3075],[21.8404,48.3355,99.321],[21.8391,48.3593,100.6207],[21.84,48.3649,97.5886],[21.8472,48.3672,95.8782],[21.8602,48.3681,97.6708],[21.8669,48.3544,97.9204],[21.8716,48.3604,98.891],[21.8791,48.3578,98.2766],[21.8821,48.3638,97.8851],[21.8874,48.3684,98.4068],[21.8948,48.3711,97.6594],[21.8934,48.3656,98.4601],[21.9027,48.3658,98.537],[21.9063,48.3708,97.8673],[21.9095,48.3682,98.018],[21.9161,48.3693,98.2837],[21.922,48.3664,98.8912],[21.9331,48.3644,98.6407],[21.9311,48.3748,98.854],[21.9386,48.3725,98.4842],[21.9444,48.3766,98.4553],[21.9501,48.3775,100.5972],[21.9576,48.3829,100.138],[21.9648,48.3798,99.7599],[21.9734,48.3833,99.004],[21.9784,48.3807,98.1713],[21.9975,48.3805,98.0906],[22.0077,48.383,99.9678],[22.0179,48.3881,99.0406],[22.0191,48.3918,99.4474],[22.0251,48.3927,99.1531],[22.0347,48.3858,98.9751],[22.0433,48.3846,99.8098],[22.0521,48.3791,99.1174],[22.0558,48.3797,98.8389],[22.0565,48.3826,99.0184],[22.0681,48.3835,101.5026],[22.0708,48.3869,101.4939],[22.0766,48.3874,101.1166],[22.0815,48.383,101.3355],[22.0835,48.3762,100.6598],[22.088,48.3784,100.8319],[22.0939,48.3844,101.6357],[22.101,48.3795,102.9182],[22.112,48.3825,102.6937],[22.1201,48.3804,104.0038],[22.1238,48.3815,103.0775]]]]}}