{"type": "Feature","bbox": [17.6726,48.323,17.9515,48.5238],"geometry": {"type": "MultiPolygon","coordinates": [[[[17.9515,48.4599,189.7705],[17.9487,48.4636,171.159],[17.9311,48.4738,184.0676],[17.9044,48.494,221.6553],[17.8821,48.5024,311.9537],[17.8764,48.5069,320.8314],[17.8643,48.511,329.9185],[17.844,48.5238,236.9034],[17.8345,48.5184,228.8152],[17.8214,48.5183,146.3381],[17.8126,48.515,149.8946],[17.8113,48.5125,150.0179],[17.8145,48.5049,147.2935],[17.8143,48.5016,147.0],[17.8,48.4951,149.1737],[17.7947,48.4955,148.5684],[17.7897,48.4979,148.4726],[17.7752,48.5138,149.783],[17.7672,48.5165,150.0909],[17.7613,48.5158,149.4179],[17.7594,48.5137,149.2192],[17.7593,48.5102,149.1913],[17.7642,48.4996,147.4939],[17.7654,48.4872,146.2873],[17.7616,48.4846,145.2647],[17.7497,48.4846,146.9987],[17.7431,48.4735,153.4836],[17.7381,48.4712,143.817],[17.7245,48.4718,143.7712],[17.7024,48.4775,167.1618],[17.6922,48.482,164.2152],[17.6787,48.4928,178.8963],[17.6732,48.4949,172.5417],[17.6726,48.4933,172.949],[17.6818,48.4827,170.8929],[17.6796,48.4755,179.2081],[17.6804,48.4622,163.6264],[17.6825,48.4433,158.9284],[17.6863,48.4335,150.0],[17.6915,48.4305,149.978],[17.7139,48.4277,139.6077],[17.723,48.4213,138.8813],[17.7252,48.4181,138.4141],[17.7246,48.4151,138.9339],[17.7181,48.4064,138.1837],[17.7183,48.3972,136.6549],[17.7159,48.3896,151.4985],[17.7168,48.3742,134.444],[17.7118,48.3711,133.5014],[17.702,48.3699,133.3252],[17.6981,48.3678,133.1771],[17.6976,48.3648,132.4851],[17.7012,48.3582,144.5076],[17.7051,48.3555,132.2068],[17.7537,48.3405,132.3864],[17.7852,48.323,191.4465],[17.8042,48.33,168.9695],[17.8032,48.3352,183.5954],[17.7965,48.3441,199.8396],[17.7975,48.3468,170.0703],[17.8012,48.3487,140.4067],[17.8185,48.3528,194.9087],[17.8237,48.3527,190.9305],[17.8339,48.3452,184.3349],[17.8354,48.3395,165.3987],[17.8382,48.338,166.0475],[17.8511,48.3453,203.3997],[17.8484,48.352,210.9603],[17.8793,48.3795,161.6301],[17.885,48.3955,241.5635],[17.8991,48.4133,180.2175],[17.9058,48.4258,188.9419],[17.925,48.4418,181.202],[17.9293,48.4482,185.0329],[17.943,48.4516,182.9264],[17.9515,48.4599,189.7705]]]]}
,"properties": {"GID_2": "SVK.7.3_1","GID_0": "SVK","country": "Slovakia","GID_1": "SVK.7_1","province": "Trnavský","NL_NAME_1": "NA","county": "Hlohovec","VARNAME_2": "NA","NL_NAME_2": "NA","TYPE_2": "Okres","ENGTYPE_2": "District","CC_2": "203","HASC_2": "SK.TA.HC","name": "Hlohovec.county","area_km2": 256.6546,"hist_schema_id": "Elevation0-9000","hist_area_km2": {"125": 23.7311,"150": 80.0957,"175": 37.6414,"200": 39.2493,"225": 34.1344,"250": 19.3551,"275": 8.7746,"300": 4.8629,"325": 3.4567,"350": 2.4028,"375": 1.7563,"400": 0.843,"425": 0.3512}}}