{"type": "Feature","bbox": [18.6813,48.7416,19.028,48.9592],"geometry": {"type": "MultiPolygon","coordinates": [[[[19.028,48.8803,1378.2349],[19.0187,48.881,1255.4862],[18.9924,48.8701,1119.2532],[18.9811,48.869,831.0758],[18.9679,48.8803,1016.1901],[18.9533,48.8894,942.9418],[18.9463,48.9059,914.9837],[18.9361,48.9134,720.0992],[18.9116,48.9184,505.689],[18.8927,48.9291,495.9944],[18.8774,48.932,460.2131],[18.8583,48.9329,453.1854],[18.8518,48.9401,464.8218],[18.8472,48.9429,446.4503],[18.840699999999998,48.9435,441.5483],[18.8334,48.9419,442.451],[18.8297,48.9466,469.0473],[18.827,48.9478,472.5164],[18.8164,48.9455,499.2195],[18.8077,48.9467,480.0233],[18.7693,48.9592,962.9986],[18.7657,48.9586,909.2246],[18.756,48.9512,878.7633],[18.7416,48.9455,872.1581],[18.7218,48.9344,893.3784],[18.714,48.9325,772.2772],[18.7012,48.934,530.3091],[18.6976,48.928,729.295],[18.6883,48.9196,546.1279],[18.6831,48.9124,603.0392],[18.6813,48.9024,676.0402],[18.6817,48.8997,618.149],[18.6881,48.8926,439.9787],[18.6904,48.887,535.9693],[18.685,48.8737,593.8518],[18.6833,48.8636,512.3561],[18.6846,48.859,590.7227],[18.6906,48.8502,564.8324],[18.6978,48.8446,664.908],[18.7216,48.8317,702.9288],[18.7291,48.8234,638.4583],[18.7412,48.8182,747.1306],[18.7516,48.8111,755.6824],[18.7586,48.8027,836.4402],[18.7626,48.7923,700.8525],[18.7722,48.7851,717.0383],[18.7771,48.7783,702.2699],[18.8006,48.7608,618.137],[18.8048,48.7558,565.8911],[18.8077,48.7488,560.3493],[18.8126,48.744,612.9637],[18.8581,48.7653,643.7264],[18.8749,48.7681,828.3513],[18.8786,48.7654,880.4527],[18.8816,48.7536,886.4901],[18.9004,48.7481,756.9331],[18.9216,48.7464,909.7953],[18.934,48.747,946.3735],[18.9704,48.7416,1053.0493],[18.9955,48.742,1204.178],[18.9988,48.7527,1181.1875],[18.9994,48.7655,1161.5902],[19.0068,48.7751,1128.4441],[19.007,48.7793,1096.7592],[19.0042,48.7866,1131.7571],[19.0065,48.7988,1016.2701],[18.9985,48.8133,978.4539],[18.9982,48.8223,941.5198],[18.9884,48.8314,879.1561],[18.9848,48.8396,859.6754],[18.9944,48.8508,944.6643],[19.006,48.8582,1049.3142],[19.0127,48.8704,1115.1266],[19.028,48.8803,1378.2349]]]]}
,"properties": {"GID_2": "SVK.8.9_1","GID_0": "SVK","country": "Slovakia","GID_1": "SVK.8_1","province": "Žilinský","NL_NAME_1": "NA","county": "TurcianskeTeplice","VARNAME_2": "NA","NL_NAME_2": "NA","TYPE_2": "Okres","ENGTYPE_2": "District","CC_2": "509","HASC_2": "SK.ZI.TR","name": "Turcianske_Teplice.county","area_km2": 395.8408,"hist_schema_id": "Elevation0-9000","hist_area_km2": {"425": 0.0697,"450": 18.2236,"475": 39.3059,"500": 37.2983,"525": 26.8937,"550": 23.6352,"575": 22.1991,"600": 20.4981,"625": 17.4133,"650": 16.2413,"675": 17.428,"700": 15.3354,"725": 13.3694,"750": 12.7571,"775": 13.2767,"800": 12.2573,"825": 10.3018,"850": 8.4179,"875": 7.7061,"900": 6.9244,"925": 6.7007,"950": 6.5755,"975": 5.9204,"1000": 5.2507,"1025": 5.1532,"1050": 4.3991,"1075": 3.8405,"1100": 3.3937,"1125": 3.1145,"1150": 2.7094,"1175": 2.2486,"1200": 1.578,"1225": 1.2987,"1250": 1.2708,"1275": 1.159,"1300": 1.3963,"1325": 0.2513,"1350": 0.0139,"1375": 0.0139}}}