{"type":"Feature","properties":{"GID_2":"SVK.3.6_1","GID_0":"SVK","country":"Slovakia","GID_1":"SVK.3_1","province":"Košický","NL_NAME_1":"NA","county":"KošiceIV","VARNAME_2":"NA","NL_NAME_2":"NA","TYPE_2":"Okres","ENGTYPE_2":"District","CC_2":"805","HASC_2":"SK.KI.K4","name":"Košice_I_V.county"},
"geometry":{"type": "MultiPolygon","coordinates": [[[[21.3204,48.7125,224.2815],[21.3064,48.7122,249.871],[21.2982,48.7215,309.7379],[21.2806,48.7261,222.6051],[21.2788,48.7212,208.6665],[21.2749,48.7186,205.0398],[21.2663,48.7153,205.1131],[21.2531,48.7138,208.8909],[21.2412,48.7013,239.9897],[21.2224,48.6868,250.1488],[21.2205,48.683,244.861],[21.2178,48.6642,243.5876],[21.2436,48.6541,224.407],[21.2503,48.6484,222.4839],[21.253,48.644,221.5856],[21.271,48.6478,199.5079],[21.2835,48.6537,187.224],[21.2933,48.6461,186.4137],[21.33,48.6477,181.4589],[21.3468,48.6453,182.2627],[21.3576,48.6457,179.7573],[21.3596,48.6485,180.2241],[21.3597,48.6526,180.2605],[21.3523,48.6612,182.3533],[21.3522,48.6729,184.8137],[21.3401,48.6821,184.5928],[21.335,48.6883,184.7599],[21.3349,48.701,186.6966],[21.3306,48.7088,192.2283],[21.3204,48.7125,224.2815]]]]}}