{"type":"Feature","properties":{"GID_2":"SVK.2.8_1","GID_0":"SVK","country":"Slovakia","GID_1":"SVK.2_1","province":"Bratislavský","NL_NAME_1":"NA","county":"Senec","VARNAME_2":"NA","NL_NAME_2":"NA","TYPE_2":"Okres","ENGTYPE_2":"District","CC_2":"108","HASC_2":"SK.BL.SC","name":"Senec.county"},
"geometry":{"type": "MultiPolygon","coordinates": [[[[17.2486,48.0184,131.3704],[17.272,48.0358,127.2259],[17.2875,48.0401,127.8583],[17.2874,48.0436,128.1438],[17.2803,48.0504,127.5454],[17.2808,48.0533,127.8058],[17.2855,48.0551,127.4733],[17.2936,48.0531,126.853],[17.2982,48.0546,126.6928],[17.3088,48.0634,126.5106],[17.3114,48.0716,126.5597],[17.3161,48.0765,126.5813],[17.3176,48.0839,128.4688],[17.3257,48.0882,126.1651],[17.3233,48.0905,126.3725],[17.3141,48.0897,127.8199],[17.3099,48.0916,128.8092],[17.3033,48.1039,127.3762],[17.2984,48.1096,127.5849],[17.2981,48.1129,127.3891],[17.3014,48.1204,127.7199],[17.3297,48.125,127.4465],[17.3381,48.1296,127.1382],[17.3503,48.1286,126.7705],[17.3701,48.1316,125.0675],[17.3727,48.1382,125.7129],[17.3715,48.1571,126.3799],[17.3755,48.1624,126.14],[17.3829,48.1657,134.5868],[17.3925,48.1664,125.8396],[17.4011,48.1634,121.5695],[17.4035,48.1584,125.3795],[17.3997,48.1506,126.529],[17.402,48.1479,124.7451],[17.4265,48.1445,123.8292],[17.4467,48.1438,123.2396],[17.4587,48.147,122.9475],[17.4667,48.1548,120.8693],[17.4784,48.1567,122.3456],[17.4841,48.1632,122.3173],[17.4983,48.1664,121.1315],[17.5116,48.1744,121.3366],[17.5174,48.1826,120.9853],[17.5184,48.1866,120.7177],[17.5166,48.1905,121.1419],[17.5097,48.1972,121.3413],[17.5087,48.2006,121.4902],[17.5177,48.21,120.4889],[17.5188,48.214,120.1766],[17.4818,48.2282,121.0183],[17.4704,48.2364,121.2678],[17.4685,48.2394,121.6696],[17.4682,48.2447,121.593],[17.4724,48.2539,121.6635],[17.4761,48.2572,120.8039],[17.4884,48.2626,134.1934],[17.4925,48.269,136.4315],[17.4937,48.2749,137.6734],[17.4902,48.2829,142.8592],[17.4789,48.2937,149.7494],[17.4671,48.31,156.6576],[17.4656,48.3109,156.3205],[17.4483,48.3042,156.0413],[17.4226,48.2878,144.2714],[17.4168,48.288,143.6177],[17.4,48.2938,154.1338],[17.391,48.2942,161.5635],[17.3833,48.2911,150.0081],[17.3768,48.2818,170.0009],[17.3636,48.2754,175.6732],[17.356,48.2746,179.9023],[17.3406,48.2774,199.9827],[17.3384,48.2719,216.8336],[17.3398,48.2581,210.4372],[17.337,48.2524,188.317],[17.3313,48.249,183.6521],[17.3047,48.2396,149.9665],[17.2885,48.238,137.6672],[17.2735,48.2413,133.105],[17.2539,48.2396,130.3735],[17.2413,48.243,131.7967],[17.2235,48.2323,130.7358],[17.2118,48.2316,154.5431],[17.2065,48.2279,139.1985],[17.2058,48.2259,139.0296],[17.2073,48.2235,130.6636],[17.2255,48.2114,130.3962],[17.2242,48.2093,130.299],[17.216,48.2053,130.8619],[17.218,48.2023,130.5759],[17.2177,48.1996,129.959],[17.2112,48.1916,130.9557],[17.2093,48.186,129.672],[17.2108,48.1786,130.5316],[17.2188,48.17,130.2916],[17.2184,48.1655,130.8627],[17.2256,48.1583,132.065],[17.2306,48.1451,131.4957],[17.2491,48.1373,130.8825],[17.2577,48.1282,129.8094],[17.2706,48.1261,128.7766],[17.2711,48.1242,128.8102],[17.2687,48.1202,128.9329],[17.2699,48.1153,129.1881],[17.2639,48.1041,129.4596],[17.2609,48.102,123.0],[17.2377,48.11,130.6084],[17.2261,48.1085,130.5603],[17.2134,48.1045,131.5272],[17.2072,48.0982,130.783],[17.2039,48.0911,130.8605],[17.1965,48.0895,131.9251],[17.1944,48.0876,130.2278],[17.1951,48.0826,144.0898],[17.2015,48.0757,143.2388],[17.194,48.0634,141.173],[17.1889,48.0583,128.0],[17.1779,48.0538,147.5101],[17.2067,48.0385,128.0],[17.2304,48.0201,133.8937],[17.235,48.0188,132.9769],[17.2463,48.0203,125.7561],[17.2486,48.0184,131.3704]]]]}}