{"type": "Feature","bbox": [20.7514,49.0173,21.233,49.2325],"geometry": {"type": "MultiPolygon","coordinates": [[[[20.9877,49.2321,1073.4152],[20.9798,49.2302,986.8521],[20.9754,49.224,922.4335],[20.9712,49.2216,817.7991],[20.9432,49.2118,673.9233],[20.9181,49.2073,619.4069],[20.912,49.2082,608.0593],[20.901,49.2132,597.0472],[20.8899,49.2095,622.3278],[20.8852,49.2096,640.4963],[20.88,49.2269,604.2583],[20.8755,49.2296,564.6735],[20.8714,49.2296,563.8386],[20.8683,49.2275,620.5453],[20.8695,49.2178,688.1199],[20.8687,49.2148,693.5317],[20.866,49.2138,714.0522],[20.8545,49.2211,705.1241],[20.8447,49.2181,751.7897],[20.8409,49.2186,694.7953],[20.8401,49.2207,728.1105],[20.8449,49.2252,681.8212],[20.842,49.2278,564.4556],[20.8291,49.2256,631.0846],[20.822,49.2307,710.7636],[20.8157,49.2322,646.1288],[20.7667,49.2325,794.9592],[20.7615,49.2273,707.4338],[20.7574,49.2146,787.4729],[20.7514,49.2077,978.4097],[20.7627,49.2067,1050.1436],[20.7724,49.1956,931.2343],[20.7827,49.1915,855.5817],[20.7871,49.1837,1008.7202],[20.7921,49.1784,799.0123],[20.7941,49.1732,906.3663],[20.8073,49.1635,1060.1223],[20.7984,49.1582,941.208],[20.7695,49.152,559.9263],[20.7691,49.1494,614.6089],[20.774,49.1439,729.2297],[20.7697,49.131,842.0121],[20.7651,49.1249,834.8744],[20.754,49.1245,1045.8751],[20.7551,49.1155,940.3289],[20.7623,49.1114,999.7122],[20.7754,49.1139,889.6016],[20.7833,49.1126,955.4323],[20.8142,49.0883,788.743],[20.8198,49.0807,701.2366],[20.8256,49.0784,618.4609],[20.8354,49.079,571.2219],[20.8613,49.0905,770.3708],[20.8678,49.0899,764.5598],[20.8832,49.0846,840.5204],[20.8893,49.0813,927.9985],[20.8938,49.0765,874.0236],[20.9057,49.083,873.0569],[20.9123,49.0906,884.0427],[20.9161,49.0924,1021.2224],[20.9198,49.0914,1007.739],[20.9259,49.0836,912.228],[20.9388,49.0777,903.0453],[20.9477,49.0793,819.3477],[20.9584,49.0773,788.4751],[20.967,49.0776,873.9092],[20.9726,49.0808,851.5325],[20.9768,49.088,802.0018],[20.9868,49.086,670.8331],[20.9885,49.0849,630.4788],[20.9896,49.0802,748.4816],[20.998,49.0796,772.0425],[21.0069,49.0736,662.9362],[21.0207,49.056399999999996,537.8273],[21.0324,49.0507,523.0288],[21.0394,49.0449,518.0628],[21.0435,49.0362,497.6084],[21.0554,49.0369,540.6293],[21.067,49.0253,496.2262],[21.0871,49.0173,397.09],[21.0891,49.0179,418.4002],[21.0893,49.0196,438.7356],[21.0805,49.0302,455.8522],[21.0759,49.0401,543.7034],[21.0769,49.0421,495.9041],[21.0887,49.0392,421.4094],[21.0963,49.0417,380.9642],[21.1019,49.0388,435.4617],[21.1117,49.046,479.0625],[21.1264,49.0436,443.8508],[21.1403,49.0479,328.2715],[21.143,49.0552,290.7805],[21.1557,49.0617,282.368],[21.1736,49.0617,276.853],[21.1763,49.064,278.3282],[21.1765,49.0665,280.0053],[21.1689,49.0783,316.1148],[21.1697,49.0812,396.9562],[21.1734,49.0807,411.7358],[21.1818,49.0754,333.1116],[21.1998,49.0746,358.7343],[21.2062,49.0768,320.3227],[21.2103,49.0823,374.9536],[21.2288,49.0816,524.9997],[21.233,49.0835,582.126],[21.2326,49.0881,496.3419],[21.2241,49.0957,384.2946],[21.2258,49.1039,386.0611],[21.2109,49.1166,477.9073],[21.2042,49.1289,572.0079],[21.1912,49.1341,677.7911],[21.1908,49.1444,816.8212],[21.1794,49.1508,824.1913],[21.1675,49.1627,917.0584],[21.1633,49.1773,808.3837],[21.1745,49.1841,1035.8269],[21.1705,49.1919,1033.718],[21.1658,49.1962,1042.6703],[21.1609,49.1983,986.5378],[21.1467,49.1999,1073.2653],[21.1365,49.204,990.6144],[21.116,49.2207,995.6917],[21.0963,49.2176,968.1723],[21.0772,49.2126,910.7297],[21.0672,49.2134,829.7966],[21.0575,49.2185,903.7352],[21.0525,49.2193,949.3734],[21.0184,49.2137,954.6225],[21.013,49.215,900.3768],[20.9998,49.2262,983.5637],[20.9877,49.2321,1073.4152]]]]}
,"properties": {"GID_2": "SVK.5.8_1","GID_0": "SVK","country": "Slovakia","GID_1": "SVK.5_1","province": "Prešovský","NL_NAME_1": "NA","county": "Sabinov","VARNAME_2": "NA","NL_NAME_2": "NA","TYPE_2": "Okres","ENGTYPE_2": "District","CC_2": "708","HASC_2": "SK.PV.SB","name": "Sabinov.county","area_km2": 499.717,"hist_schema_id": "Elevation0-9000","hist_area_km2": {"275": 1.5559,"300": 8.4034,"325": 13.1775,"350": 15.6451,"375": 20.833,"400": 23.4386,"425": 26.0321,"450": 27.9711,"475": 30.2993,"500": 26.8267,"525": 26.5476,"550": 25.1164,"575": 21.951,"600": 21.701,"625": 20.8556,"650": 20.9661,"675": 21.2842,"700": 20.3823,"725": 19.5647,"750": 17.7059,"775": 15.4335,"800": 14.2827,"825": 12.2849,"850": 10.6349,"875": 9.0956,"900": 7.9588,"925": 6.0311,"950": 4.3945,"975": 3.4241,"1000": 2.4538,"1025": 1.9408,"1050": 1.1369,"1075": 0.3742,"1100": 0.0139}}}