{"type": "Feature","bbox": [18.7426,48.2977,19.0104,48.5589],"geometry": {"type": "MultiPolygon","coordinates": [[[[19.0019,48.4206,694.1826],[19.002,48.4246,756.5317],[19.0062,48.4305,740.1653],[19.0067,48.4377,708.7979],[18.999,48.4502,794.1076],[18.9986,48.4571,766.3251],[19.0064,48.4709,669.7504],[18.9943,48.4789,810.676],[18.9922,48.4834,802.8977],[19.0052,48.5083,486.9634],[19.0054,48.5169,382.1767],[19.0085,48.521,432.2815],[19.0104,48.5276,419.369],[19.0092,48.535,395.9484],[19.0048,48.5373,323.0349],[18.9927,48.5357,624.4657],[18.9801,48.5295,611.8716],[18.9768,48.5322,520.1881],[18.9715,48.5486,664.092],[18.9656,48.5557,730.1053],[18.9585,48.5525,652.9492],[18.9506,48.5521,598.3354],[18.9463,48.5582,491.9658],[18.935,48.5589,549.852],[18.9284,48.5568,561.6256],[18.9164,48.5459,565.0129],[18.9088,48.536,614.8013],[18.9028,48.5334,499.7118],[18.8973,48.5287,602.4183],[18.8928,48.5185,608.7002],[18.8839,48.5088,513.4979],[18.8729,48.5018,619.0262],[18.8715,48.4981,638.4742],[18.8722,48.493,763.9055],[18.8773,48.4875,787.96],[18.8864,48.4822,788.8456],[18.887,48.4801,823.5856],[18.8783,48.4747,737.4096],[18.869,48.4721,844.082],[18.868,48.4681,752.1348],[18.87,48.4636,869.4662],[18.8611,48.4572,660.3936],[18.8628,48.4492,801.9288],[18.8607,48.446,807.4629],[18.8351,48.4325,753.3026],[18.8109,48.4332,668.217],[18.8096,48.4309,656.2123],[18.8106,48.4287,675.6082],[18.8177,48.4239,673.9585],[18.8188,48.4213,622.0148],[18.8152,48.4176,670.1831],[18.8086,48.4157,679.998],[18.782,48.4198,678.1302],[18.7667,48.4275,498.3224],[18.7554,48.4305,553.3776],[18.7426,48.4044,661.0385],[18.7666,48.389,479.3691],[18.7676,48.382,394.0203],[18.7695,48.38,398.527],[18.7965,48.3707,477.0432],[18.7984,48.3498,390.229],[18.8014,48.3449,453.9252],[18.8114,48.3375,488.2759],[18.8136,48.3252,392.5112],[18.8224,48.3169,406.8596],[18.8314,48.3159,426.4601],[18.8351,48.314,459.9467],[18.8401,48.3061,510.1072],[18.8397,48.2989,550.137],[18.851,48.2977,534.5999],[18.8576,48.2988,492.8094],[18.8641,48.3031,455.1174],[18.8743,48.3036,491.1436],[18.8748,48.3066,381.2904],[18.8719,48.3131,368.5658],[18.874,48.3148,453.7334],[18.8796,48.311,500.0958],[18.8886,48.3085,554.838],[18.8954,48.3039,498.3462],[18.9008,48.3039,431.9372],[18.9114,48.3085,520.3267],[18.9115,48.3105,493.3248],[18.908,48.314,505.7971],[18.9083,48.3163,534.8954],[18.9192,48.3261,471.1628],[18.9302,48.3292,529.9834],[18.9419,48.3279,434.5731],[18.9467,48.3294,440.7968],[18.948,48.333,485.0205],[18.9396,48.3391,419.0712],[18.931,48.3498,286.2936],[18.9341,48.3539,432.6837],[18.9335,48.3597,489.8233],[18.9438,48.3648,528.3298],[18.9471,48.3682,607.6451],[18.9472,48.3705,529.1517],[18.9448,48.3731,488.457],[18.9353,48.3764,484.3431],[18.9336,48.3808,411.0003],[18.9371,48.3816,504.7136],[18.9473,48.3799,634.5859],[18.9501,48.389,619.7397],[18.957,48.3986,614.8191],[18.9734,48.4051,677.9904],[18.9858,48.4163,690.4552],[19.0019,48.4206,694.1826]]]]}
,"properties": {"GID_2": "SVK.1.2_1","GID_0": "SVK","country": "Slovakia","GID_1": "SVK.1_1","province": "Banskobystrický","NL_NAME_1": "NA","county": "BanskáŠtiavnica","VARNAME_2": "NA","NL_NAME_2": "NA","TYPE_2": "Okres","ENGTYPE_2": "District","CC_2": "602","HASC_2": "SK.BC.BS","name": "Banská_Štiavnica.county","area_km2": 282.4327,"hist_schema_id": "Elevation0-9000","hist_area_km2": {"275": 0.0986,"300": 0.7045,"325": 1.4366,"350": 3.2524,"375": 4.3234,"400": 8.1827,"425": 12.6203,"450": 15.2241,"475": 16.2902,"500": 19.2865,"525": 22.5902,"550": 24.4584,"575": 24.9153,"600": 20.717,"625": 19.4342,"650": 19.2238,"675": 18.197,"700": 15.6225,"725": 10.7423,"750": 8.211,"775": 6.4815,"800": 4.2882,"825": 2.5873,"850": 1.2095,"875": 0.9283,"900": 0.6752,"925": 0.4361,"950": 0.1408,"975": 0.0845,"1000": 0.0704}}}