{"type": "Feature","bbox": [21.1236,48.572,21.2531,48.7311],"geometry": {"type": "MultiPolygon","coordinates": [[[[21.253,48.644,221.5856],[21.2444,48.6536,224.2131],[21.2189,48.6631,241.878],[21.2176,48.6661,244.1173],[21.2224,48.6868,250.1488],[21.2412,48.7013,239.9897],[21.2531,48.7138,208.8909],[21.2228,48.7279,272.3391],[21.1992,48.7249,326.9334],[21.1955,48.7261,342.7033],[21.1907,48.7307,355.6368],[21.1873,48.7311,338.1423],[21.1849,48.7294,345.1028],[21.1829,48.7195,281.4855],[21.2013,48.6972,328.4212],[21.1981,48.6949,337.1837],[21.1874,48.6969,371.3791],[21.1827,48.6951,385.2285],[21.184,48.6873,346.8844],[21.1834,48.6677,332.3162],[21.1799,48.6602,341.3991],[21.1707,48.657,291.101],[21.1586,48.6568,285.6318],[21.1506,48.6584,322.269],[21.1459,48.663,334.9664],[21.1419,48.6635,323.8186],[21.1349,48.6611,320.7249],[21.1248,48.6547,288.577],[21.1236,48.6525,301.3962],[21.128,48.6495,325.6567],[21.1313,48.6409,309.6793],[21.1236,48.6234,269.8919],[21.125,48.6217,258.9114],[21.132,48.6202,249.9778],[21.1684,48.618899999999996,237.7898],[21.1701,48.6165,249.9403],[21.1712,48.6047,219.3303],[21.1782,48.5937,214.2883],[21.1772,48.587,205.452],[21.181,48.5829,207.0992],[21.1881,48.5796,203.6769],[21.2201,48.5725,204.3213],[21.2313,48.572,204.7291],[21.2377,48.574,205.4681],[21.2386,48.577,205.8541],[21.229,48.59,208.1119],[21.2257,48.5995,209.6964],[21.2209,48.6061,212.019],[21.2325,48.6188,215.1551],[21.2328,48.621,216.1452],[21.2151,48.6375,221.7932],[21.2186,48.6444,229.4881],[21.2312,48.6487,224.2605],[21.2374,48.6486,223.601],[21.2465,48.6442,221.4955],[21.253,48.644,221.5856]]]]}
,"properties": {"GID_2": "SVK.3.4_1","GID_0": "SVK","country": "Slovakia","GID_1": "SVK.3_1","province": "Košický","NL_NAME_1": "NA","county": "KošiceII","VARNAME_2": "NA","NL_NAME_2": "NA","TYPE_2": "Okres","ENGTYPE_2": "District","CC_2": "803","HASC_2": "SK.KI.K2","name": "Košice_I_I.county","area_km2": 77.08639,"hist_schema_id": "Elevation0-9000","hist_area_km2": {"200": 9.7187,"225": 21.00719,"250": 16.0073,"275": 10.36156,"300": 9.15622,"325": 7.27995,"350": 2.96756,"375": 0.58791}}}