{"type":"Feature","properties":{"GID_2":"SVK.6.9_1","GID_0":"SVK","country":"Slovakia","GID_1":"SVK.6_1","province":"Trenčiansky","NL_NAME_1":"NA","county":"Trenčín","VARNAME_2":"NA","NL_NAME_2":"NA","TYPE_2":"Okres","ENGTYPE_2":"District","CC_2":"309","HASC_2":"SK.TC.TN","name":"Trenčín.county"},
"geometry":{"type": "MultiPolygon","coordinates": [[[[17.831,48.9262,578.1257],[17.8322,48.9089,598.4814],[17.8242,48.9041,557.4161],[17.8219,48.901,452.8813],[17.8212,48.8887,620.0246],[17.8241,48.8796,507.7776],[17.8319,48.8677,432.4748],[17.8452,48.8585,429.3447],[17.8498,48.8461,357.7755],[17.8588,48.8385,403.9865],[17.8638,48.8319,345.6085],[17.8639,48.8264,287.7899],[17.8549,48.8165,224.3176],[17.8545,48.8125,212.0861],[17.8568,48.8098,207.4175],[17.8628,48.8079,309.3912],[17.8826,48.8127,189.8001],[17.9024,48.8129,191.0928],[17.9129,48.8087,207.6108],[17.9148,48.8029,296.1862],[17.9189,48.7979,343.4738],[17.9446,48.7949,385.7301],[17.9485,48.791,435.4911],[17.9483,48.7761,315.9464],[17.9581,48.7581,391.6102],[17.9664,48.7498,445.1136],[17.9748,48.7511,473.0969],[17.9834,48.7486,577.8864],[17.9937,48.7497,659.4941],[18.0,48.7479,786.593],[18.0181,48.7542,818.6249],[18.0305,48.7632,869.3018],[18.0375,48.7595,872.3189],[18.067,48.7553,498.5662],[18.0763,48.7503,481.4876],[18.0861,48.7408,394.7284],[18.0914,48.7421,407.0475],[18.0977,48.7404,406.3296],[18.1021,48.7445,346.0623],[18.1151,48.7453,306.4945],[18.1202,48.7479,288.5076],[18.1225,48.7507,297.1503],[18.1228,48.7539,307.4112],[18.1182,48.761,326.9608],[18.119,48.7633,320.617],[18.1319,48.7614,345.2106],[18.1443,48.7628,277.168],[18.1482,48.7707,275.3737],[18.1419,48.7748,292.0654],[18.1464,48.7783,267.2137],[18.1545,48.7759,297.6463],[18.1604,48.7777,281.4595],[18.1637,48.774,287.2049],[18.166,48.7735,283.5428],[18.1683,48.7747,268.0734],[18.1706,48.7802,267.1747],[18.1725,48.7807,237.6999],[18.1815,48.7737,249.3317],[18.1905,48.7713,275.41],[18.1939,48.7721,218.3876],[18.1967,48.7757,221.5355],[18.2094,48.7809,242.674],[18.212,48.7844,251.8075],[18.2129,48.7956,289.6423],[18.2106,48.8031,288.816],[18.2042,48.8088,262.3724],[18.203,48.8146,269.9328],[18.2026,48.8221,298.9088],[18.2053,48.8417,361.4936],[18.2089,48.8496,432.0851],[18.2249,48.8662,548.1198],[18.2252,48.8749,469.6381],[18.227,48.8774,531.0553],[18.2435,48.8785,783.6371],[18.2677,48.8851,872.241],[18.2795,48.8853,802.4634],[18.3032,48.8822,728.3543],[18.3228,48.896,719.1771],[18.3215,48.9202,694.7313],[18.3237,48.931399999999996,687.5629],[18.2759,48.9317,798.842],[18.2466,48.9196,516.8359],[18.219,48.9207,636.4423],[18.2035,48.9179,554.1765],[18.1935,48.9213,618.6107],[18.1843,48.9162,521.923],[18.1787,48.915,521.0127],[18.1655,48.9199,431.0406],[18.1625,48.9272,334.194],[18.1474,48.9387,239.7112],[18.1445,48.9384,238.4088],[18.1432,48.9328,244.9728],[18.138,48.931,292.1846],[18.1321,48.9316,317.941],[18.121,48.9371,223.4508],[18.1203,48.9401,225.5819],[18.1284,48.9526,223.1657],[18.1366,48.9704,224.3013],[18.1244,48.9747,228.0824],[18.1192,48.9782,261.7579],[18.1086,48.9952,285.0035],[18.0913,49.0134,425.457],[18.0828,49.017,292.5681],[18.0891,49.0219,552.1841],[18.0818,49.0312,467.2227],[18.0843,49.0476,388.0248],[18.0828,49.0512,415.459],[18.0441,49.0315,473.3527],[17.9842,49.0265,740.1606],[17.9617,49.0277,636.0264],[17.9238,49.0193,645.4452],[17.9121,49.0118,597.5161],[17.8994,49.0005,627.5973],[17.8908,48.9892,528.7372],[17.8888,48.9641,441.6748],[17.8815,48.9362,690.4617],[17.8683,48.9273,616.4868],[17.831,48.9262,578.1257]]]]}}