{"type": "Feature","bbox": [21.2757,48.7118,21.3332,48.7849],"geometry": {"type": "MultiPolygon","coordinates": [[[[21.3095,48.7834,198.857],[21.3019,48.7849,227.5284],[21.2965,48.7815,278.9134],[21.2955,48.7647,332.4159],[21.2799,48.7501,277.6956],[21.2757,48.7428,263.2399],[21.276,48.7369,223.5952],[21.2806,48.7261,222.6051],[21.2982,48.7215,309.7379],[21.3064,48.7122,249.871],[21.3143,48.7118,261.5144],[21.3321,48.7148,194.0188],[21.3332,48.7177,198.4893],[21.3287,48.7206,213.7726],[21.3275,48.7236,198.5538],[21.3296,48.7328,192.2057],[21.3287,48.7361,201.3224],[21.3239,48.7421,196.9626],[21.3059,48.758,302.2979],[21.305,48.7737,270.742],[21.3102,48.7769,224.6867],[21.3095,48.7834,198.857]]]]}
,"properties": {"GID_2": "SVK.3.5_1","GID_0": "SVK","country": "Slovakia","GID_1": "SVK.3_1","province": "Košický","NL_NAME_1": "NA","county": "KošiceIII","VARNAME_2": "NA","NL_NAME_2": "NA","TYPE_2": "Okres","ENGTYPE_2": "District","CC_2": "804","HASC_2": "SK.KI.K3","name": "Košice_I_I_I.county","area_km2": 16.86268,"hist_schema_id": "Elevation0-9000","hist_area_km2": {"200": 0.79697,"225": 1.3703,"250": 2.08363,"275": 2.99241,"300": 4.3349,"325": 2.23701,"350": 2.22271,"375": 0.82474}}}