{"type":"Feature","properties":{"GID_2":"SVK.5.11_1","GID_0":"SVK","country":"Slovakia","GID_1":"SVK.5_1","province":"Prešovský","NL_NAME_1":"NA","county":"Stropkov","VARNAME_2":"NA","NL_NAME_2":"NA","TYPE_2":"Okres","ENGTYPE_2":"District","CC_2":"711","HASC_2":"SK.PV.SP","name":"Stropkov.county"},
"geometry":{"type": "MultiPolygon","coordinates": [[[[21.7718,49.363,638.3621],[21.7669,49.3695,578.4052],[21.7602,49.363,531.715],[21.7505,49.3495,611.2958],[21.7475,49.3382,564.9091],[21.7489,49.3337,563.8167],[21.7572,49.3217,448.6885],[21.7698,49.3083,396.9985],[21.7692,49.3027,428.5773],[21.7595,49.3004,342.9091],[21.7488,49.3023,358.5262],[21.7436,49.3049,413.9656],[21.7375,49.3137,392.979],[21.7177,49.3356,499.1892],[21.7145,49.3417,477.8438],[21.7102,49.3437,501.8627],[21.7035,49.343,537.2788],[21.6901,49.3336,488.5501],[21.6927,49.3257,469.5683],[21.6918,49.3219,511.9394],[21.6752,49.3138,417.4417],[21.667,49.3052,413.1629],[21.6592,49.3037,394.6034],[21.6416,49.3057,300.6592],[21.6372,49.3038,386.6562],[21.6367,49.2987,393.2563],[21.6401,49.2875,430.5811],[21.6232,49.2748,377.0728],[21.6219,49.2672,324.8497],[21.6237,49.2552,248.8769],[21.616,49.2466,214.2936],[21.6026,49.2393,269.1624],[21.5997,49.2343,272.1136],[21.5991,49.2217,424.1006],[21.6024,49.2055,426.2319],[21.6008,49.1971,332.0082],[21.5984,49.1938,297.1434],[21.591,49.1909,286.8724],[21.590699999999998,49.1852,404.3641],[21.5853,49.1788,310.9886],[21.5768,49.164,308.2606],[21.5785,49.1586,370.6033],[21.585,49.149,381.0796],[21.5977,49.1397,443.4415],[21.5994,49.1326,344.335],[21.5968,49.1266,313.9367],[21.5818,49.1187,336.1237],[21.6098,49.1007,303.8397],[21.6117,49.0953,357.0433],[21.611,49.0838,408.3757],[21.6154,49.0738,382.2579],[21.6221,49.0707,413.5126],[21.6298,49.0638,404.6429],[21.6579,49.0489,350.8641],[21.6651,49.0491,275.5409],[21.681,49.0551,158.0],[21.683,49.0579,158.0],[21.6783,49.0675,297.9747],[21.6791,49.0698,263.3756],[21.689,49.0711,234.112],[21.6984,49.0804,239.2236],[21.7194,49.0876,330.0826],[21.7313,49.0949,248.0927],[21.7343,49.1057,247.9817],[21.7265,49.1171,387.2835],[21.7257,49.1207,426.7729],[21.7276,49.1262,428.2907],[21.7318,49.1299,367.9309],[21.7489,49.1359,434.4359],[21.7503,49.1398,373.1849],[21.7551,49.1445,343.9852],[21.7738,49.1551,383.6634],[21.7712,49.1652,517.0481],[21.7737,49.1778,356.4119],[21.7735,49.1873,401.0432],[21.7759,49.191,435.3377],[21.7915,49.1989,515.2122],[21.796,49.2079,437.024],[21.799,49.2104,381.2506],[21.8082,49.2122,319.0494],[21.8231,49.2123,343.4908],[21.828,49.2145,349.184],[21.8294,49.2243,401.4008],[21.8349,49.2312,456.244],[21.840699999999998,49.2463,481.0473],[21.8383,49.261,557.7285],[21.8546,49.2698,456.8446],[21.8706,49.2861,519.4612],[21.8735,49.291,534.0717],[21.8742,49.2988,479.7497],[21.8725,49.3023,462.9852],[21.8554,49.3078,558.4232],[21.8467,49.3126,479.2617],[21.8178,49.3457,495.6378],[21.8132,49.3475,488.0808],[21.8005,49.3484,540.1743],[21.7978,49.3508,578.6917],[21.796,49.3557,616.0163],[21.778,49.356,625.7144],[21.7736,49.3591,662.6324],[21.7718,49.363,638.3621]]]]}}