{"type":"Feature","properties":{"GID_2":"SVK.7.6_1","GID_0":"SVK","country":"Slovakia","GID_1":"SVK.7_1","province":"Trnavský","NL_NAME_1":"NA","county":"Skalica","VARNAME_2":"NA","NL_NAME_2":"NA","TYPE_2":"Okres","ENGTYPE_2":"District","CC_2":"206","HASC_2":"SK.TA.SI","name":"Skalica.county"},
"geometry":{"type": "MultiPolygon","coordinates": [[[[16.976,48.6894,177.6092],[16.9853,48.6841,153.7002],[16.9942,48.6843,154.6903],[17.0076,48.6811,154.4721],[17.0172,48.6807,157.109],[17.0266,48.6833,157.6441],[17.0361,48.691,163.4487],[17.0419,48.6933,170.3062],[17.0583,48.6916,171.9798],[17.0773,48.6992,181.5315],[17.0912,48.7014,192.3659],[17.106,48.6984,209.3494],[17.1139,48.6986,223.5156],[17.1376,48.7066,242.7101],[17.1471,48.6994,209.1632],[17.1479,48.6915,211.5097],[17.1526,48.6901,220.7852],[17.1722,48.6948,243.2149],[17.1757,48.6978,251.1068],[17.1801,48.7066,236.5958],[17.1934,48.7102,253.5273],[17.1987,48.7149,276.9655],[17.2121,48.7145,287.741],[17.2327,48.7108,260.4229],[17.2423,48.7115,280.3361],[17.2495,48.7145,289.7917],[17.2529,48.7186,310.9997],[17.2526,48.7233,353.7284],[17.2483,48.7318,448.4343],[17.2491,48.7347,437.3657],[17.271,48.7385,297.9194],[17.3055,48.7416,265.1007],[17.3207,48.7473,262.8931],[17.3344,48.756,323.1285],[17.3373,48.7589,343.606],[17.3424,48.7719,343.1057],[17.3396,48.7796,373.4208],[17.3403,48.7819,382.9943],[17.3443,48.7835,398.1929],[17.3519,48.7834,350.6831],[17.3535,48.7918,414.2601],[17.3759,48.803,432.4795],[17.3837,48.8084,454.4227],[17.3995,48.8283,428.151],[17.389,48.8269,425.4142],[17.3629,48.8287,399.5656],[17.2742,48.8653,209.7531],[17.2533,48.8716,177.981],[17.1995,48.8812,164.6057],[17.1468,48.8496,164.3311],[17.1279,48.8457,166.9755],[17.1133,48.8399,164.2984],[17.106,48.8268,163.4313],[17.1039,48.8171,173.4502],[17.096,48.8088,172.8904],[17.0929,48.7964,162.5804],[17.0595,48.7819,168.7508],[17.0475,48.7747,168.4778],[17.0413,48.7612,154.6218],[17.0257,48.7536,158.1817],[17.0168,48.7429,168.0038],[17.0148,48.7364,164.0216],[17.0153,48.7278,156.7475],[16.9997,48.715,180.803],[16.9992,48.7091,154.4572],[17.0013,48.7005,179.8735],[16.976,48.6894,177.6092]]]]}}