{"type":"Feature","properties":{"GID_2":"SVK.2.5_1","GID_0":"SVK","country":"Slovakia","GID_1":"SVK.2_1","province":"Bratislavský","NL_NAME_1":"NA","county":"BratislavaV","VARNAME_2":"NA","NL_NAME_2":"NA","TYPE_2":"Okres","ENGTYPE_2":"District","CC_2":"105","HASC_2":"SK.BL.B5","name":"Bratislava_V.county"},
"geometry":{"type": "MultiPolygon","coordinates": [[[[17.0724,48.141,139.8956],[17.0644,48.1434,132.0],[17.0608,48.1413,147.7868],[17.0629,48.1374,154.9079],[17.0614,48.1362,141.4838],[17.0668,48.1298,148.929],[17.0656,48.1286,139.9384],[17.0689,48.1279,139.2694],[17.0701,48.1246,138.4348],[17.0643,48.1239,137.0008],[17.0637,48.1225,138.2071],[17.0693,48.1186,137.7946],[17.0699,48.1166,137.4571],[17.0741,48.115,138.1018],[17.0784,48.1156,136.5201],[17.0742,48.1108,135.9916],[17.0804,48.1084,140.9942],[17.0787,48.1064,135.9095],[17.094,48.1001,134.152],[17.0891,48.097,135.1057],[17.0944,48.0919,135.7001],[17.0926,48.091,135.4832],[17.0909,48.0927,134.7405],[17.0758,48.0864,136.0479],[17.0744,48.0838,134.9388],[17.0761,48.0831,135.6498],[17.0728,48.0814,134.7671],[17.0802,48.0787,136.0415],[17.0735,48.0709,135.8663],[17.0881,48.0658,136.2469],[17.0695,48.0559,134.1047],[17.0856,48.0508,134.9536],[17.0891,48.0461,136.9145],[17.0687,48.0319,133.5974],[17.0861,48.0243,133.1907],[17.0911,48.0202,132.8604],[17.1113,48.0317,134.019],[17.1187,48.0287,133.1442],[17.128,48.0214,132.2252],[17.1321,48.0234,132.647],[17.1377,48.0234,132.6845],[17.1436,48.02,132.7818],[17.1451,48.0207,130.481],[17.1514,48.014,130.287],[17.1606,48.008,129.7047],[17.1815,48.015,129.7327],[17.1918,48.0172,129.3736],[17.2052,48.0175,136.8271],[17.2127,48.0208,137.6498],[17.235,48.0188,132.9769],[17.2288,48.021,130.6186],[17.2089,48.037,128.0],[17.196,48.0451,137.7996],[17.1779,48.0538,147.5101],[17.1594,48.0598,134.2362],[17.1515,48.0661,146.3996],[17.139,48.0837,132.9808],[17.1284,48.1025,155.2273],[17.1294,48.1093,155.2534],[17.1358,48.1225,151.4367],[17.1351,48.1273,137.8139],[17.1312,48.1317,142.0089],[17.1172,48.1378,131.0],[17.0891,48.1381,138.4283],[17.0724,48.141,139.8956]]]]}}