{"type":"Feature","properties":{"GID_2":"SVK.4.4_1","GID_0":"SVK","country":"Slovakia","GID_1":"SVK.4_1","province":"Nitriansky","NL_NAME_1":"NA","county":"NovéZámky","VARNAME_2":"NA","NL_NAME_2":"NA","TYPE_2":"Okres","ENGTYPE_2":"District","CC_2":"404","HASC_2":"SK.NI.NZ","name":"Nové_Zámky.county"},
"geometry":{"type": "MultiPolygon","coordinates": [[[[18.8488,47.8195,105.2531],[18.8494,47.8221,108.6442],[18.8557,47.8281,107.2725],[18.8506,47.8307,104.3297],[18.836,47.8303,105.7341],[18.8307,47.8331,106.0869],[18.8222,47.8492,107.0598],[18.8154,47.8546,107.7059],[18.797,47.8599,106.1052],[18.7923,47.8668,109.5713],[18.7832,47.8673,105.9746],[18.7792,47.8699,106.5563],[18.7706,47.8696,106.7339],[18.7686,47.8719,106.7972],[18.7633,47.8733,107.5379],[18.7634,47.8828,108.5604],[18.7683,47.8839,108.6017],[18.759,47.8987,108.4073],[18.7621,47.904,108.9837],[18.7593,47.9076,119.359],[18.7626,47.912,112.298],[18.7586,47.9171,109.7713],[18.7579,47.922,109.4299],[18.7686,47.9305,110.7914],[18.7723,47.9362,110.9296],[18.774,47.9407,119.9721],[18.7736,47.9461,112.325],[18.7698,47.9484,112.1393],[18.7541,47.9493,111.4038],[18.732,47.9476,195.8921],[18.7175,47.9509,211.3125],[18.7061,47.9503,181.0734],[18.691,47.952,120.3288],[18.6851,47.9503,120.4982],[18.6729,47.9425,138.4456],[18.6613,47.9411,122.2278],[18.6528,47.9453,118.9459],[18.6321,47.9493,137.7278],[18.6178,47.9475,133.2393],[18.6047,47.9403,154.5615],[18.5991,47.9389,156.7452],[18.5819,47.9419,154.0283],[18.5706,47.9421,156.7729],[18.5555,47.9477,159.2603],[18.5513,47.946,153.8076],[18.5427,47.9359,161.9359],[18.5388,47.9344,168.9427],[18.5042,47.9415,182.475],[18.485,47.9416,181.6013],[18.475,47.9466,207.1711],[18.4636,47.9478,237.8644],[18.4555,47.9588,169.8973],[18.4521,47.9737,236.4932],[18.4544,47.9876,198.4653],[18.4638,47.993899999999996,258.0962],[18.4554,48.0013,284.989],[18.4541,48.0051,292.6094],[18.4644,48.0137,179.9859],[18.4657,48.0172,202.9678],[18.4495,48.0232,212.3707],[18.4407,48.0335,174.1563],[18.4392,48.0386,202.2958],[18.4435,48.0497,204.3461],[18.4432,48.0536,207.1477],[18.4263,48.0723,216.7],[18.4199,48.0846,203.7022],[18.4221,48.086,215.1235],[18.4321,48.0823,183.6576],[18.4457,48.0801,209.1176],[18.449,48.0812,233.0768],[18.4502,48.0906,215.9218],[18.455,48.1031,226.272],[18.4476,48.1193,209.3152],[18.4406,48.1246,231.7245],[18.4152,48.1328,213.4548],[18.3966,48.1324,168.3853],[18.3788,48.1443,171.3234],[18.3718,48.153,172.2192],[18.3537,48.1568,187.5439],[18.3464,48.1606,210.5119],[18.3433,48.1643,186.3316],[18.3427,48.1727,198.1062],[18.3404,48.1757,220.2886],[18.3295,48.1751,234.9146],[18.3166,48.1788,209.7343],[18.2958,48.1788,132.0232],[18.2912,48.181399999999996,132.6194],[18.2894,48.1863,137.9801],[18.285,48.19,134.6779],[18.2648,48.1923,170.7946],[18.2423,48.2021,200.998],[18.2403,48.2005,199.7805],[18.2437,48.1863,183.1404],[18.2399,48.1816,179.8632],[18.2118,48.1728,129.9208],[18.1885,48.1702,126.7311],[18.1831,48.1733,127.2674],[18.1796,48.1808,127.2942],[18.1821,48.1837,127.3097],[18.1903,48.1872,127.8519],[18.1912,48.1903,127.518],[18.1844,48.1995,126.063],[18.1788,48.2008,128.5003],[18.1603,48.194,129.4774],[18.1435,48.1937,143.2262],[18.1366,48.192,164.4712],[18.1266,48.1827,149.1695],[18.0816,48.1633,126.977],[18.0517,48.1455,120.2032],[18.0422,48.1415,121.3465],[18.0352,48.1425,120.9684],[18.0273,48.1496,121.8505],[18.0149,48.1555,122.2946],[18.0022,48.1649,120.6832],[17.9979,48.1563,115.4814],[17.9806,48.1424,113.5471],[17.9707,48.1365,113.5431],[17.965,48.1289,113.3574],[17.9652,48.1266,113.3398],[17.9678,48.1245,112.7816],[17.993,48.1183,112.3713],[18.0008,48.1145,112.604],[18.004,48.111,113.3544],[18.0047,48.1075,112.961],[18.0029,48.1026,111.5785],[17.9952,48.095,111.7666],[17.9886,48.084,110.6544],[17.9854,48.0743,110.4454],[17.9848,48.0637,110.5489],[17.9863,48.0596,110.6986],[17.9924,48.0536,110.2737],[18.0064,48.0435,110.4063],[18.0079,48.0318,109.1377],[18.0186,48.018,110.4659],[18.0083,48.0081,109.7616],[17.9946,48.0074,111.6246],[17.9788,47.9983,112.1243],[17.9653,47.9738,108.7873],[17.9667,47.9694,108.6389],[17.9737,47.9604,108.4661],[17.9985,47.9677,111.8401],[18.0113,47.9752,109.0038],[18.0162,47.976,108.5637],[18.0201,47.9732,109.59],[18.0281,47.958,111.2183],[18.0262,47.9544,110.6601],[18.0181,47.9483,113.2962],[18.0177,47.9452,111.697],[18.0191,47.9431,109.7942],[18.0271,47.9408,109.1349],[18.0594,47.943,110.285],[18.0612,47.9439,109.2284],[18.0611,47.9473,109.1289],[18.0626,47.9485,108.8785],[18.0753,47.9469,108.2268],[18.0829,47.9499,108.7372],[18.0893,47.9486,108.8166],[18.093,47.9496,109.4002],[18.0966,47.9523,109.7802],[18.099,47.9618,109.4533],[18.1175,47.9734,111.5182],[18.1208,47.9739,111.5196],[18.1307,47.9693,112.765],[18.1427,47.9689,115.0218],[18.1527,47.9656,115.2899],[18.1596,47.9495,114.799],[18.1654,47.9455,115.039],[18.1742,47.9429,123.0466],[18.1839,47.9434,114.7362],[18.2048,47.9503,116.1282],[18.2168,47.9503,114.0828],[18.2204,47.9528,114.6],[18.2229,47.9582,115.1764],[18.2293,47.9593,114.3274],[18.2466,47.9554,134.6406],[18.2615,47.945,121.6273],[18.2762,47.9386,124.4297],[18.2908,47.9347,123.508],[18.3082,47.9251,130.4309],[18.3206,47.9292,126.3673],[18.3226,47.9308,127.0344],[18.3224,47.9325,127.7265],[18.2866,47.9481,124.1758],[18.2863,47.9511,123.348],[18.2926,47.9517,124.5391],[18.3264,47.9378,133.315],[18.3362,47.9375,138.7376],[18.3569,47.9236,137.2559],[18.3662,47.9147,140.283],[18.3661,47.91,135.5115],[18.3558,47.8965,147.8245],[18.3647,47.8868,152.4028],[18.3669,47.8795,159.1495],[18.3719,47.8737,165.0085],[18.3835,47.8698,172.0494],[18.4215,47.8673,161.243],[18.4321,47.8621,158.1844],[18.4473,47.8514,140.4037],[18.4613,47.847,163.1053],[18.4796,47.8386,144.266],[18.4918,47.8276,125.8629],[18.4998,47.8228,124.0332],[18.5328,47.8133,123.4655],[18.5328,47.8032,127.5145],[18.539,47.7859,105.7791],[18.5345,47.7854,107.7806],[18.5168,47.792,106.7691],[18.5131,47.7917,108.7851],[18.5114,47.7898,112.7725],[18.5159,47.7727,112.2882],[18.5168,47.7608,106.6098],[18.5185,47.7582,106.9999],[18.5385,47.7668,102.5],[18.5524,47.7689,102.5],[18.6171,47.7592,105.7644],[18.663,47.7613,102.5],[18.6976,47.7761,102.0],[18.7257,47.7914,103.3398],[18.7344,47.8105,102.0],[18.7423,47.8155,103.8252],[18.7544,47.8183,102.0],[18.7658,47.8188,102.0],[18.8482,47.8171,102.0],[18.8488,47.8195,105.2531]]]]}}