{"type":"Feature","properties":{"GID_2":"SVK.5.7_1","GID_0":"SVK","country":"Slovakia","GID_1":"SVK.5_1","province":"Prešovský","NL_NAME_1":"NA","county":"Prešov","VARNAME_2":"NA","NL_NAME_2":"NA","TYPE_2":"Okres","ENGTYPE_2":"District","CC_2":"707","HASC_2":"SK.PV.PO","name":"Prešov.county"},
"geometry":{"type": "MultiPolygon","coordinates": [[[[21.0258,48.909,543.3593],[21.0324,48.9064,559.2709],[21.0539,48.906,771.9347],[21.0832,48.9026,655.0059],[21.096,48.8988,635.7842],[21.1084,48.9032,439.2339],[21.1213,48.9013,507.409],[21.1362,48.9024,454.9128],[21.1607,48.8894,406.8292],[21.1663,48.889,462.6654],[21.176,48.8928,479.3863],[21.1827,48.8927,415.2663],[21.1851,48.8907,426.1116],[21.1876,48.8809,633.9728],[21.1952,48.8762,459.3712],[21.2246,48.8725,295.4925],[21.2353,48.874,321.7188],[21.2504,48.8698,240.9734],[21.2626,48.8713,212.5411],[21.2662,48.8676,212.0176],[21.2651,48.8599,211.8961],[21.2562,48.8541,236.1127],[21.2474,48.8454,333.3101],[21.2488,48.8403,370.7582],[21.2481,48.8349,402.901],[21.2511,48.8308,396.752],[21.2483,48.8263,364.3322],[21.249,48.8234,336.172],[21.2536,48.8204,326.543],[21.2625,48.8185,309.9458],[21.2693,48.8186,301.788],[21.2761,48.8246,257.2499],[21.2936,48.8302,215.0814],[21.3081,48.8306,204.6817],[21.3204,48.836,220.7331],[21.3518,48.8412,288.5761],[21.3632,48.8465,360.3173],[21.3852,48.853,420.1038],[21.3875,48.8551,403.685],[21.3872,48.8582,400.1052],[21.3774,48.8707,475.0265],[21.3778,48.8783,504.6929],[21.3837,48.881,519.6544],[21.3924,48.8815,476.8086],[21.4119,48.8781,425.1516],[21.4139,48.8806,453.624],[21.4144,48.8911,490.4319],[21.4174,48.8931,467.1996],[21.4208,48.8919,501.1615],[21.4273,48.8826,475.2765],[21.4404,48.875,409.1811],[21.4581,48.8694,544.9844],[21.472,48.86,653.097],[21.4876,48.8571,800.0151],[21.4906,48.8645,783.1597],[21.4916,48.878,687.8639],[21.4906,48.8901,651.6068],[21.4859,48.9076,659.7469],[21.487,48.9207,658.2443],[21.4752,48.9282,718.7751],[21.4725,48.9417,1021.957],[21.4451,48.9647,833.6705],[21.4346,48.982,832.8826],[21.416,48.9893,908.8287],[21.4164,48.9935,812.3173],[21.4287,49.0005,525.2472],[21.4306,49.0049,524.0562],[21.4282,49.0079,490.8613],[21.4174,49.0136,485.3778],[21.4119,49.0194,467.2442],[21.4204,49.0267,419.1184],[21.4276,49.0404,364.8446],[21.4504,49.0553,286.1279],[21.4624,49.0607,444.2425],[21.4679,49.0657,439.9048],[21.47,49.0715,375.9123],[21.4746,49.0749,289.9567],[21.4671,49.0804,365.2194],[21.4517,49.0867,388.7021],[21.45,49.0962,240.2677],[21.4344,49.0992,312.153],[21.42,49.1117,379.9843],[21.384,49.1181,460.6738],[21.3616,49.1178,501.7487],[21.3431,49.1267,465.3364],[21.3322,49.1269,428.1335],[21.3272,49.1332,380.5048],[21.3243,49.1344,346.5534],[21.3201,49.1328,323.3176],[21.3151,49.1234,345.915],[21.3037,49.1237,378.3452],[21.2957,49.1287,398.329],[21.2945,49.1333,442.1602],[21.2956,49.1433,361.403],[21.2851,49.1529,418.6746],[21.2749,49.1561,436.5453],[21.2559,49.1532,466.583],[21.2266,49.1578,636.4037],[21.2063,49.1663,835.4875],[21.1979,49.1752,871.4048],[21.1841,49.179,925.788],[21.1745,49.1841,1035.8269],[21.1633,49.1773,808.3837],[21.1675,49.1627,917.0584],[21.1794,49.1508,824.1913],[21.1908,49.1444,816.8212],[21.1912,49.1341,677.7911],[21.2042,49.1289,572.0079],[21.2109,49.1166,477.9073],[21.2258,49.1039,386.0611],[21.2241,49.0957,384.2946],[21.2326,49.0881,496.3419],[21.233,49.0835,582.126],[21.2288,49.0816,524.9997],[21.2103,49.0823,374.9536],[21.2062,49.0768,320.3227],[21.1998,49.0746,358.7343],[21.1818,49.0754,333.1116],[21.1734,49.0807,411.7358],[21.1697,49.0812,396.9562],[21.1689,49.0783,316.1148],[21.1765,49.0665,280.0053],[21.1763,49.064,278.3282],[21.1736,49.0617,276.853],[21.1557,49.0617,282.368],[21.143,49.0552,290.7805],[21.1403,49.0479,328.2715],[21.1264,49.0436,443.8508],[21.1117,49.046,479.0625],[21.1019,49.0388,435.4617],[21.0963,49.0417,380.9642],[21.0887,49.0392,421.4094],[21.0769,49.0421,495.9041],[21.0759,49.0401,543.7034],[21.0805,49.0302,455.8522],[21.0884,49.0215,446.0044],[21.0894,49.0188,438.7356],[21.0884,49.0175,397.09],[21.067,49.0253,496.2262],[21.0554,49.0369,540.6293],[21.0435,49.0362,497.6084],[21.0394,49.0449,518.0628],[21.0324,49.0507,523.0288],[21.0207,49.056399999999996,537.8273],[21.0061,49.0742,656.6282],[20.998,49.0796,772.0425],[20.9896,49.0802,748.4816],[20.9875,49.0858,670.8331],[20.9768,49.088,802.0018],[20.9726,49.0808,851.5325],[20.967,49.0776,873.9092],[20.9584,49.0773,788.4751],[20.9477,49.0793,819.3477],[20.9388,49.0777,903.0453],[20.9259,49.0836,912.228],[20.9191,49.0919,1007.739],[20.9133,49.0913,884.0427],[20.9057,49.083,873.0569],[20.8938,49.0765,874.0236],[20.8899,49.0558,917.0023],[20.8772,49.0414,1030.7302],[20.876,49.0264,1032.8225],[20.8704,49.0074,707.6395],[20.872,49.0027,727.4326],[20.8817,48.997,705.7954],[20.8798,48.9906,790.6588],[20.8816,48.9805,1051.4825],[20.8783,48.9763,986.3862],[20.8678,48.9722,976.1443],[20.8687,48.9707,1035.9231],[20.8821,48.9701,935.8617],[20.9101,48.9604,823.1985],[20.9249,48.9579,639.7196],[20.9382,48.9503,702.6523],[20.9584,48.947,565.4202],[20.9677,48.9471,596.3701],[20.9748,48.9497,572.0193],[20.9809,48.9483,634.194],[20.9905,48.9405,774.0848],[21.0024,48.9355,774.2302],[21.013,48.9227,998.4212],[21.0223,48.9188,728.4149],[21.0258,48.909,543.3593]]]]}}