{"type":"Feature","properties":{"GID_2":"SVK.3.2_1","GID_0":"SVK","country":"Slovakia","GID_1":"SVK.3_1","province":"Košický","NL_NAME_1":"NA","county":"Košice-okolie","VARNAME_2":"NA","NL_NAME_2":"NA","TYPE_2":"Okres","ENGTYPE_2":"District","CC_2":"806","HASC_2":"SK.KI.KS","name":"Košice-okolie.county"},
"geometry":{"type": "MultiPolygon","coordinates": [[[[21.3871,48.5601,544.6664],[21.4043,48.5654,529.2004],[21.4113,48.5608,575.9173],[21.4186,48.5608,567.0617],[21.4224,48.564,540.9272],[21.4271,48.581,592.5154],[21.4311,48.5856,659.846],[21.4414,48.5853,757.5132],[21.4493,48.5765,867.1942],[21.4605,48.5759,865.4571],[21.4696,48.57,772.0175],[21.483,48.5661,572.7864],[21.4936,48.5608,478.5482],[21.5007,48.5598,387.9021],[21.5037,48.5565,358.1291],[21.5094,48.5573,311.1856],[21.5202,48.5499,377.5647],[21.5196,48.5393,504.2133],[21.5236,48.5346,486.7575],[21.5337,48.5454,301.596],[21.5347,48.5485,294.4032],[21.5229,48.5595,251.6714],[21.5223,48.5666,298.6066],[21.539,48.5823,248.2738],[21.5426,48.5883,250.3713],[21.5409,48.5899,220.5895],[21.5239,48.5935,341.8728],[21.5223,48.5957,394.857],[21.524,48.5998,353.6971],[21.5279,48.6034,284.8837],[21.5364,48.6054,252.414],[21.545,48.6107,188.5106],[21.559,48.6136,168.2154],[21.5692,48.6125,199.951],[21.5758,48.6194,229.398],[21.5634,48.6261,224.4157],[21.5535,48.6374,231.6212],[21.5439,48.6427,259.4776],[21.5361,48.6571,328.5787],[21.5362,48.6627,437.6481],[21.5419,48.6792,474.0251],[21.54,48.6984,630.4274],[21.5507,48.706,588.2408],[21.551,48.7154,665.9176],[21.5552,48.7275,439.057],[21.5545,48.7374,424.7707],[21.5497,48.7427,477.9805],[21.5488,48.757,459.6743],[21.5454,48.7676,737.5574],[21.5462,48.7709,737.4774],[21.5526,48.7752,708.6458],[21.5481,48.7789,692.4133],[21.5456,48.7844,814.2556],[21.5457,48.7907,773.0127],[21.5468,48.7932,816.0535],[21.5488,48.7928,787.2192],[21.5292,48.8107,673.1614],[21.5271,48.8211,685.7043],[21.5179,48.8295,726.6796],[21.4922,48.8431,889.2632],[21.4893,48.8476,878.0521],[21.4876,48.8571,800.0151],[21.472,48.86,653.097],[21.4581,48.8694,544.9844],[21.4404,48.875,409.1811],[21.4273,48.8826,475.2765],[21.4189,48.893,480.2942],[21.4144,48.8911,490.4319],[21.4139,48.8806,453.624],[21.4119,48.8781,425.1516],[21.3924,48.8815,476.8086],[21.3837,48.881,519.6544],[21.3778,48.8783,504.6929],[21.3774,48.8707,475.0265],[21.3872,48.8582,400.1052],[21.3875,48.8551,403.685],[21.3852,48.853,420.1038],[21.3632,48.8465,360.3173],[21.3518,48.8412,288.5761],[21.3204,48.836,220.7331],[21.3081,48.8306,204.6817],[21.2936,48.8302,215.0814],[21.2769,48.8249,257.2499],[21.2699,48.8189,263.4837],[21.2651,48.8183,296.7247],[21.2526,48.8208,342.329],[21.2482,48.8258,364.3322],[21.2511,48.8308,396.752],[21.2481,48.8349,402.901],[21.2475,48.8464,351.6952],[21.2651,48.8599,211.8961],[21.2662,48.8676,212.0176],[21.2626,48.8713,212.5411],[21.2504,48.8698,240.9734],[21.2353,48.874,321.7188],[21.2246,48.8725,295.4925],[21.1952,48.8762,459.3712],[21.1876,48.8809,633.9728],[21.1851,48.8907,426.1116],[21.1827,48.8927,415.2663],[21.176,48.8928,479.3863],[21.1663,48.889,462.6654],[21.1607,48.8894,406.8292],[21.1362,48.9024,454.9128],[21.1213,48.9013,507.409],[21.1084,48.9032,439.2339],[21.096,48.8988,635.7842],[21.0832,48.9026,655.0059],[21.0539,48.906,771.9347],[21.0324,48.9064,559.2709],[21.0258,48.909,543.3593],[21.0269,48.9079,482.2865],[21.029,48.9067,465.4034],[21.0326,48.9058,559.2709],[21.0498,48.9059,774.5674],[21.0593,48.8983,728.345],[21.0644,48.8897,718.9001],[21.0653,48.8789,687.2651],[21.0627,48.877,713.9588],[21.0545,48.8782,467.8137],[21.052,48.8748,560.348],[21.0474,48.8732,470.7325],[21.0447,48.8636,352.766],[21.0622,48.8569,398.8139],[21.0648,48.8511,384.9483],[21.0727,48.8448,385.7699],[21.0742,48.8391,345.3694],[21.0713,48.8354,353.0309],[21.058,48.8312,441.2848],[21.0573,48.8284,543.3253],[21.0623,48.8238,398.0189],[21.0623,48.8205,372.5964],[21.0572,48.8162,411.9993],[21.0467,48.816,472.2825],[21.048,48.8098,613.7042],[21.0467,48.8072,578.8757],[21.0366,48.8061,591.6075],[21.0274,48.803,764.0197],[21.0301,48.7943,778.2204],[21.0258,48.7842,877.215],[21.031,48.7789,902.3687],[21.0301,48.7765,910.6456],[21.0175,48.7704,1052.0854],[21.0091,48.7686,951.9448],[20.9885,48.7762,1041.024],[20.9696,48.7766,1130.36],[20.9559,48.7728,1047.407],[20.9394,48.7642,985.7173],[20.9277,48.7633,906.6942],[20.8863,48.7693,955.0287],[20.8698,48.7756,859.9694],[20.8656,48.7758,1021.1465],[20.8554,48.7676,828.5863],[20.8464,48.7467,707.9001],[20.8367,48.7443,927.881],[20.8336,48.739,813.9824],[20.8265,48.7391,824.537],[20.821,48.7358,837.1938],[20.8082,48.7331,851.3484],[20.7989,48.7287,746.7705],[20.7791,48.7257,787.6403],[20.7704,48.7171,669.6115],[20.7591,48.7126,712.5417],[20.7552,48.7071,727.0491],[20.7552,48.702,866.0566],[20.7593,48.6954,987.6165],[20.7557,48.6878,811.7298],[20.7545,48.6733,907.6511],[20.7504,48.6681,1025.1195],[20.7629,48.6642,951.9693],[20.7938,48.6612,716.7059],[20.8015,48.6589,644.8755],[20.8119,48.6486,632.2788],[20.8194,48.6374,541.8707],[20.8299,48.6318,469.3593],[20.8374,48.6219,570.4424],[20.8377,48.6198,473.1624],[20.8357,48.6187,393.5828],[20.8197,48.6217,503.718],[20.8078,48.618899999999996,473.2513],[20.8082,48.6166,376.0102],[20.8179,48.6062,225.0981],[20.8205,48.5989,205.03],[20.8179,48.5972,201.9945],[20.8083,48.6013,226.3589],[20.8033,48.6003,207.3089],[20.8028,48.5815,218.7079],[20.8064,48.5752,446.7074],[20.8051,48.575,446.7074],[20.808,48.5742,427.2702],[20.83,48.5837,373.5662],[20.8403,48.5864,225.5483],[20.8495,48.5834,195.7366],[20.8444,48.5663,167.8464],[20.8542,48.5667,210.5046],[20.8624,48.5601,231.8157],[20.8672,48.5536,210.2914],[20.8767,48.5545,228.7441],[20.8783,48.5512,258.0542],[20.9142,48.5613,199.1013],[20.9206,48.5615,212.5559],[20.9288,48.5569,211.4433],[20.9347,48.5483,229.2555],[20.9382,48.5393,279.4093],[20.9424,48.5412,254.7372],[20.9423,48.5359,226.2438],[20.9487,48.5363,219.9188],[20.9592,48.5322,279.6994],[20.9598,48.527,237.7941],[20.9635,48.5233,272.752],[20.9715,48.5229,289.6592],[20.9838,48.5262,291.9456],[20.987,48.5205,291.8076],[20.9957,48.5304,259.435],[21.0121,48.53,308.3678],[21.0181,48.5332,310.4695],[21.0244,48.5333,291.1134],[21.0284,48.5306,278.7373],[21.0533,48.5266,281.0787],[21.0565,48.5247,302.5687],[21.0679,48.5266,298.1315],[21.0757,48.5225,260.9974],[21.084,48.5227,256.3708],[21.0944,48.5201,266.3979],[21.1011,48.5126,291.1795],[21.1013,48.5006,273.2405],[21.1064,48.4943,304.0587],[21.116,48.4925,290.6581],[21.1264,48.4927,315.7086],[21.1378,48.497,321.993],[21.1477,48.5042,272.1106],[21.1559,48.5193,293.465],[21.1608,48.5231,300.4412],[21.1809,48.5219,309.2671],[21.1932,48.5281,239.7179],[21.2034,48.5279,237.3613],[21.2111,48.5327,248.5026],[21.2178,48.5323,270.5768],[21.2226,48.5382,267.09],[21.231,48.5363,269.0862],[21.2344,48.5415,248.879],[21.2435,48.5422,225.8056],[21.251,48.5358,207.9509],[21.2625,48.5304,163.6261],[21.2884,48.527,158.5],[21.2986,48.5272,160.4144],[21.3066,48.5286,161.412],[21.3083,48.5325,161.8365],[21.3186,48.536,177.4003],[21.316,48.5409,163.8555],[21.3215,48.5436,179.321],[21.3224,48.5507,166.5964],[21.3196,48.5539,165.9143],[21.3254,48.5536,165.9789],[21.3288,48.5575,166.625],[21.3227,48.5582,166.5454],[21.3193,48.5608,169.8723],[21.323,48.5632,166.4339],[21.3304,48.5652,169.7751],[21.3322,48.5581,180.1019],[21.3637,48.5611,316.1646],[21.3825,48.5587,590.7361],[21.3871,48.5601,544.6664]],
[[21.3095,48.7834,198.857],[21.3102,48.7769,224.6867],[21.305,48.7737,270.742],[21.3059,48.758,302.2979],[21.3239,48.7421,196.9626],[21.3287,48.7361,201.3224],[21.3296,48.7328,192.2057],[21.3275,48.7265,191.0258],[21.3278,48.7222,198.5538],[21.3335,48.7169,198.5805],[21.3321,48.7148,194.0188],[21.3204,48.7125,224.2815],[21.3306,48.7088,192.2283],[21.3349,48.701,186.6966],[21.335,48.6883,184.7599],[21.3401,48.6821,184.5928],[21.3522,48.6729,184.8137],[21.3523,48.6612,182.3533],[21.3597,48.6526,180.2605],[21.3584,48.6463,178.627],[21.3519,48.645,180.7045],[21.3329,48.6476,184.391],[21.3153,48.6477,183.1586],[21.2933,48.6461,186.4137],[21.2835,48.6537,187.224],[21.271,48.6478,199.5079],[21.253,48.644,221.5856],[21.2465,48.6442,221.4955],[21.2345,48.6489,224.6325],[21.2186,48.6444,229.4881],[21.2153,48.6361,221.5725],[21.2275,48.6271,221.5856],[21.2328,48.621,216.1452],[21.2325,48.6188,215.1551],[21.2209,48.6061,212.019],[21.2257,48.5995,209.6964],[21.229,48.59,208.1119],[21.2386,48.577,205.8541],[21.2377,48.574,205.4681],[21.2294,48.5717,204.5306],[21.1896,48.5793,203.6769],[21.181,48.5829,207.0992],[21.1772,48.587,205.452],[21.1782,48.5937,214.2883],[21.1712,48.6047,219.3303],[21.1701,48.6165,249.9403],[21.1684,48.618899999999996,237.7898],[21.132,48.6202,249.9778],[21.124,48.6224,265.0735],[21.1313,48.6409,309.6793],[21.128,48.6495,325.6567],[21.124,48.6521,296.8399],[21.1241,48.6541,288.577],[21.1349,48.6611,320.7249],[21.1419,48.6635,323.8186],[21.1459,48.663,334.9664],[21.1506,48.6584,322.269],[21.1586,48.6568,285.6318],[21.1685,48.6567,285.9056],[21.1787,48.6591,327.1893],[21.1834,48.6677,332.3162],[21.184,48.6873,346.8844],[21.1827,48.6951,385.2285],[21.1874,48.6969,371.3791],[21.1981,48.6949,337.1837],[21.2013,48.6972,328.4212],[21.1828,48.7204,281.4855],[21.1741,48.7231,330.1229],[21.1733,48.7249,317.075],[21.175,48.7295,366.2202],[21.169,48.7324,380.331],[21.1616,48.7411,430.3035],[21.1428,48.7542,460.5804],[21.1282,48.7553,553.9047],[21.1228,48.7591,651.9762],[21.1228,48.7634,712.0112],[21.1274,48.7663,689.0144],[21.1291,48.7693,613.5211],[21.1258,48.7773,512.2478],[21.1266,48.7817,461.2421],[21.1319,48.7842,460.6577],[21.1425,48.7823,568.4823],[21.145,48.7836,559.5601],[21.1435,48.7897,620.5588],[21.137,48.8006,657.486],[21.1356,48.8086,594.2052],[21.1371,48.8114,546.3755],[21.1471,48.8191,723.8691],[21.1541,48.8218,765.5422],[21.1604,48.8215,780.9919],[21.1682,48.8149,746.7773],[21.1747,48.8117,723.8156],[21.1758,48.806,757.9458],[21.179,48.8037,709.9589],[21.1997,48.7987,500.5724],[21.2115,48.7977,415.0688],[21.2141,48.7917,386.418],[21.2237,48.7869,403.3378],[21.2271,48.7827,395.9536],[21.2266,48.7799,398.4747],[21.2202,48.7771,425.5054],[21.2243,48.7737,383.1044],[21.2362,48.7745,294.5421],[21.2477,48.7705,313.723],[21.2491,48.7724,329.0251],[21.2468,48.7763,277.9583],[21.2473,48.7788,270.3087],[21.2669,48.7843,320.2735],[21.2703,48.7929,335.6006],[21.2789,48.8004,282.2228],[21.2818,48.7989,275.6626],[21.2829,48.7932,285.6135],[21.2978,48.7937,255.4848],[21.306,48.7887,226.6407],[21.3095,48.7834,198.857]]]]}}