{"type": "Feature","bbox": [20.1744,49.0353,20.8072,49.4108],"geometry": {"type": "MultiPolygon","coordinates": [[[[20.3341,49.4059,482.0297],[20.3375,49.4025,478.266],[20.3351,49.4015,513.2756],[20.3251,49.403,607.0038],[20.3222,49.4017,628.1836],[20.3179,49.3931,632.6512],[20.3175,49.3887,597.4388],[20.3284,49.391,536.6181],[20.3211,49.3774,575.8115],[20.3256,49.3713,679.9716],[20.3258,49.3669,697.9598],[20.3214,49.3491,811.3835],[20.3124,49.3439,812.3424],[20.2928,49.3516,622.7444],[20.2731,49.3514,685.6754],[20.2703,49.3489,713.7108],[20.2622,49.3489,781.3214],[20.2537,49.3521,895.5312],[20.2421,49.352,822.0262],[20.2301,49.3469,846.9429],[20.2208,49.3518,972.66],[20.214,49.3484,921.6663],[20.2134,49.3457,923.1276],[20.1986,49.3437,927.39],[20.1922,49.3412,913.5938],[20.1901,49.3384,910.1781],[20.1892,49.3323,916.1043],[20.1842,49.3278,948.2623],[20.1763,49.3279,908.804],[20.1746,49.3231,911.1476],[20.1744,49.3107,985.0925],[20.1769,49.3069,1068.7454],[20.185,49.3018,1052.3267],[20.1934,49.2921,1140.1543],[20.2078,49.2849,1184.4246],[20.2216,49.2855,1004.9233],[20.2361,49.2913,1112.5972],[20.2458,49.2923,1159.3678],[20.3114,49.2842,1125.9312],[20.3148,49.2825,1090.4602],[20.3211,49.2706,986.7328],[20.3223,49.2607,1031.9296],[20.3189,49.2474,952.576],[20.325,49.2335,873.7358],[20.3345,49.227,730.5226],[20.3512,49.2272,721.5504],[20.3552,49.2253,712.5594],[20.3579,49.2219,722.3818],[20.3577,49.2182,726.6382],[20.3542,49.2125,739.8497],[20.3534,49.2057,749.4031],[20.3358,49.2046,784.4679],[20.3335,49.2018,797.3796],[20.3392,49.1968,778.8713],[20.3486,49.1828,770.9012],[20.354,49.1801,754.6255],[20.3624,49.1793,750.8841],[20.3636,49.1774,740.4204],[20.3593,49.1745,732.5403],[20.3555,49.174,741.3909],[20.3424,49.1797,764.1168],[20.3309,49.1819,792.9611],[20.3251,49.1801,817.4056],[20.3246,49.1756,817.9133],[20.3227,49.1738,818.3762],[20.3096,49.1751,831.2422],[20.3043,49.1695,825.7117],[20.3106,49.1603,779.5351],[20.312,49.1536,759.1736],[20.3108,49.1501,758.6326],[20.3065,49.1492,769.3446],[20.2946,49.1556,796.4019],[20.2821,49.1584,834.6644],[20.2795,49.1568,842.8928],[20.2758,49.1484,819.435],[20.2662,49.1423,840.8358],[20.2652,49.1394,832.7051],[20.3085,49.1112,707.6613],[20.3238,49.1058,678.4908],[20.3265,49.0992,671.4377],[20.3482,49.0964,680.1636],[20.3557,49.0936,744.0369],[20.3579,49.0911,736.993],[20.358,49.0879,719.0544],[20.3473,49.0802,707.5477],[20.3466,49.0762,681.1247],[20.3537,49.0674,687.6527],[20.3726,49.0555,712.5497],[20.3778,49.0506,717.0679],[20.3818,49.0499,724.7206],[20.3932,49.0517,715.7064],[20.3958,49.0497,718.8857],[20.3958,49.0437,757.9154],[20.3983,49.042,753.1288],[20.4213,49.0398,752.2661],[20.4377,49.0353,709.1291],[20.4433,49.0355,772.4797],[20.4577,49.038,755.8849],[20.4599,49.0414,799.2522],[20.4599,49.0497,812.7947],[20.4702,49.0553,807.5787],[20.4789,49.0544,841.1969],[20.4917,49.0478,756.4401],[20.5003,49.0469,851.8063],[20.5285,49.0546,919.0888],[20.5329,49.0579,916.3333],[20.5316,49.0628,914.8455],[20.5345,49.0645,894.0604],[20.556,49.0572,893.7011],[20.5786,49.0608,652.9338],[20.5947,49.0682,629.1408],[20.5959,49.0709,680.3228],[20.5941,49.0764,748.2554],[20.5975,49.0788,773.4498],[20.6037,49.0782,692.0789],[20.6137,49.0723,660.3902],[20.6233,49.0702,678.5446],[20.6319,49.0724,759.4075],[20.6414,49.0793,806.4457],[20.6618,49.0771,861.843],[20.6648,49.0791,858.9746],[20.6648,49.0827,876.7317],[20.6534,49.0904,962.1443],[20.6513,49.0951,1046.855],[20.6535,49.0987,969.8157],[20.6668,49.108,971.5759],[20.6879,49.1124,1028.8383],[20.7151,49.1067,776.3058],[20.7223,49.1164,743.5952],[20.7233,49.1231,679.3302],[20.7265,49.1258,661.9392],[20.7363,49.1269,829.7831],[20.754,49.1245,1045.8751],[20.7651,49.1249,834.8744],[20.7697,49.131,842.0121],[20.774,49.1439,729.2297],[20.7691,49.1494,614.6089],[20.7695,49.152,559.9263],[20.7984,49.1582,941.208],[20.8072,49.163,1060.1223],[20.8066,49.1649,1058.0623],[20.798,49.1691,1012.0042],[20.7941,49.1732,906.3663],[20.7921,49.1784,799.0123],[20.7871,49.1837,1008.7202],[20.7835,49.1908,855.5817],[20.7724,49.1956,931.2343],[20.7634,49.2062,1050.1436],[20.7202,49.2146,881.548],[20.7011,49.2206,895.3982],[20.6956,49.2244,890.6514],[20.6911,49.2314,652.6995],[20.6783,49.2324,764.3769],[20.6755,49.2438,774.3937],[20.6682,49.2496,732.3121],[20.6435,49.2485,977.7534],[20.6326,49.2558,795.7615],[20.6266,49.2573,676.1353],[20.6133,49.2517,870.0165],[20.5978,49.2519,727.0545],[20.5896,49.2474,801.6852],[20.5754,49.2487,670.9913],[20.5607,49.2462,729.8935],[20.5482,49.2501,690.2003],[20.5283,49.2411,642.7543],[20.5157,49.2452,578.0925],[20.5128,49.2474,574.2283],[20.5114,49.2539,665.8904],[20.4936,49.264,609.0522],[20.4912,49.2672,611.41],[20.4909,49.2733,647.9841],[20.4925,49.2794,708.1821],[20.5032,49.2882,790.572],[20.5051,49.2922,836.019],[20.503,49.2945,840.3266],[20.4954,49.2967,838.0385],[20.4929,49.2993,807.9865],[20.4926,49.3185,935.5853],[20.4909,49.322,1008.8206],[20.4864,49.3223,983.8881],[20.4773,49.3178,990.8649],[20.4646,49.3162,814.1627],[20.4551,49.3132,800.9355],[20.4345,49.3015,818.014],[20.4277,49.2996,851.1552],[20.4152,49.3033,795.6228],[20.3978,49.3178,868.4839],[20.3979,49.3216,851.1166],[20.406,49.3361,661.1106],[20.4058,49.3472,661.4104],[20.4081,49.3533,741.5334],[20.417,49.3616,720.6655],[20.4253,49.3774,590.0532],[20.4396,49.3901,732.1125],[20.45,49.3949,738.2412],[20.4501,49.3979,585.6714],[20.4454,49.3995,539.5837],[20.4303,49.3986,493.4266],[20.4274,49.4025,482.7706],[20.4175,49.4059,461.7759],[20.4144,49.4038,450.6293],[20.4145,49.4001,455.0362],[20.4033,49.3949,495.5986],[20.3867,49.3916,465.2138],[20.3811,49.3935,460.8129],[20.3809,49.4033,463.56],[20.3739,49.4108,532.0019],[20.3682,49.4069,472.31],[20.3677,49.402,480.063],[20.3555,49.4004,474.2513],[20.3497,49.4034,497.0558],[20.3341,49.4059,482.0297]]]]}
,"properties": {"GID_2": "SVK.5.3_1","GID_0": "SVK","country": "Slovakia","GID_1": "SVK.5_1","province": "Prešovský","NL_NAME_1": "NA","county": "Kežmarok","VARNAME_2": "NA","NL_NAME_2": "NA","TYPE_2": "Okres","ENGTYPE_2": "District","CC_2": "703","HASC_2": "SK.PV.KK","name": "Kežmarok.county","area_km2": 845.0185,"hist_schema_id": "Elevation0-9000","hist_area_km2": {"450": 1.449,"475": 4.3467,"500": 3.0776,"525": 4.5411,"550": 5.4113,"575": 8.3458,"600": 19.3166,"625": 40.8424,"650": 63.2842,"675": 68.5631,"700": 66.5721,"725": 59.2316,"750": 52.4566,"775": 47.7083,"800": 42.8004,"825": 38.6005,"850": 35.4512,"875": 33.939,"900": 32.6358,"925": 30.7505,"950": 29.3661,"975": 26.5001,"1000": 24.7015,"1025": 22.1949,"1050": 19.8844,"1075": 16.3227,"1100": 13.7459,"1125": 11.4035,"1150": 8.7016,"1175": 5.9033,"1200": 4.0192,"1225": 2.0787,"1250": 0.6234,"1275": 0.2494}}}