{"type":"Feature","properties":{"GID_1":"SVK.2_1","GID_0":"SVK","country":"Slovakia","province":"Bratislavský","VARNAME_1":"Bratislava","NL_NAME_1":"NA","TYPE_1":"Kraj","ENGTYPE_1":"Region","CC_1":"NA","HASC_1":"SK.BL","ISO_1":"NA","name":"Bratislavský.province"},
"geometry":{"type": "MultiPolygon","coordinates": [[[[17.3128,48.4556,440.2747],[17.3012,48.4612,460.9103],[17.295,48.4676,582.0042],[17.2926,48.4737,595.912],[17.2932,48.4814,457.6598],[17.3031,48.4878,474.6534],[17.3238,48.4936,425.5344],[17.3406,48.5092,439.0938],[17.3258,48.5182,358.0399],[17.3229,48.5237,294.889],[17.3045,48.5263,219.065],[17.2982,48.5346,202.581],[17.2659,48.5497,235.55],[17.2616,48.5538,236.2798],[17.2687,48.5605,231.272],[17.2864,48.5678,244.8544],[17.2942,48.5734,247.5392],[17.3087,48.5852,230.8364],[17.313,48.5938,240.7765],[17.3159,48.5963,236.2717],[17.3248,48.5992,234.9214],[17.345,48.6015,226.6445],[17.3627,48.6161,212.3966],[17.3678,48.6237,219.2862],[17.3645,48.6324,200.5466],[17.3496,48.648,192.2478],[17.3309,48.6517,206.9636],[17.3219,48.6559,188.1615],[17.3177,48.6543,189.9939],[17.2864,48.6223,237.6305],[17.2657,48.6066,254.3729],[17.2634,48.5948,231.7957],[17.2579,48.592,231.4991],[17.2363,48.586,245.7094],[17.2346,48.5838,245.0492],[17.2339,48.5753,248.5877],[17.2239,48.5715,235.3329],[17.2077,48.5681,239.0454],[17.1721,48.564,232.1857],[17.1461,48.5567,225.587],[17.1045,48.5561,196.6952],[17.0923,48.5568,200.8745],[17.0845,48.5612,196.0641],[17.0768,48.5574,193.8498],[17.0688,48.5579,184.7559],[17.0525,48.5628,160.0332],[17.031,48.5734,158.4381],[17.0262,48.5742,168.3234],[17.0237,48.573,160.7663],[17.0236,48.5707,152.8127],[17.0346,48.5599,156.9006],[17.0349,48.5579,157.6358],[17.0333,48.5565,160.3001],[17.0288,48.5563,169.4259],[17.0234,48.5593,178.0011],[17.0178,48.5603,177.3096],[16.9895,48.5591,168.0117],[16.9796,48.5567,149.9137],[16.9716,48.5505,149.1643],[16.9522,48.5481,149.3515],[16.955,48.5454,173.1877],[16.9549,48.5428,164.3143],[16.9502,48.5341,158.1157],[16.9416,48.5275,163.3568],[16.9448,48.5224,173.4622],[16.9226,48.5206,151.9753],[16.921,48.5186,151.2512],[16.9234,48.514,152.703],[16.915,48.5122,149.3416],[16.9152,48.5014,146.4446],[16.9185,48.4981,167.673],[16.9183,48.496,166.6796],[16.9126,48.4952,147.3091],[16.9062,48.499,160.2423],[16.8974,48.4971,148.0007],[16.8912,48.4922,146.9913],[16.8975,48.4868,151.6909],[16.8962,48.4842,146.472],[16.8917,48.4817,145.5515],[16.8913,48.4769,155.2076],[16.8819,48.4779,148.9589],[16.8751,48.468,144.7514],[16.8664,48.4661,148.8727],[16.8608,48.4599,146.4775],[16.8652,48.4562,148.6434],[16.8644,48.4536,157.4366],[16.8605,48.4517,147.061],[16.854,48.4517,147.3668],[16.8513,48.4497,145.3874],[16.8529,48.4355,144.7748],[16.8587,48.4262,150.8274],[16.8649,48.4199,145.5266],[16.8518,48.4105,147.8238],[16.8522,48.4062,146.9518],[16.8572,48.3967,154.2037],[16.8518,48.3912,146.1911],[16.8517,48.3837,142.7585],[16.8463,48.3823,147.7678],[16.8385,48.3844,143.7218],[16.8346,48.3819,142.8526],[16.8351,48.3796,141.7528],[16.8424,48.3722,147.9519],[16.8405,48.3651,145.931],[16.8445,48.3591,143.1201],[16.8445,48.3519,150.2571],[16.8527,48.3484,149.4316],[16.8612,48.3498,150.2983],[16.8681,48.3484,150.2801],[16.8743,48.3493,157.5952],[16.8766,48.3464,160.7772],[16.8709,48.3419,157.0458],[16.8729,48.3385,142.3468],[16.8832,48.3363,157.7452],[16.8904,48.3325,143.4582],[16.8956,48.332,140.566],[16.9098,48.3267,144.7059],[16.91,48.3234,144.1479],[16.9055,48.3189,145.3831],[16.8978,48.3154,146.0628],[16.8958,48.3117,143.7626],[16.9002,48.3044,161.1776],[16.9014,48.2993,144.7769],[16.907,48.2946,160.9624],[16.9089,48.2888,144.9678],[16.9205,48.2786,138.3856],[16.9212,48.2745,137.712],[16.9232,48.273,139.0635],[16.9469,48.271,139.579],[16.9583,48.2643,137.7909],[16.9527,48.2571,138.6569],[16.9474,48.2364,138.9538],[16.9503,48.2324,139.4855],[16.9588,48.227,137.106],[16.9631,48.2213,139.7419],[16.9637,48.2141,143.1739],[16.9777,48.1898,172.0501],[16.9787,48.1824,146.9868],[16.9768,48.1771,146.5824],[16.9775,48.1723,180.6507],[16.9974,48.1606,134.0],[17.0144,48.1535,133.5],[17.0236,48.1445,134.5237],[17.029,48.1415,133.0],[17.0393,48.1403,141.1162],[17.0585,48.1442,135.941],[17.0586,48.1422,132.0],[17.0607,48.1417,147.7868],[17.0625,48.1387,154.9079],[17.0629,48.1365,152.2356],[17.0614,48.1362,141.4838],[17.0627,48.1339,155.4455],[17.0668,48.1298,148.929],[17.0656,48.1286,139.9384],[17.0689,48.1279,139.2694],[17.0701,48.1246,138.4348],[17.0637,48.1237,138.2071],[17.0641,48.122,138.037],[17.0693,48.1186,137.7946],[17.0699,48.1166,137.4571],[17.0741,48.115,138.1018],[17.0784,48.1156,136.5201],[17.0742,48.1108,135.9916],[17.0804,48.1084,140.9942],[17.0787,48.1064,135.9095],[17.094,48.1001,134.152],[17.0891,48.097,135.1057],[17.0944,48.0919,135.7001],[17.0926,48.091,135.4832],[17.0909,48.0927,134.7405],[17.0758,48.0864,136.0479],[17.0744,48.0838,134.9388],[17.0761,48.0831,135.6498],[17.0728,48.0814,134.7671],[17.0802,48.0787,136.0415],[17.0735,48.0709,135.8663],[17.0881,48.0658,136.2469],[17.0695,48.0559,134.1047],[17.0856,48.0508,134.9536],[17.0891,48.0461,136.9145],[17.0687,48.0319,133.5974],[17.0861,48.0243,133.1907],[17.0911,48.0202,132.8604],[17.1113,48.0317,134.019],[17.1187,48.0287,133.1442],[17.128,48.0214,132.2252],[17.1321,48.0234,132.647],[17.1377,48.0234,132.6845],[17.1436,48.02,132.7818],[17.1451,48.0207,130.481],[17.1514,48.014,130.287],[17.1606,48.008,129.7047],[17.1815,48.015,129.7327],[17.1918,48.0172,129.3736],[17.2052,48.0175,136.8271],[17.2127,48.0208,137.6498],[17.2291,48.0185,138.2205],[17.2463,48.0203,125.7561],[17.2486,48.0184,131.3704],[17.272,48.0358,127.2259],[17.2875,48.0401,127.8583],[17.2874,48.0436,128.1438],[17.2803,48.0504,127.5454],[17.2808,48.0533,127.8058],[17.2855,48.0551,127.4733],[17.2936,48.0531,126.853],[17.2982,48.0546,126.6928],[17.3088,48.0634,126.5106],[17.3114,48.0716,126.5597],[17.3161,48.0765,126.5813],[17.3176,48.0839,128.4688],[17.3257,48.0882,126.1651],[17.3233,48.0905,126.3725],[17.3141,48.0897,127.8199],[17.3099,48.0916,128.8092],[17.3033,48.1039,127.3762],[17.2984,48.1096,127.5849],[17.2981,48.1129,127.3891],[17.3014,48.1204,127.7199],[17.3297,48.125,127.4465],[17.3381,48.1296,127.1382],[17.3503,48.1286,126.7705],[17.3701,48.1316,125.0675],[17.3727,48.1382,125.7129],[17.3715,48.1571,126.3799],[17.3755,48.1624,126.14],[17.3829,48.1657,134.5868],[17.3925,48.1664,125.8396],[17.4011,48.1634,121.5695],[17.4035,48.1584,125.3795],[17.3997,48.1506,126.529],[17.402,48.1479,124.7451],[17.4265,48.1445,123.8292],[17.4467,48.1438,123.2396],[17.4587,48.147,122.9475],[17.4678,48.1552,122.569],[17.4784,48.1567,122.3456],[17.4841,48.1632,122.3173],[17.4983,48.1664,121.1315],[17.511,48.1738,121.3366],[17.5174,48.1826,120.9853],[17.5178,48.1886,121.0453],[17.5097,48.1972,121.3413],[17.5087,48.2006,121.4902],[17.5187,48.2115,121.788],[17.5184,48.2145,120.4116],[17.4818,48.2282,121.0183],[17.4704,48.2364,121.2678],[17.4679,48.2412,120.9701],[17.4706,48.2505,121.5749],[17.4743,48.2559,121.2779],[17.4866,48.261,133.0769],[17.4904,48.2651,137.0214],[17.4936,48.2734,136.2687],[17.4918,48.2805,141.3304],[17.4789,48.2937,149.7494],[17.4671,48.31,156.6576],[17.4488,48.3143,163.9367],[17.4428,48.3192,169.7695],[17.451,48.3257,166.0775],[17.4653,48.3431,169.5835],[17.4663,48.3548,182.6501],[17.463,48.3657,191.8576],[17.4555,48.3693,195.8277],[17.4305,48.3712,209.1275],[17.4278,48.3782,222.3253],[17.4224,48.3847,242.1871],[17.4149,48.4017,199.8806],[17.408,48.4102,202.1986],[17.3784,48.4216,270.0089],[17.3775,48.4282,395.4419],[17.3798,48.4376,465.9346],[17.3766,48.4437,464.9332],[17.3604,48.4483,376.058],[17.3304,48.4517,383.4067],[17.3128,48.4556,440.2747]]]]}}