{"type": "Feature","id": "1051","bbox": [16.84448,48.00544,17.53219,48.65623],"geometry": {"type": "Polygon","coordinates": [[[17.34037,48.58076,202.5],[17.34378,48.58096,206.5378],[17.34672,48.58179,208.5412],[17.34998,48.58404,209.347],[17.36771,48.5999,200.941],[17.37298,48.6068,216.9556],[17.37871,48.61827,196.7871],[17.37825,48.62768,216.2401],[17.37577,48.63481,210.1421],[17.37205,48.63951,218.9913],[17.36817,48.64318,202.9667],[17.36398,48.64644,192.3904],[17.36042,48.64832,191.6507],[17.35685,48.64956,190.7488],[17.34641,48.6516,189.9371],[17.3444,48.65266,189.3544],[17.34238,48.65406,188.6771],[17.33975,48.65538,188.7776],[17.33494,48.65623,188.3734],[17.32843,48.65266,190.4848],[17.31959,48.64522,214.946],[17.29138,48.61486,248.214],[17.2904,48.61342,249.0959],[17.28931,48.61249,249.1994],[17.28776,48.61205,245.9571],[17.28575,48.61181,245.9865],[17.28373,48.6113,248.2229],[17.27768,48.60833,247.3063],[17.27319,48.60546,252.3004],[17.27071,48.60336,253.1949],[17.26916,48.6013,252.9248],[17.26699,48.59711,238.9849],[17.26528,48.59533,230.9684],[17.26327,48.59393,231.7957],[17.25552,48.59042,233.2775],[17.24637,48.58773,236.1367],[17.24203,48.58582,237.7063],[17.23826,48.58282,239.7983],[17.23422,48.57642,246.1161],[17.22988,48.57352,235.3786],[17.22213,48.57205,235.5657],[17.20973,48.57166,239.1783],[17.19175,48.5683,242.1948],[17.17821,48.56275,229.782],[17.13666,48.55078,221.7583],[17.13077,48.54985,206.8524],[17.12095,48.55197,217.0183],[17.07708,48.56592,169.7853],[17.064,48.5683,165.17],[17.05796,48.56804,162.3864],[17.0609,48.56337,165.8827],[17.06199,48.56091,178.4124],[17.06137,48.55926,173.1488],[17.05811,48.55882,175.1913],[17.01295,48.5575,176.7601],[16.95243,48.54513,164.1545],[16.94905,48.54484,166.4673],[16.9469,48.53973,155.625],[16.93047,48.5282,158.8223],[16.91393,48.51934,165.9276],[16.90649,48.50991,147.8589],[16.90122,48.4966,146.9595],[16.87507,48.47154,150.5729],[16.86494,48.45808,145.9841],[16.86081,48.44379,146.6594],[16.85192,48.39041,143.5859],[16.84934,48.3841,146.9266],[16.84686,48.38113,145.8255],[16.8451,48.37658,144.8568],[16.84448,48.3656,143.8786],[16.84758,48.35958,142.8342],[16.85533,48.35646,163.2838],[16.87549,48.35503,161.6583],[16.88117,48.35281,164.3076],[16.89171,48.34702,146.1971],[16.90194,48.3394,142.8908],[16.90649,48.33147,146.0151],[16.90422,48.32703,152.1935],[16.90029,48.32124,156.4404],[16.89843,48.31617,142.7486],[16.90277,48.31411,141.8105],[16.90546,48.31199,159.3675],[16.90887,48.30697,156.9204],[16.91207,48.30124,138.5286],[16.91331,48.29669,147.0085],[16.91662,48.2908,148.4626],[16.92427,48.28752,139.2039],[16.93336,48.28473,138.906],[16.94442,48.27801,138.844],[16.95062,48.27659,139.2404],[16.95434,48.27313,138.7714],[16.95527,48.26879,138.432],[16.95393,48.25734,138.1303],[16.95434,48.25256,138.9946],[16.96995,48.21664,142.0105],[16.97471,48.19856,155.0173],[16.97481,48.17688,147.0641],[16.98194,48.1613,142.1037],[17.00716,48.1428,138.3622],[17.0209,48.13717,158.2037],[17.03692,48.13551,162.7709],[17.04747,48.13099,150.3563],[17.06246,48.11272,135.3513],[17.06721,48.10694,134.8358],[17.08023,48.09761,135.9088],[17.07,48.08916,137.8499],[17.06483,48.07903,136.0391],[17.05914,48.06043,134.9397],[17.06307,48.05877,134.495],[17.07506,48.05208,135.0249],[17.06969,48.03567,136.8674],[17.09263,48.02725,133.3139],[17.12498,48.01952,132.4721],[17.14834,48.00544,131.3008],[17.18482,48.02027,129.4321],[17.22089,48.01505,134.0401],[17.26232,48.00728,128.0],[17.26239,48.00761,128.0],[17.26792,48.03291,126.691],[17.28637,48.04787,127.8407],[17.29169,48.05048,127.7474],[17.30223,48.05443,126.2849],[17.30533,48.0565,126.3242],[17.30642,48.05872,126.3862],[17.30456,48.06291,126.1907],[17.30347,48.06678,126.2246],[17.30363,48.07272,127.095],[17.30518,48.07474,127.7536],[17.3075,48.07531,126.8614],[17.31014,48.07428,126.3201],[17.31494,48.07459,127.3951],[17.32192,48.0766,127.7761],[17.33711,48.08508,127.3263],[17.34812,48.08967,125.8176],[17.35236,48.09252,125.4133],[17.35277,48.0936,125.4133],[17.35112,48.09551,126.6558],[17.34988,48.09639,126.6558],[17.34812,48.09701,126.0048],[17.34641,48.09727,126.6928],[17.33045,48.09637,127.2764],[17.32828,48.09675,127.1413],[17.32611,48.09768,126.9334],[17.32068,48.10138,126.9695],[17.31262,48.10541,127.1296],[17.31153,48.10662,126.9734],[17.31122,48.10851,126.7272],[17.31153,48.11097,127.1632],[17.31277,48.1151,126.7049],[17.31308,48.11763,126.7868],[17.31277,48.11988,127.1255],[17.30704,48.12616,127.5892],[17.30766,48.12755,128.1186],[17.30967,48.12843,127.7946],[17.31324,48.12848,127.4125],[17.3368,48.12469,126.9902],[17.34802,48.125,126.2969],[17.35215,48.12574,125.6581],[17.36197,48.13014,125.807],[17.36957,48.13497,125.372],[17.37375,48.13717,125.7129],[17.37794,48.13853,125.6225],[17.38166,48.13918,125.6333],[17.38801,48.14089,125.8578],[17.3908,48.143,125.5758],[17.39204,48.14479,125.6972],[17.39173,48.14616,125.7534],[17.39049,48.14776,125.1767],[17.38848,48.14959,125.2393],[17.38352,48.15329,125.7309],[17.38228,48.15505,125.6492],[17.38135,48.15691,125.7905],[17.38088,48.1597,126.3011],[17.38383,48.16972,130.7302],[17.38631,48.17225,125.4194],[17.38972,48.17388,126.3699],[17.39375,48.17494,128.6679],[17.39995,48.1776,124.4506],[17.4031,48.1783,127.1177],[17.40507,48.17799,125.2214],[17.40589,48.17644,125.1506],[17.40631,48.17481,125.2737],[17.40744,48.17324,125.0193],[17.4091,48.16967,124.5415],[17.40465,48.16424,125.4128],[17.40352,48.16218,125.0145],[17.40383,48.16052,123.1787],[17.40496,48.15949,127.1791],[17.40775,48.15877,124.5919],[17.42124,48.15778,124.6057],[17.42589,48.15634,123.6989],[17.43349,48.15236,123.9088],[17.43783,48.15122,124.577],[17.44264,48.1513,123.461],[17.4692,48.15923,122.2279],[17.50082,48.17572,121.6058],[17.51199,48.17809,121.4915],[17.51731,48.17675,121.2407],[17.52103,48.179,120.4954],[17.52444,48.18326,120.2792],[17.5308,48.19422,121.2701],[17.53219,48.19887,120.9025],[17.53219,48.20197,121.137],[17.53064,48.20326,121.1774],[17.52863,48.20569,121.3311],[17.52739,48.20639,121.3311],[17.52568,48.20646,121.3265],[17.52144,48.20559,121.3896],[17.51917,48.20719,120.9443],[17.517,48.21093,120.9507],[17.51896,48.22186,119.9011],[17.51917,48.22633,121.7748],[17.517,48.22974,119.7402],[17.49633,48.23613,120.5292],[17.49183,48.23675,120.9201],[17.48935,48.23835,120.5286],[17.48734,48.24155,121.1088],[17.48532,48.25065,121.5625],[17.48625,48.25561,128.6355],[17.49106,48.26178,133.6256],[17.51865,48.28375,138.1404],[17.4645,48.31297,157.0435],[17.45845,48.32429,160.1965],[17.4586,48.32635,155.7476],[17.45922,48.32878,155.6175],[17.46672,48.33741,162.2209],[17.47524,48.35049,173.75],[17.47757,48.35596,172.096],[17.47757,48.35994,180.1745],[17.47524,48.36196,181.5058],[17.47245,48.36547,189.3488],[17.4692,48.3687,193.6199],[17.46356,48.37307,199.5054],[17.46036,48.37514,203.7294],[17.45643,48.3763,209.7567],[17.4507,48.37653,212.163],[17.4476,48.37829,218.4368],[17.44357,48.38175,228.4067],[17.42682,48.40413,195.7693],[17.42233,48.40888,189.624],[17.41458,48.41415,192.0899],[17.40775,48.42131,204.3932],[17.40434,48.42381,220.002],[17.39484,48.42898,275.0215],[17.39297,48.43115,315.724],[17.39344,48.43322,318.3148],[17.39546,48.43518,330.0426],[17.39778,48.43906,383.8706],[17.39732,48.44118,404.2534],[17.39422,48.44244,452.9513],[17.37639,48.44283,464.9332],[17.3722,48.4435,434.2503],[17.36941,48.44469,415.2249],[17.36367,48.44846,371.3975],[17.35639,48.45211,301.4852],[17.3536,48.4542,322.0111],[17.35143,48.45544,368.7452],[17.34936,48.45616,375.9244],[17.34709,48.45637,400.416],[17.33339,48.45622,461.5298],[17.32052,48.45955,493.9295],[17.31711,48.47079,459.3602],[17.32564,48.48226,558.0672],[17.34068,48.49813,610.5481],[17.34564,48.50257,504.3221],[17.34967,48.50533,480.3239],[17.35902,48.50944,571.1128],[17.30471,48.54525,204.0313],[17.30983,48.55311,194.0788],[17.30952,48.55941,213.3973],[17.32068,48.56321,200.4484],[17.323,48.56463,201.3196],[17.32471,48.56644,203.2064],[17.33169,48.57895,213.2764],[17.3337,48.5806,216.0894],[17.33711,48.58096,204.2468],[17.34037,48.58076,202.5]]]}
,"properties": {"ISO3166-1-Alpha-3": "SVK","country": "Slovakia","fill": "#00F","name": "Bratislavský","area_km2": 2088.862,"hist_schema_id": "Elevation0-9000","hist_area_km2": {"125": 489.721,"150": 459.741,"175": 222.448,"200": 250.564,"225": 176.264,"250": 77.752,"275": 33.554,"300": 30.668,"325": 32.825,"350": 34.283,"375": 35.266,"400": 35.487,"425": 35.046,"450": 33.53,"475": 29.454,"500": 27.145,"525": 24.808,"550": 22.059,"575": 14.733,"600": 9.295,"625": 6.336,"650": 3.872,"675": 2.027,"700": 1.126,"725": 0.591,"750": 0.268}}}