{"type": "Feature","bbox": [18.4601,48.0571,20.4917,48.9415],"geometry": {"type": "MultiPolygon","coordinates": [[[[19.4567,48.0912,149.7035],[19.4613,48.0887,149.3327],[19.4686,48.0879,148.0007],[19.4724,48.1001,155.732],[19.4852,48.1054,150.1929],[19.4931,48.1133,150.0741],[19.4967,48.1339,152.38],[19.4962,48.1407,154.3055],[19.5118,48.1533,155.3637],[19.5125,48.161,157.508],[19.5085,48.1747,157.6062],[19.5176,48.1848,158.1974],[19.5245,48.1881,159.5226],[19.528,48.1944,160.8683],[19.5247,48.2,172.3756],[19.5278,48.2064,159.2779],[19.5378,48.2108,159.9251],[19.5488,48.211,212.0656],[19.579,48.2169,162.0399],[19.5954,48.2305,162.8009],[19.6286,48.2514,164.9653],[19.6371,48.2527,167.2522],[19.6479,48.2408,221.2758],[19.6565,48.2406,286.1085],[19.665,48.243,307.2259],[19.6729,48.2382,330.0179],[19.6747,48.2223,306.1182],[19.6795,48.2159,316.5462],[19.6957,48.2058,314.2208],[19.7071,48.2034,324.7233],[19.7179,48.2043,306.3804],[19.7259,48.2092,284.8465],[19.7337,48.2166,345.2324],[19.7426,48.2184,300.2761],[19.7543,48.2171,315.5202],[19.7706,48.207,309.8897],[19.7796,48.2034,308.5375],[19.7877,48.1955,374.5355],[19.8008,48.1942,454.2696],[19.8034,48.1883,446.3041],[19.8015,48.1842,394.8177],[19.7881,48.1734,591.9582],[19.7847,48.1685,554.8801],[19.7836,48.1627,610.6602],[19.7892,48.158,712.7883],[19.7989,48.1558,524.8993],[19.8053,48.1573,407.6449],[19.8099,48.1653,332.7506],[19.8166,48.1706,314.5309],[19.8258,48.1694,375.1058],[19.831,48.165,363.7823],[19.8393,48.1645,392.6498],[19.849,48.1761,558.3145],[19.8537,48.1776,387.6827],[19.8613,48.17,454.4899],[19.8686,48.1718,520.9131],[19.8756,48.171,545.6254],[19.8813,48.1659,663.7245],[19.8948,48.1654,516.807],[19.9027,48.1529,509.7494],[19.9106,48.1488,378.2708],[19.9091,48.1429,341.8249],[19.8977,48.1336,440.3384],[19.8984,48.1293,436.8959],[19.9054,48.1273,461.3495],[19.9108,48.1307,477.7352],[19.9269,48.1296,468.3339],[19.934,48.1339,413.3967],[19.9517,48.1522,285.4647],[19.9609,48.1539,274.4399],[19.9676,48.1648,276.4631],[19.9735,48.1665,294.2081],[19.9826,48.1643,282.5919],[19.9871,48.1681,285.5776],[19.9979,48.1724,270.1545],[20.0107,48.1712,264.3708],[20.021,48.176,279.2964],[20.0324,48.1764,328.4508],[20.0406,48.1748,327.3569],[20.0425,48.1691,341.9594],[20.0487,48.1679,348.7362],[20.0585,48.1759,322.7059],[20.0782,48.1818,299.5831],[20.0771,48.1843,337.3695],[20.0678,48.1858,264.2874],[20.0699,48.1942,287.4102],[20.0869,48.1958,317.8643],[20.0991,48.2063,317.7401],[20.1307,48.2232,338.2478],[20.1353,48.2428,301.1044],[20.1346,48.2505,323.363],[20.1366,48.2572,339.1999],[20.1393,48.2596,267.3994],[20.16,48.2553,252.1487],[20.1991,48.2535,239.4724],[20.2082,48.2571,252.3527],[20.2084,48.2659,200.1951],[20.217,48.2636,225.4384],[20.2245,48.2645,229.3252],[20.2321,48.2681,245.4075],[20.2359,48.2731,281.6536],[20.2332,48.2807,224.3171],[20.24,48.2836,196.0231],[20.2507,48.2809,243.6432],[20.2594,48.2754,252.7454],[20.2871,48.2637,266.2753],[20.3095,48.267,294.7898],[20.3086,48.2726,258.5361],[20.3203,48.2743,231.7481],[20.3265,48.2783,193.8103],[20.3284,48.2906,152.3362],[20.3346,48.2942,152.4827],[20.3418,48.3077,154.8232],[20.3488,48.3066,163.5399],[20.3589,48.3114,178.6486],[20.3754,48.3265,202.4995],[20.3715,48.3313,210.3665],[20.3728,48.3374,236.8654],[20.3856,48.3461,285.8483],[20.3873,48.3532,279.4109],[20.3991,48.3568,296.5981],[20.4073,48.3638,272.5023],[20.4108,48.3712,292.0115],[20.4028,48.3827,387.3879],[20.4148,48.3913,346.5107],[20.4205,48.4066,329.1146],[20.4133,48.4113,342.8595],[20.4162,48.4187,327.3038],[20.4415,48.4366,358.254],[20.445,48.4448,372.8622],[20.4534,48.4503,375.676],[20.468,48.4542,385.4828],[20.4651,48.4632,387.1515],[20.4852,48.4714,340.1136],[20.4917,48.479,453.3133],[20.4897,48.4773,414.0144],[20.4869,48.4802,415.0984],[20.4858,48.4796,414.4837],[20.4812,48.4887,385.4287],[20.4686,48.495,381.5694],[20.4606,48.4969,414.0516],[20.4571,48.4963,410.7009],[20.4479,48.4889,336.6985],[20.4437,48.4876,366.2683],[20.4296,48.4886,347.3275],[20.4247,48.4927,351.4071],[20.4208,48.4935,325.3569],[20.396,48.4899,298.6758],[20.3748,48.485,231.1876],[20.346,48.4856,190.62],[20.3406,48.4907,192.92],[20.3297,48.4906,258.095],[20.3249,48.4926,282.0814],[20.3242,48.4957,270.2339],[20.3305,48.5042,240.8365],[20.331,48.5073,233.5267],[20.318,48.5207,213.6785],[20.3175,48.5261,243.2321],[20.3203,48.5306,269.4673],[20.3193,48.5401,301.3829],[20.3333,48.5533,270.7042],[20.3403,48.5648,398.5341],[20.3436,48.5798,284.3086],[20.3477,48.5841,317.9694],[20.3484,48.5887,345.9851],[20.3529,48.595,403.236],[20.3509,48.6053,536.5172],[20.342,48.6124,417.392],[20.3248,48.6191,431.7841],[20.2902,48.6259,513.4697],[20.2891,48.6293,482.3601],[20.294,48.6439,618.2516],[20.2903,48.6556,629.0861],[20.2911,48.6649,672.9371],[20.2867,48.6775,640.9785],[20.2794,48.6817,825.2038],[20.2697,48.6908,653.1942],[20.242,48.7066,740.1559],[20.1775,48.7367,1236.9391],[20.1727,48.7406,1120.7288],[20.1694,48.7469,966.2435],[20.1681,48.7699,1058.588],[20.1716,48.7742,1000.1054],[20.185,48.7833,1051.1383],[20.1819,48.801,1113.3049],[20.1861,48.8118,1061.8013],[20.1869,48.8197,1041.6268],[20.1904,48.8256,1010.4827],[20.2074,48.8416,1050.6705],[20.2171,48.8633,984.7299],[20.2279,48.8671,963.4807],[20.2395,48.8742,1007.5407],[20.2436,48.8812,970.3692],[20.2422,48.8829,940.5453],[20.2344,48.8877,956.6312],[20.2241,48.8913,975.8737],[20.2032,48.8958,1063.7047],[20.1721,48.91,1503.7168],[20.1649,48.908,1299.6588],[20.1545,48.8948,1545.3464],[20.1501,48.8923,1579.0182],[20.1197,48.8942,1525.8206],[20.1005,48.8989,1524.7415],[20.0736,48.8993,1544.8378],[20.0553,48.9041,1299.25],[20.0365,48.9114,1280.0576],[19.9988,48.917,1388.1608],[19.9767,48.9251,1522.5234],[19.9649,48.9325,1333.0502],[19.9605,48.9318,1229.5387],[19.9523,48.9247,1237.5284],[19.9474,48.9228,1179.9285],[19.9019,48.921,1136.8992],[19.8811,48.9226,1411.5234],[19.8461,48.9212,1187.8008],[19.8188,48.9243,1210.7261],[19.8062,48.9236,1091.2329],[19.7863,48.9194,1438.057],[19.7801,48.914,1314.6288],[19.7452,48.9047,1182.4125],[19.7343,48.9058,1283.542],[19.7142,48.9107,1567.8066],[19.6688,48.9106,1469.2166],[19.6418,48.9234,1637.3698],[19.6354,48.9297,1570.5439],[19.6271,48.9348,1648.8604],[19.5999,48.9415,1824.031],[19.5715,48.9407,1960.5693],[19.5391,48.9369,1404.907],[19.5114,48.9372,1774.5526],[19.452,48.9321,1662.915],[19.4386,48.9341,1307.3247],[19.43,48.9316,1454.894],[19.3927,48.9275,1490.9062],[19.3796,48.9216,1468.5118],[19.3592,48.9068,1495.2031],[19.3355,48.8953,1697.3925],[19.3197,48.8849,1665.0658],[19.314,48.8801,1502.7515],[19.3118,48.8711,1403.182],[19.303,48.8629,1107.7678],[19.2926,48.8602,1292.926],[19.2516,48.8559,1177.9919],[19.2455,48.8567,1176.8538],[19.2438,48.8591,1176.21],[19.256,48.8656,946.0403],[19.2602,48.8695,897.8479],[19.2616,48.8754,819.0954],[19.2594,48.8846,831.8429],[19.2472,48.895,968.0377],[19.2381,48.9054,1187.8799],[19.2288,48.9045,1306.3638],[19.2014,48.891,1157.7363],[19.1501,48.8812,1012.0775],[19.1285,48.8801,1040.7947],[19.1152,48.8769,1113.3896],[19.1036,48.877,1191.5713],[19.0897,48.8733,1291.4647],[19.082,48.8735,1510.1069],[19.0717,48.878,1503.2346],[19.0594,48.8795,1440.1787],[19.0471,48.8848,1344.0869],[19.0375,48.8861,1226.4088],[19.0127,48.8704,1115.1266],[19.006,48.8582,1049.3142],[18.9944,48.8508,944.6643],[18.9848,48.8396,859.6754],[18.9884,48.8314,879.1561],[18.9982,48.8223,941.5198],[18.9985,48.8133,978.4539],[19.0065,48.7988,1016.2701],[19.0042,48.7866,1131.7571],[19.007,48.7793,1096.7592],[19.0068,48.7751,1128.4441],[18.9994,48.7655,1161.5902],[18.9988,48.7527,1181.1875],[18.9955,48.742,1204.178],[18.9704,48.7416,1053.0493],[18.934,48.747,946.3735],[18.9216,48.7464,909.7953],[18.9004,48.7481,756.9331],[18.8816,48.7536,886.4901],[18.8786,48.7654,880.4527],[18.8763,48.7678,828.3513],[18.8581,48.7653,643.7264],[18.8132,48.7448,638.9413],[18.8123,48.7378,644.9039],[18.7919,48.7119,707.5854],[18.7803,48.6926,904.6929],[18.7668,48.6831,577.5653],[18.7388,48.6718,621.2415],[18.7202,48.643,608.7657],[18.718,48.6317,732.9553],[18.7147,48.6277,785.4436],[18.6959,48.626,691.83],[18.6609,48.6358,1041.0918],[18.6488,48.6376,1167.9672],[18.6406,48.6369,1266.463],[18.6364,48.6347,1199.5695],[18.6312,48.6288,1133.2726],[18.6285,48.62,1233.9771],[18.6088,48.5982,1151.8479],[18.5901,48.5891,900.5359],[18.5871,48.5814,867.2607],[18.587,48.5732,815.2506],[18.5828,48.5694,864.3096],[18.5704,48.5663,832.1469],[18.5617,48.5664,864.1335],[18.5533,48.569,742.3234],[18.5404,48.569,631.9553],[18.4938,48.5625,584.1745],[18.488,48.5658,528.8491],[18.4769,48.5555,619.371],[18.4665,48.5486,481.622],[18.4627,48.5434,436.6763],[18.4601,48.5308,617.0707],[18.4624,48.5285,612.2654],[18.4706,48.5249,504.7783],[18.4867,48.5247,545.9205],[18.4896,48.5225,531.8054],[18.4867,48.5181,457.5686],[18.4703,48.5054,442.3713],[18.4702,48.5032,445.4874],[18.4796,48.5033,358.0593],[18.4945,48.5084,414.0452],[18.5052,48.5083,521.6818],[18.5172,48.5051,638.8602],[18.5221,48.4992,654.9636],[18.5233,48.4907,557.4836],[18.5186,48.4825,581.3661],[18.5159,48.4734,471.0122],[18.521,48.4713,381.8883],[18.5298,48.4712,427.7065],[18.5315,48.4696,481.129],[18.53,48.4644,525.181],[18.5255,48.4597,506.138],[18.5124,48.4489,445.243],[18.4933,48.4378,467.1339],[18.492,48.4359,531.4811],[18.493,48.4337,618.3204],[18.4981,48.4312,592.0584],[18.5077,48.4303,542.1249],[18.5329,48.4213,793.5999],[18.544,48.4197,808.0921],[18.5496,48.407,760.1448],[18.556,48.4041,714.1887],[18.558,48.4015,618.7662],[18.557,48.3966,525.5089],[18.5513,48.3896,630.6126],[18.5568,48.3727,320.1746],[18.5568,48.3675,270.8891],[18.5432,48.3531,234.4863],[18.5175,48.3356,226.0119],[18.518,48.3336,212.0789],[18.527,48.33,194.5916],[18.5263,48.3282,207.0499],[18.5214,48.3255,211.5116],[18.5234,48.3234,193.8039],[18.5384,48.3208,179.6669],[18.5467,48.3266,181.9573],[18.5497,48.3343,238.7993],[18.5553,48.3383,231.4145],[18.5676,48.3394,210.9963],[18.5748,48.3375,285.3603],[18.5901,48.3374,403.2704],[18.6034,48.3407,490.6946],[18.6344,48.3427,543.3202],[18.6449,48.3458,552.4659],[18.6652,48.3619,505.5593],[18.6775,48.3795,448.5927],[18.6853,48.3873,416.6447],[18.7006,48.3957,483.1253],[18.71,48.4043,488.0037],[18.7176,48.4066,439.1667],[18.7308,48.4077,543.1606],[18.7448,48.4034,606.2399],[18.7666,48.389,479.3691],[18.7676,48.382,394.0203],[18.7695,48.38,398.527],[18.7965,48.3707,477.0432],[18.7984,48.3498,390.229],[18.8014,48.3449,453.9252],[18.8114,48.3375,488.2759],[18.8136,48.3252,392.5112],[18.8224,48.3169,406.8596],[18.8343,48.3147,459.9467],[18.8397,48.3071,490.9448],[18.8402,48.3041,514.9704],[18.8387,48.2964,526.0617],[18.8244,48.2815,563.2455],[18.8262,48.2704,481.7518],[18.8251,48.2662,437.3548],[18.8205,48.2629,414.0723],[18.8065,48.2606,421.1187],[18.8003,48.2565,366.3158],[18.795,48.2498,360.9566],[18.7961,48.2445,356.7038],[18.8023,48.2385,337.6629],[18.7936,48.233,319.6389],[18.7936,48.2269,318.1931],[18.7973,48.2214,287.6945],[18.8042,48.2161,261.2947],[18.808,48.2092,204.0116],[18.8147,48.2037,182.1797],[18.8155,48.2005,184.8395],[18.8149,48.1957,150.37],[18.798,48.1877,222.8651],[18.7925,48.1817,211.5835],[18.7913,48.1755,208.2082],[18.798,48.1707,224.6367],[18.8082,48.1679,252.9353],[18.827,48.1691,158.2019],[18.8649,48.1545,138.5425],[18.8964,48.1557,203.0491],[18.9287,48.16,248.0448],[18.939,48.1649,243.4933],[18.9696,48.1678,162.4343],[18.9939,48.1774,344.0264],[18.9983,48.1822,360.0291],[19.0116,48.1898,315.8419],[19.0451,48.1971,191.737],[19.0543,48.1952,434.6799],[19.0566,48.1927,412.5061],[19.0566,48.1839,442.2126],[19.0438,48.1799,360.1482],[19.0414,48.177,440.6877],[19.0482,48.1487,473.2157],[19.0513,48.1225,368.0095],[19.0354,48.1107,354.7324],[19.0295,48.1005,231.6081],[19.0201,48.0968,187.1436],[19.014,48.0892,245.1939],[19.0125,48.0779,157.3174],[19.0208,48.0773,126.6861],[19.0359,48.0682,128.2584],[19.0469,48.0672,128.4019],[19.0579,48.0608,133.8078],[19.0651,48.0647,133.7078],[19.0764,48.0667,129.9615],[19.0818,48.0727,135.9072],[19.089,48.0744,129.9398],[19.0992,48.0701,130.2583],[19.1131,48.0685,131.1294],[19.1198,48.0689,131.8047],[19.1248,48.0735,132.5546],[19.1343,48.0763,139.6152],[19.1536,48.0698,133.2426],[19.1872,48.0625,134.4662],[19.1985,48.0633,135.8133],[19.2058,48.0658,135.1514],[19.2253,48.0634,136.1912],[19.2268,48.0593,137.0997],[19.2354,48.0571,136.7249],[19.2444,48.0578,137.84],[19.2484,48.0644,138.5449],[19.2494,48.0694,139.06],[19.2613,48.0735,140.0968],[19.2618,48.0788,140.741],[19.2663,48.0787,138.8595],[19.27,48.0752,140.0736],[19.2775,48.0747,139.4897],[19.2828,48.0809,140.7036],[19.2934,48.0842,141.2274],[19.2984,48.0893,141.144],[19.3096,48.0898,141.3133],[19.3208,48.0883,140.928],[19.3442,48.0934,147.0343],[19.3577,48.093,141.8551],[19.372,48.0891,145.1157],[19.3754,48.0925,160.8976],[19.3874,48.0929,158.1187],[19.3935,48.0882,145.0777],[19.4034,48.0866,147.6641],[19.4094,48.0905,151.2485],[19.4207,48.0906,146.5734],[19.4285,48.0933,145.9881],[19.438,48.1025,146.6296],[19.4611,48.105,169.4303],[19.4623,48.1024,155.8229],[19.4557,48.0999,147.8123],[19.454,48.0948,148.662],[19.4567,48.0912,149.7035]]]]}
,"properties": {"GID_1": "SVK.1_1","GID_0": "SVK","country": "Slovakia","province": "Banskobystrický","VARNAME_1": "BanskáBystrica","NL_NAME_1": "NA","TYPE_1": "Kraj","ENGTYPE_1": "Region","CC_1": "NA","HASC_1": "SK.BC","ISO_1": "NA","name": "Banskobystrický.province","area_km2": 9543.701,"hist_schema_id": "Elevation0-9000","hist_area_km2": {"125": 22.96,"150": 135.87,"175": 325.996,"200": 432.198,"225": 494.301,"250": 511.194,"275": 447.4,"300": 391.299,"325": 315.267,"350": 316.348,"375": 317.304,"400": 313.811,"425": 318.365,"450": 329.017,"475": 333.976,"500": 312.293,"525": 295.336,"550": 283.04,"575": 272.58,"600": 264.493,"625": 247.397,"650": 233.442,"675": 216.556,"700": 202.195,"725": 184.287,"750": 173.199,"775": 165.346,"800": 160.631,"825": 155.107,"850": 140.356,"875": 128.397,"900": 115.839,"925": 111.062,"950": 98.729,"975": 89.136,"1000": 79.425,"1025": 68.146,"1050": 62.026,"1075": 54.947,"1100": 50.329,"1125": 41.952,"1150": 37.493,"1175": 32.827,"1200": 29.052,"1225": 25.751,"1250": 22.398,"1275": 20.566,"1300": 18.053,"1325": 16.988,"1350": 15.117,"1375": 13.901,"1400": 12.436,"1425": 10.748,"1450": 9.282,"1475": 8.933,"1500": 8.39,"1525": 7.135,"1550": 6.55,"1575": 5.979,"1600": 4.863,"1625": 4.376,"1650": 4.041,"1675": 3.163,"1700": 2.662,"1725": 2.439,"1750": 1.826,"1775": 1.672,"1800": 1.366,"1825": 1.394,"1850": 0.822,"1875": 0.808,"1900": 0.571,"1925": 0.348,"1950": 0.139}}}