{"type": "Feature","id": "1052","bbox": [18.48867,48.06058,20.46597,48.94239],"geometry": {"type": "Polygon","coordinates": [[[19.74663,48.89986,1386.6284],[19.74275,48.90087,1320.718],[19.73764,48.90412,1238.2823],[19.735,48.90637,1263.8992],[19.73206,48.90828,1368.4585],[19.72834,48.90947,1334.059],[19.71841,48.91118,1576.8046],[19.71469,48.91254,1497.0223],[19.70922,48.9166,1528.1101],[19.70162,48.92048,1537.5677],[19.63739,48.93619,1970.9672],[19.56152,48.94239,1874.2139],[19.39363,48.92353,1351.0002],[19.36024,48.89634,1472.6562],[19.33916,48.88828,1480.9006],[19.32846,48.87903,1401.1886],[19.32676,48.87526,1419.3934],[19.32536,48.868899999999996,1428.5424],[19.32443,48.86689,1427.9944],[19.32304,48.86523,1386.9913],[19.32102,48.86358,1292.1245],[19.31575,48.861,1111.9489],[19.31027,48.85981,1098.0021],[19.2695,48.85562,1096.1095],[19.2664,48.85573,1089.3589],[19.26454,48.85637,1120.9907],[19.26687,48.86053,1158.1844],[19.26795,48.86177,1111.179],[19.26935,48.86224,1083.0732],[19.27291,48.86255,994.108],[19.274,48.86306,1054.5289],[19.27431,48.86549,946.1578],[19.27384,48.86921,884.4225],[19.27214,48.8772,931.6977],[19.27012,48.88084,918.6718],[19.2678,48.88306,910.7648],[19.2647,48.8841,778.8075],[19.26299,48.88529,836.7604],[19.26144,48.88885,883.1716],[19.26004,48.8905,928.2552],[19.25209,48.89061,914.9481],[19.08672,48.8749,1400.2529],[19.03923,48.87671,1254.2751],[19.02771,48.85903,1135.627],[19.02476,48.85655,974.1687],[19.01996,48.85325,919.8214],[19.00337,48.84777,978.7782],[19.0012,48.84539,888.2177],[19.00135,48.84203,871.1359],[19.00678,48.82968,916.7609],[19.00771,48.82384,806.3636],[19.00678,48.8196,915.2896],[19.0029,48.81575,1063.2168],[18.99996,48.81345,978.4539],[18.99872,48.81041,1053.6641],[18.99965,48.80596,1156.2614],[19.00538,48.79888,1049.2689],[19.01872,48.79087,1066.0836],[19.02011,48.78953,1028.0618],[19.02073,48.78632,1120.3491],[19.02027,48.78142,1035.1099],[19.01701,48.76966,991.2354],[19.01468,48.76359,1074.2725],[19.00104,48.74695,1046.8026],[18.91598,48.75025,809.976],[18.89908,48.75289,750.8115],[18.89862,48.75426,728.6699],[18.89629,48.75702,774.5297],[18.89443,48.75826,850.707],[18.89319,48.75945,862.8084],[18.8918,48.76105,880.9338],[18.89102,48.76307,846.3965],[18.88978,48.76509,821.2325],[18.88808,48.76664,746.7638],[18.87583,48.76405,856.571],[18.83299,48.74416,795.545],[18.83237,48.73749,842.3988],[18.83113,48.7356,857.8127],[18.82911,48.7331,851.7472],[18.8257,48.72979,868.2203],[18.81377,48.71315,883.024],[18.79992,48.69909,853.3062],[18.79635,48.69749,805.7693],[18.7917,48.69651,732.7776],[18.77697,48.69615,825.3682],[18.77139,48.69424,723.0178],[18.76659,48.69005,647.8207],[18.74281,48.66016,623.725],[18.73894,48.65682,456.7279],[18.72468,48.64866,602.6124],[18.72127,48.64613,627.4147],[18.71956,48.64396,607.9708],[18.72173,48.63522,711.5057],[18.72158,48.63119,746.1097],[18.71491,48.63016,778.454],[18.70933,48.63,816.8663],[18.65455,48.63972,1154.0017],[18.62799,48.61419,1226.2063],[18.61311,48.60267,1185.4475],[18.60846,48.59827,1151.8479],[18.60582,48.59517,1099.7941],[18.60427,48.59215,1099.3046],[18.60365,48.59032,1032.7258],[18.60365,48.58871,1008.9666],[18.60381,48.58714,1008.9666],[18.60381,48.58561,1013.194],[18.6035,48.58391,1031.8748],[18.60008,48.57735,992.1544],[18.59946,48.57579,967.3033],[18.59915,48.57357,939.6263],[18.50123,48.56538,553.1292],[18.48991,48.54923,676.3408],[18.50448,48.53443,471.4403],[18.5113,48.53125,543.4621],[18.51316,48.52805,431.2826],[18.51099,48.52567,435.321],[18.49627,48.51371,494.3782],[18.48991,48.50588,472.9948],[18.48867,48.50226,496.0744],[18.49115,48.50092,499.3126],[18.51549,48.50448,600.2606],[18.52433,48.50448,611.8853],[18.53275,48.50249,507.5028],[18.53616,48.49968,551.3163],[18.53818,48.49513,508.5455],[18.53787,48.49037,509.4013],[18.53709,48.48585,440.2457],[18.53539,48.47937,473.7325],[18.53585,48.47663,473.3363],[18.53756,48.47513,416.6474],[18.54329,48.47435,444.5548],[18.54391,48.47322,519.9851],[18.54267,48.47141,544.6124],[18.5343,48.46407,526.6395],[18.53161,48.46107,513.806],[18.53089,48.45451,497.1923],[18.53399,48.44908,472.3247],[18.54236,48.43896,601.5291],[18.54469,48.43332,679.9928],[18.54469,48.42735,693.1445],[18.5436,48.42175,773.7722],[18.54453,48.41849,836.3484],[18.5467,48.4171,848.446],[18.54965,48.41689,825.9947],[18.55414,48.41583,745.9542],[18.55957,48.41162,681.5355],[18.56717,48.40196,541.6293],[18.5712,48.38891,369.1023],[18.57244,48.38097,411.6366],[18.57151,48.37436,300.5009],[18.56918,48.36826,297.1559],[18.56655,48.3634,257.7431],[18.56252,48.35922,351.8717],[18.55911,48.35664,380.0628],[18.55244,48.35302,272.5878],[18.55073,48.35113,247.4319],[18.5498,48.34868,223.3872],[18.54903,48.34604,211.0696],[18.54701,48.34366,223.8147],[18.54453,48.34139,232.205],[18.53616,48.33568,233.7757],[18.5312,48.33111,201.8087],[18.54128,48.31989,179.36],[18.54577,48.31958,247.8387],[18.54903,48.32398,182.6326],[18.55182,48.32604,180.6261],[18.5588,48.32997,181.0835],[18.56081,48.33178,181.0834],[18.56732,48.33868,268.275],[18.57569,48.3448,327.0206],[18.5883,48.34767,416.641],[18.65099,48.35415,626.8619],[18.68308,48.36108,689.7082],[18.68556,48.36382,625.5548],[18.68649,48.36609,586.4268],[18.6868,48.36935,515.2043],[18.68757,48.37242,602.1705],[18.69191,48.37565,582.717],[18.69398,48.37782,511.7301],[18.69522,48.38025,500.5911],[18.69563,48.38268,483.9166],[18.69687,48.38457,430.9987],[18.70266,48.38873,576.0422],[18.70623,48.39299,632.384],[18.70902,48.39555,573.9788],[18.72344,48.40508,439.6115],[18.73289,48.4126,497.6194],[18.73847,48.41503,552.6237],[18.74297,48.41622,708.0166],[18.75475,48.41413,645.602],[18.78348,48.38581,509.8613],[18.80943,48.37126,477.9992],[18.81563,48.36635,589.2745],[18.85485,48.30646,485.6449],[18.84648,48.27814,414.6772],[18.84446,48.27442,384.1121],[18.84136,48.26972,416.8974],[18.82911,48.26155,401.9254],[18.8178,48.25137,367.7408],[18.81408,48.24651,354.9402],[18.81346,48.24297,352.931],[18.8226,48.23649,280.7173],[18.8226,48.23494,256.4845],[18.82121,48.23346,239.4106],[18.81749,48.23122,296.0017],[18.81687,48.22863,317.5156],[18.81857,48.22496,296.2672],[18.82679,48.21515,212.3983],[18.83082,48.20863,181.6987],[18.83097,48.20561,171.2811],[18.82958,48.20393,176.5782],[18.82477,48.20233,209.1852],[18.82059,48.19879,183.6735],[18.81408,48.19473,162.2412],[18.8086,48.18951,198.7773],[18.80705,48.18517,198.0299],[18.80705,48.17928,227.3116],[18.8085,48.17419,240.4556],[18.81036,48.17008,255.2194],[18.81346,48.16714,246.1777],[18.81594,48.16579,238.9837],[18.81857,48.16538,202.2648],[18.82105,48.16577,204.637],[18.82353,48.16716,163.6677],[18.82555,48.1692,158.2019],[18.82787,48.17267,160.0164],[18.83035,48.17453,172.2457],[18.83361,48.17566,149.426],[18.83795,48.17582,140.8514],[18.84291,48.17551,139.4834],[18.84849,48.17463,138.3357],[18.85268,48.17308,136.7726],[18.87195,48.16282,137.2354],[18.87676,48.16099,138.5581],[18.88095,48.16026,142.8224],[18.88374,48.16019,153.1389],[18.88916,48.16078,152.3449],[18.89211,48.16068,159.5777],[18.90017,48.15913,209.5454],[18.90513,48.15866,227.1086],[18.91009,48.15897,223.2316],[18.9197,48.16099,220.1275],[18.92425,48.16119,232.1846],[18.93045,48.16068,255.1358],[18.93231,48.16083,257.1133],[18.93324,48.16143,257.1133],[18.93386,48.16254,259.4662],[18.93433,48.1645,258.4901],[18.93557,48.16771,268.1648],[18.93867,48.17184,292.1186],[18.94177,48.17453,263.5652],[18.94502,48.17608,237.13],[18.95247,48.17752,291.5722],[18.95619,48.17866,276.9485],[18.95991,48.18039,331.3435],[18.96797,48.18212,229.4234],[18.97469,48.18274,156.9675],[18.97996,48.18398,198.3793],[18.99391,48.18889,345.6821],[19.01065,48.19158,307.3333],[19.01422,48.19251,256.6289],[19.01701,48.19287,199.6583],[19.0229,48.1921,258.9178],[19.02631,48.19205,189.8481],[19.03132,48.19241,205.3542],[19.03629,48.19422,205.0061],[19.04156,48.19685,189.7495],[19.05768,48.20677,319.828],[19.07117,48.19665,495.7672],[19.07241,48.19499,490.6248],[19.07365,48.19241,482.1835],[19.07334,48.1907,479.9399],[19.07334,48.1877,459.7055],[19.07303,48.18579,459.3037],[19.07194,48.18373,448.4262],[19.06745,48.17944,469.2413],[19.06543,48.17652,441.062],[19.06342,48.17246,475.9573],[19.06063,48.16512,367.8192],[19.06094,48.15972,471.4724],[19.06698,48.1414,445.8759],[19.06652,48.1345,387.9995],[19.06295,48.12766,406.4802],[19.05566,48.12115,347.2085],[19.04977,48.11675,337.9757],[19.04528,48.11422,364.075],[19.04032,48.11213,297.4056],[19.0366,48.10967,326.8778],[19.0338,48.10693,256.0154],[19.03081,48.102,231.6081],[19.01949,48.09081,244.4974],[19.01763,48.08745,305.0826],[19.01794,48.0751,128.2119],[19.01897,48.06588,140.5471],[19.01902,48.0655,140.5471],[19.03866,48.06487,131.266],[19.0985,48.07074,129.8207],[19.22253,48.06058,136.7563],[19.23348,48.06208,136.7084],[19.29322,48.08776,140.3559],[19.4282,48.08585,153.2708],[19.48174,48.11133,151.2728],[19.48329,48.1165,156.1693],[19.4838,48.12177,163.7663],[19.48329,48.12719,155.9936],[19.48174,48.13267,168.8436],[19.48143,48.13334,164.8558],[19.48122,48.13396,180.708],[19.48143,48.13443,180.708],[19.48174,48.13489,179.7151],[19.49362,48.15071,185.4034],[19.50303,48.18941,196.3882],[19.51398,48.20396,196.8879],[19.53124,48.21065,159.1747],[19.62323,48.22701,193.3255],[19.63387,48.22677,225.2678],[19.6439,48.22481,223.0755],[19.65526,48.21835,224.0291],[19.67697,48.20039,276.4261],[19.68699,48.1969,328.4301],[19.73309,48.2029,301.8026],[19.75655,48.20031,264.3659],[19.77433,48.1859,317.6156],[19.77484,48.17608,439.0084],[19.76916,48.16745,427.3061],[19.76668,48.159,359.3899],[19.77608,48.14952,418.2669],[19.78559,48.14869,476.8029],[19.82166,48.15791,363.4824],[19.84626,48.15267,471.5087],[19.88429,48.12962,546.433],[19.90507,48.1243,464.7569],[19.92863,48.13009,467.236],[19.9739,48.15838,302.1017],[19.996949999999998,48.16791,284.5814],[20.03498,48.17587,319.7721],[20.0383,48.17723,287.7195],[20.07808,48.19355,282.7268],[20.097,48.19843,277.1779],[20.10526,48.2028,291.0353],[20.1126,48.21174,302.8903],[20.11808,48.22972,252.2614],[20.12201,48.23675,258.6116],[20.13451,48.24667,392.983],[20.14309,48.24781,296.7408],[20.15332,48.24527,235.1026],[20.17089,48.24403,272.9632],[20.18764,48.24899,293.6452],[20.21781,48.2676,231.8511],[20.22908,48.2709,218.547],[20.24903,48.26419,274.8318],[20.26029,48.25589,193.5611],[20.27238,48.25246,185.2831],[20.29523,48.26041,225.5163],[20.32427,48.27995,164.8039],[20.34928,48.30548,163.5399],[20.37016,48.33434,220.1152],[20.40902,48.41371,297.7036],[20.42059,48.42924,341.6808],[20.43558,48.44239,364.116],[20.46597,48.46379,399.2452],[20.4654,48.46407,399.2452],[20.44865,48.47229,355.0451],[20.42674,48.47216,297.343],[20.41946,48.47043,315.818],[20.40209,48.46397,328.6268],[20.39388,48.46363,328.7535],[20.37822,48.46505,249.9963],[20.336,48.46268,184.2805],[20.3315,48.46309,183.6805],[20.33119,48.46423,183.9738],[20.33197,48.4658,184.2013],[20.33321,48.46751,184.5095],[20.33507,48.46939,185.1289],[20.33584,48.471,185.7853],[20.33352,48.47296,186.2758],[20.31595,48.48014,283.0729],[20.31114,48.48337,302.4512],[20.30866,48.48655,287.592],[20.30897,48.48911,299.41],[20.30975,48.49164,314.4892],[20.30959,48.49451,315.6937],[20.30851,48.49725,301.2526],[20.3051,48.5019,301.3303],[20.30386,48.50541,307.5987],[20.30355,48.50949,284.6905],[20.30541,48.51585,269.1772],[20.30804,48.52071,220.5277],[20.31176,48.52567,260.3068],[20.31734,48.5313,272.594],[20.32003,48.53538,301.0155],[20.32732,48.55905,377.7157],[20.32995,48.56468,332.0482],[20.33228,48.56835,363.8856],[20.33491,48.57158,385.744],[20.33755,48.57404,382.699],[20.33941,48.57636,356.1277],[20.34096,48.57954,275.7418],[20.34484,48.59254,358.5673],[20.34763,48.59936,454.5417],[20.34716,48.60096,498.7406],[20.34499,48.60207,513.3857],[20.33615,48.60437,532.7644],[20.32778,48.60742,509.9172],[20.32437,48.60817,529.1132],[20.31347,48.60918,488.8469],[20.30634,48.61062,451.9344],[20.29735,48.61373,473.0746],[20.29362,48.61605,504.9382],[20.29192,48.61791,502.5768],[20.29176,48.62019,427.6863],[20.29223,48.62225,481.3318],[20.29316,48.62406,559.7513],[20.29409,48.62587,606.0064],[20.28727,48.64427,544.8686],[20.26649,48.68439,647.9703],[20.26102,48.69176,641.0914],[20.20965,48.71989,1016.0502],[20.20738,48.7208,1077.6473],[20.19616,48.72235,1005.8984],[20.18826,48.72741,1256.7283],[20.18438,48.73351,1402.8514],[20.18082,48.74535,1299.7498],[20.1805,48.75129,1249.8352],[20.18128,48.75573,1353.9658],[20.18361,48.75832,1399.5104],[20.18702,48.76111,1387.4108],[20.19229,48.76441,1362.5399],[20.19709,48.76839,1359.2129],[20.20128,48.77273,1338.6545],[20.20081,48.77795,1380.9625],[20.19787,48.78782,1276.879],[20.19802,48.79565,1362.5464],[20.19864,48.80532,1371.7666],[20.19926,48.8078,1340.3606],[20.19957,48.81087,1264.7455],[20.19864,48.81575,1198.4873],[20.20298,48.82157,1228.9932],[20.25001,48.86818,974.8318],[20.2727,48.87278,886.6534],[20.23187,48.88857,974.0555],[20.22458,48.89242,1010.7124],[20.21916,48.89433,993.0828],[20.19957,48.89857,1144.4056],[20.18128,48.90482,1347.7411],[20.17461,48.90474,1439.043],[20.15911,48.89567,1508.0516],[20.14015,48.89474,1575.2827],[19.99618,48.90658,1555.6664],[19.9831,48.91314,1672.7975],[19.97876,48.9135,1611.0684],[19.97333,48.9134,1562.4939],[19.95582,48.90776,1193.7888],[19.94388,48.90699,1370.165],[19.94124,48.90642,1382.5996],[19.84549,48.90782,1414.6475],[19.81743,48.91298,1288.5991],[19.80807,48.91314,1220.4045],[19.76234,48.90435,1444.0686],[19.75035,48.89991,1398.7615],[19.74663,48.89986,1386.6284]]]}
,"properties": {"ISO3166-1-Alpha-3": "SVK","country": "Slovakia","fill": "#00F","name": "Banskobystrický","area_km2": 9401.374,"hist_schema_id": "Elevation0-9000","hist_area_km2": {"125": 23.799,"150": 130.778,"175": 326.165,"200": 424.947,"225": 487.766,"250": 506.778,"275": 445.464,"300": 387.338,"325": 308.678,"350": 307.084,"375": 310.389,"400": 307.915,"425": 312.398,"450": 321.81,"475": 327.41,"500": 306.888,"525": 290.725,"550": 281.48,"575": 270.511,"600": 262.741,"625": 245.306,"650": 231.14,"675": 213.849,"700": 199.685,"725": 181.344,"750": 170.72,"775": 163.666,"800": 159.818,"825": 154.813,"850": 140.16,"875": 127.81,"900": 115.139,"925": 110.125,"950": 98.922,"975": 90.014,"1000": 80.191,"1025": 68.426,"1050": 62.18,"1075": 54.626,"1100": 49.911,"1125": 41.117,"1150": 35.877,"1175": 30.82,"1200": 27.952,"1225": 24.219,"1250": 19.875,"1275": 17.792,"1300": 15.949,"1325": 14.62,"1350": 13.405,"1375": 12.119,"1400": 10.527,"1425": 8.755,"1450": 7.276,"1475": 6.843,"1500": 6.606,"1525": 5.77,"1550": 5.379,"1575": 5.686,"1600": 4.557,"1625": 4.013,"1650": 3.79,"1675": 3.303,"1700": 2.94,"1725": 2.913,"1750": 2.146,"1775": 1.951,"1800": 1.505,"1825": 1.547,"1850": 0.85,"1875": 0.975,"1900": 0.669,"1925": 0.404,"1950": 0.223,"1975": 0.084}}}