{"type":"Feature","properties":{"GID_2":"SVK.5.6_1","GID_0":"SVK","country":"Slovakia","GID_1":"SVK.5_1","province":"Prešovský","NL_NAME_1":"NA","county":"Poprad","VARNAME_2":"NA","NL_NAME_2":"NA","TYPE_2":"Okres","ENGTYPE_2":"District","CC_2":"706","HASC_2":"SK.PV.PP","name":"Poprad.county"},
"geometry":{"type": "MultiPolygon","coordinates": [[[[20.0097,49.2194,2222.0288],[19.9903,49.2267,1953.0737],[19.9845,49.2325,1853.8291],[19.9227,49.2372,1873.5837],[19.9024,49.2308,2062.9033],[19.9026,49.2234,1710.3597],[19.899,49.2168,1697.5774],[19.8886,49.2114,1706.2626],[19.884,49.2049,2033.2638],[19.8765,49.2045,1750.0283],[19.8648,49.1984,1898.3118],[19.8755,49.1884,1882.1497],[19.8932,49.1666,1652.6724],[19.8955,49.1418,957.5125],[19.8974,49.1364,916.8495],[19.9012,49.1324,949.3165],[19.905,49.132,957.8078],[19.9128,49.1366,996.8594],[19.9358,49.1361,1029.2611],[19.9378,49.1343,1016.3618],[19.9385,49.128,986.9565],[19.946,49.1152,969.6554],[19.9522,49.1147,927.2405],[19.9555,49.1198,981.6196],[19.9581,49.1205,1043.2863],[19.9665,49.1114,1008.5156],[19.9704,49.1099,1018.2726],[19.9811,49.1123,1100.3367],[19.9928,49.1129,1000.1429],[20.0032,49.1168,1044.6047],[20.0144,49.1175,1152.8092],[20.0238,49.123,1300.1663],[20.031,49.1224,1303.3591],[20.0343,49.1206,1299.6907],[20.0321,49.1057,1027.2208],[20.0253,49.0967,925.1145],[20.0203,49.0838,869.9409],[20.0137,49.0774,856.1132],[20.016,49.0728,832.3294],[20.0161,49.0675,831.5797],[20.0096,49.0493,882.1105],[20.0095,49.0266,918.1147],[19.998,49.0236,847.5814],[19.9746,49.0232,963.8394],[19.9689,49.0187,819.3694],[19.9901,49.0007,1036.4631],[19.9937,48.9915,1240.8066],[20.0015,48.9801,1265.2358],[20.0052,48.9717,1258.2074],[20.0259,48.948,1326.0234],[20.0298,48.9457,1340.5675],[20.0354,48.9454,1194.8912],[20.0508,48.9478,1302.3865],[20.0555,48.9467,1342.7384],[20.0578,48.9438,1334.1499],[20.0551,48.9371,1381.1671],[20.0501,48.9334,1311.1503],[20.0202,48.9268,1295.6438],[20.0015,48.9253,1232.3622],[19.9916,48.9212,1434.558],[19.9952,48.9184,1454.6299],[20.0365,48.9114,1280.0576],[20.0553,48.9041,1299.25],[20.0736,48.8993,1544.8378],[20.1005,48.8989,1524.7415],[20.1197,48.8942,1525.8206],[20.1468,48.8918,1654.8962],[20.1545,48.8948,1545.3464],[20.1649,48.908,1299.6588],[20.1721,48.91,1503.7168],[20.2032,48.8958,1063.7047],[20.2319,48.8887,974.0555],[20.2399,48.8848,926.1793],[20.2456,48.8797,989.77],[20.2519,48.8793,927.9393],[20.256,48.8809,906.8461],[20.2585,48.8855,982.6829],[20.2686,48.8954,1098.6056],[20.2791,48.9004,1089.1804],[20.2811,48.9066,884.3224],[20.2877,48.9109,805.4719],[20.2905,48.9152,760.806],[20.3139,48.919,699.0909],[20.3189,48.9228,671.5385],[20.3185,48.9315,764.2397],[20.313,48.9374,903.5866],[20.2885,48.9436,732.4096],[20.282,48.9477,855.4083],[20.2852,48.9553,891.3146],[20.2945,48.9606,770.5606],[20.3331,48.973,775.5845],[20.3525,48.9809,594.4318],[20.3682,48.9836,564.8235],[20.3866,48.9893,558.7313],[20.4014,48.9895,569.813],[20.4048,48.9922,565.8646],[20.4079,48.9985,591.3704],[20.4125,49.0007,605.7662],[20.4178,49.0,586.2511],[20.4457,48.9886,527.2705],[20.4591,48.9877,534.4604],[20.4663,48.9846,519.8574],[20.4616,48.9887,529.4065],[20.4448,48.9902,532.0143],[20.4299,48.9976,594.4814],[20.4306,49.0039,565.7167],[20.4261,49.0103,678.4176],[20.4281,49.0181,595.2476],[20.4315,49.0198,605.0114],[20.4399,49.0178,602.3359],[20.4422,49.0195,610.2212],[20.4377,49.0353,709.1291],[20.4213,49.0398,752.2661],[20.3983,49.042,753.1288],[20.3958,49.0437,757.9154],[20.3958,49.0497,718.8857],[20.3932,49.0517,715.7064],[20.3818,49.0499,724.7206],[20.3778,49.0506,717.0679],[20.3726,49.0555,712.5497],[20.3537,49.0674,687.6527],[20.3466,49.0762,681.1247],[20.3473,49.0802,707.5477],[20.358,49.0879,719.0544],[20.3579,49.0911,736.993],[20.3557,49.0936,744.0369],[20.3482,49.0964,680.1636],[20.3265,49.0992,671.4377],[20.3238,49.1058,678.4908],[20.3085,49.1112,707.6613],[20.2652,49.1394,832.7051],[20.2662,49.1423,840.8358],[20.2758,49.1484,819.435],[20.2795,49.1568,842.8928],[20.2821,49.1584,834.6644],[20.2946,49.1556,796.4019],[20.3065,49.1492,769.3446],[20.3108,49.1501,758.6326],[20.312,49.1536,759.1736],[20.3106,49.1603,779.5351],[20.3043,49.1695,825.7117],[20.3096,49.1751,831.2422],[20.3227,49.1738,818.3762],[20.3246,49.1756,817.9133],[20.3251,49.1801,817.4056],[20.3309,49.1819,792.9611],[20.3424,49.1797,764.1168],[20.3555,49.174,741.3909],[20.3593,49.1745,732.5403],[20.3636,49.1774,740.4204],[20.3624,49.1793,750.8841],[20.354,49.1801,754.6255],[20.3486,49.1828,770.9012],[20.3392,49.1968,778.8713],[20.3335,49.2018,797.3796],[20.3358,49.2046,784.4679],[20.3534,49.2057,749.4031],[20.3542,49.2125,739.8497],[20.3577,49.2182,726.6382],[20.3579,49.2219,722.3818],[20.3552,49.2253,712.5594],[20.3512,49.2272,721.5504],[20.3345,49.227,730.5226],[20.325,49.2335,873.7358],[20.3189,49.2474,952.576],[20.3223,49.2607,1031.9296],[20.3211,49.2706,986.7328],[20.3134,49.2836,1090.4602],[20.2458,49.2923,1159.3678],[20.2361,49.2913,1112.5972],[20.2187,49.2849,1069.0215],[20.2046,49.2858,1193.5916],[20.1934,49.2921,1140.1543],[20.185,49.3018,1052.3267],[20.1751,49.3088,995.6828],[20.1746,49.3231,911.1476],[20.1768,49.3275,908.804],[20.1735,49.329,886.8646],[20.1705,49.3274,935.9233],[20.1736,49.325,945.5985],[20.1674,49.3232,867.0533],[20.1735,49.314,931.4346],[20.1654,49.3079,990.7691],[20.1582,49.3092,842.3898],[20.1471,49.3227,834.9533],[20.1449,49.3153,821.7616],[20.141,49.3144,851.0198],[20.1362,49.306,848.8135],[20.1342,49.3059,848.2795],[20.1359,49.3036,862.7226],[20.13,49.296,878.537],[20.1321,49.2934,916.1921],[20.1279,49.2866,903.183],[20.127,49.2764,941.9517],[20.1125,49.2608,980.3965],[20.102,49.2526,992.3381],[20.1005,49.2408,1013.2273],[20.0981,49.2381,1018.2095],[20.0978,49.2346,1031.2623],[20.0999,49.2276,1069.6849],[20.1017,49.2264,1081.2228],[20.0925,49.217,1307.6388],[20.0872,49.2076,1682.609],[20.0872,49.1994,1991.299],[20.0844,49.1962,1960.4973],[20.0859,49.1892,2022.3386],[20.0893,49.1878,2141.1089],[20.0868,49.1848,2208.8777],[20.0881,49.1796,2423.4922],[20.0769,49.1785,2231.7095],[20.0693,49.1807,2275.332],[20.0602,49.187,2246.4292],[20.0472,49.1903,2020.932],[20.0407,49.195,2089.062],[20.0401,49.1973,2084.5513],[20.0205,49.2015,1928.4968],[20.0082,49.2139,2057.4065],[20.0097,49.2194,2222.0288]]]]}}