{"type": "Feature","bbox": [18.1112,48.9726,18.4362,49.2972],"geometry": {"type": "MultiPolygon","coordinates": [[[[18.1119,49.1505,773.8571],[18.1112,49.1485,717.4148],[18.1298,49.1459,688.2619],[18.1414,49.1417,685.1086],[18.1459,49.1238,700.8185],[18.16,49.1192,868.8102],[18.1861,49.0937,530.009],[18.2019,49.0826,429.6011],[18.2059,49.0687,328.1842],[18.2095,49.065,316.3496],[18.2193,49.0627,400.975],[18.2279,49.0641,354.6494],[18.2344,49.056,329.5199],[18.2438,49.0479,263.503],[18.2594,49.0423,247.0069],[18.2647,49.043,245.5317],[18.2639,49.051,255.0298],[18.2674,49.0546,266.3427],[18.2783,49.0547,264.3602],[18.2912,49.0515,245.9434],[18.304,49.0385,250.6054],[18.3206,49.0272,379.2532],[18.3296,49.0179,547.9309],[18.3407,49.0124,473.1767],[18.3431,49.0069,510.0214],[18.3548,49.0071,460.44],[18.3631,49.0018,493.6314],[18.3743,48.9902,775.2683],[18.3698,48.9861,728.5933],[18.3839,48.9799,769.2391],[18.4035,48.973,783.7233],[18.4207,48.9726,887.1465],[18.4264,48.9744,904.114],[18.4362,48.9815,627.1481],[18.4166,48.9906,640.5686],[18.4149,49.001,661.3287],[18.4086,49.0079,595.5368],[18.3982,49.0129,753.7619],[18.3959,49.0166,702.746],[18.3971,49.0222,618.0201],[18.391,49.0259,472.3196],[18.3781,49.0392,397.9785],[18.3866,49.0636,285.437],[18.3823,49.0711,315.9205],[18.3791,49.0887,333.2664],[18.388,49.0969,443.0665],[18.3762,49.1022,461.4303],[18.3879,49.1097,470.8439],[18.3888,49.1119,451.3037],[18.3871,49.1162,329.7257],[18.3831,49.1193,337.0369],[18.3703,49.1205,349.8508],[18.3709,49.1227,278.0],[18.3773,49.1258,278.0],[18.3772,49.1312,278.0],[18.3593,49.142,310.1494],[18.3563,49.1492,318.3109],[18.3554,49.1563,382.394],[18.3451,49.1663,431.0251],[18.3394,49.1697,454.639],[18.3264,49.1736,518.3039],[18.3182,49.1804,627.7252],[18.3115,49.1948,599.1261],[18.3109,49.1997,544.1897],[18.3113,49.2032,612.4874],[18.3159,49.2101,629.0508],[18.316,49.2168,432.246],[18.2914,49.2197,535.5657],[18.2862,49.2191,606.5831],[18.2784,49.2142,656.2084],[18.2686,49.2164,514.6259],[18.269,49.2182,513.4485],[18.2746,49.219,620.1796],[18.2755,49.2204,620.1796],[18.2713,49.2287,690.5302],[18.2619,49.2348,724.3339],[18.2578,49.2511,811.587],[18.2578,49.2587,744.7426],[18.2527,49.2638,751.9577],[18.2369,49.2686,741.4599],[18.2322,49.2728,769.4456],[18.2309,49.2775,661.1487],[18.2316,49.2909,814.7529],[18.23,49.2972,812.0739],[18.2075,49.2942,813.759],[18.1778,49.2855,839.6494],[18.158,49.2722,599.333],[18.1491,49.254,747.2827],[18.1362,49.2145,534.6397],[18.1312,49.2032,580.8735],[18.1203,49.1853,526.2434],[18.1177,49.1661,638.4136],[18.1119,49.1505,773.8571]]]]}
,"properties": {"GID_2": "SVK.6.8_1","GID_0": "SVK","country": "Slovakia","GID_1": "SVK.6_1","province": "Trenčiansky","NL_NAME_1": "NA","county": "Púchov","VARNAME_2": "NA","NL_NAME_2": "NA","TYPE_2": "Okres","ENGTYPE_2": "District","CC_2": "308","HASC_2": "SK.TC.PU","name": "Púchov.county","area_km2": 369.7399,"hist_schema_id": "Elevation0-9000","hist_area_km2": {"250": 19.057,"275": 20.5072,"300": 12.2176,"325": 15.1725,"350": 17.8081,"375": 19.8043,"400": 21.8973,"425": 22.3225,"450": 21.9588,"475": 21.2475,"500": 20.7017,"525": 17.9661,"550": 17.6162,"575": 16.9502,"600": 16.5889,"625": 15.968,"650": 14.7497,"675": 13.1287,"700": 11.3396,"725": 9.6615,"750": 7.4848,"775": 5.7803,"800": 3.6872,"825": 2.6187,"850": 1.9948,"875": 1.0118,"900": 0.4299,"925": 0.0693}}}