{"type":"Feature","properties":{"GID_2":"SVK.6.5_1","GID_0":"SVK","country":"Slovakia","GID_1":"SVK.6_1","province":"Trenčiansky","NL_NAME_1":"NA","county":"Partizánske","VARNAME_2":"NA","NL_NAME_2":"NA","TYPE_2":"Okres","ENGTYPE_2":"District","CC_2":"305","HASC_2":"SK.TC.PE","name":"Partizánske.county"},
"geometry":{"type": "MultiPolygon","coordinates": [[[[18.4828,48.5621,456.4761],[18.4817,48.5694,470.5084],[18.464,48.5812,322.1589],[18.4564,48.5902,278.0249],[18.4544,48.6028,341.3242],[18.4549,48.6121,272.4728],[18.4527,48.6168,235.6698],[18.4447,48.6228,223.2599],[18.4247,48.6333,199.789],[18.4255,48.6346,199.7166],[18.4358,48.6371,202.3159],[18.448,48.6469,363.8347],[18.4494,48.65,443.4409],[18.446,48.6757,333.6344],[18.4425,48.6816,339.8022],[18.4389,48.6834,424.1686],[18.4301,48.6831,405.5143],[18.4153,48.6796,332.9801],[18.4085,48.6799,319.8021],[18.401,48.6833,256.833],[18.3924,48.6916,377.5566],[18.3809,48.6911,215.255],[18.3749,48.6953,233.086],[18.3729,48.6988,243.6013],[18.3561,48.699,273.0793],[18.346,48.6954,262.3206],[18.3316,48.6829,329.0903],[18.334,48.6779,287.6805],[18.3407,48.6761,297.6058],[18.3411,48.6746,286.1387],[18.338,48.6675,254.2735],[18.3311,48.6622,203.6635],[18.3206,48.648,217.7982],[18.316,48.6444,206.199],[18.3108,48.6451,203.6711],[18.3074,48.6508,205.4549],[18.2983,48.6556,206.9306],[18.2979,48.6636,221.9181],[18.2952,48.6656,238.7741],[18.2816,48.6622,204.1833],[18.2714,48.6656,188.899],[18.2591,48.6539,182.2924],[18.2486,48.6494,186.1356],[18.2418,48.6491,191.0268],[18.2271,48.6521,195.083],[18.2065,48.6528,198.3075],[18.2021,48.6516,201.6054],[18.1991,48.6481,215.7142],[18.1989,48.6442,242.4804],[18.2022,48.6342,240.2204],[18.1987,48.6266,255.6246],[18.228,48.6201,192.2801],[18.2328,48.6158,199.7644],[18.2385,48.6031,172.2437],[18.2377,48.6011,172.0795],[18.2281,48.5951,170.5402],[18.2258,48.589,169.7374],[18.2092,48.578,169.1429],[18.2099,48.5755,169.1852],[18.2196,48.5703,168.2778],[18.223,48.5667,169.9114],[18.2228,48.5649,171.5338],[18.2185,48.5616,172.904],[18.2191,48.5555,174.6618],[18.2238,48.5526,179.77],[18.2406,48.5548,192.8332],[18.2491,48.553,179.2126],[18.2882,48.5204,395.4152],[18.2924,48.5125,443.1997],[18.2967,48.5081,519.975],[18.2998,48.4951,670.816],[18.3072,48.4902,562.9407],[18.3186,48.4876,535.8454],[18.336,48.4867,610.9426],[18.3432,48.4922,568.8787],[18.3457,48.5018,473.1359],[18.3493,48.5049,494.2268],[18.354,48.5042,503.6237],[18.3658,48.4985,512.2865],[18.3727,48.4988,524.1701],[18.378,48.5034,441.0771],[18.3829,48.5126,374.8573],[18.4098,48.5197,502.9642],[18.429,48.5326,420.265],[18.4557,48.5395,516.0486],[18.4627,48.5434,436.6763],[18.4665,48.5486,481.622],[18.4769,48.5555,619.371],[18.4828,48.5621,456.4761]]]]}}