{"type":"Feature","properties":{"GID_2":"SVK.4.1_1","GID_0":"SVK","country":"Slovakia","GID_1":"SVK.4_1","province":"Nitriansky","NL_NAME_1":"NA","county":"Komárno","VARNAME_2":"NA","NL_NAME_2":"NA","TYPE_2":"Okres","ENGTYPE_2":"District","CC_2":"401","HASC_2":"SK.NI.KN","name":"Komárno.county"},
"geometry":{"type": "MultiPolygon","coordinates": [[[[17.9053,47.7407,103.5],[17.9248,47.7441,103.5],[17.9443,47.7445,103.5],[17.9626,47.7574,107.931],[17.9688,47.7577,103.5],[18.0033,47.747,103.5],[18.0296,47.7557,103.5],[18.0411,47.7571,104.9221],[18.083,47.7569,103.5],[18.1418,47.7506,111.0436],[18.1858,47.7394,103.5],[18.2196,47.7427,103.5],[18.2492,47.7402,103.5],[18.2787,47.7334,103.5],[18.2951,47.7327,103.0],[18.3463,47.7408,103.0],[18.3879,47.7509,103.0],[18.416,47.754,103.0],[18.4381,47.7631,103.0],[18.4483,47.7658,103.0],[18.4606,47.7643,103.0],[18.4826,47.7563,103.0],[18.4938,47.754,102.5],[18.5054,47.7547,102.5],[18.5185,47.7582,106.9999],[18.5168,47.7608,106.6098],[18.5119,47.7908,110.6062],[18.5168,47.792,106.7691],[18.5358,47.7852,106.6378],[18.5393,47.7867,105.5766],[18.5328,47.8032,127.5145],[18.5332,47.812,123.0314],[18.5316,47.814,123.8221],[18.4998,47.8228,124.0332],[18.4918,47.8276,125.8629],[18.4796,47.8386,144.266],[18.4613,47.847,163.1053],[18.4473,47.8514,140.4037],[18.4321,47.8621,158.1844],[18.4215,47.8673,161.243],[18.3835,47.8698,172.0494],[18.3719,47.8737,165.0085],[18.3669,47.8795,159.1495],[18.3647,47.8868,152.4028],[18.3558,47.8965,147.8245],[18.3666,47.9111,137.4355],[18.3642,47.9171,142.2732],[18.3378,47.9367,136.055],[18.3264,47.9378,133.315],[18.2912,47.9521,123.5204],[18.2871,47.9518,123.348],[18.2857,47.949,124.1856],[18.3198,47.9342,127.5465],[18.3226,47.9308,127.0344],[18.3082,47.9251,130.4309],[18.2908,47.9347,123.508],[18.2762,47.9386,124.4297],[18.2615,47.945,121.6273],[18.2466,47.9554,134.6406],[18.2293,47.9593,114.3274],[18.2229,47.9582,115.1764],[18.2204,47.9528,114.6],[18.2168,47.9503,114.0828],[18.2048,47.9503,116.1282],[18.1811,47.943,113.7765],[18.1716,47.9434,120.2782],[18.1596,47.9495,114.799],[18.1527,47.9656,115.2899],[18.1427,47.9689,115.0218],[18.1307,47.9693,112.765],[18.1208,47.9739,111.5196],[18.1175,47.9734,111.5182],[18.099,47.9618,109.4533],[18.0966,47.9523,109.7802],[18.091,47.9488,108.8181],[18.0829,47.9499,108.7372],[18.0753,47.9469,108.2268],[18.0626,47.9485,108.8785],[18.0611,47.9473,109.1289],[18.0612,47.9439,109.2284],[18.0594,47.943,110.285],[18.0263,47.9408,109.1919],[18.0205,47.9422,109.7942],[18.0177,47.9452,111.697],[18.0181,47.9483,113.2962],[18.0262,47.9544,110.6601],[18.0281,47.958,111.2183],[18.0201,47.9732,109.59],[18.0162,47.976,108.5637],[18.0113,47.9752,109.0038],[17.9985,47.9677,111.8401],[17.9737,47.9604,108.4661],[17.9442,47.9672,108.5336],[17.9249,47.9761,108.5684],[17.9005,47.9755,109.1306],[17.8818,47.983,109.9244],[17.8843,47.9703,109.5842],[17.8789,47.9536,109.9074],[17.8813,47.9475,111.8333],[17.8808,47.9399,109.8224],[17.8779,47.9319,110.0017],[17.871,47.926,109.937],[17.8687,47.9212,109.1733],[17.8709,47.9168,109.4001],[17.8807,47.9121,110.184],[17.8816,47.9099,108.87],[17.873,47.9049,110.0639],[17.8615,47.8898,108.713],[17.8476,47.8827,108.7117],[17.8369,47.8749,109.5574],[17.8226,47.8698,109.7094],[17.8119,47.8737,110.0903],[17.8067,47.8723,110.085],[17.804,47.8631,110.5853],[17.7958,47.8526,111.0453],[17.7931,47.8437,110.2295],[17.7946,47.8284,109.8004],[17.7934,47.8246,109.9022],[17.7893,47.8215,109.247],[17.7638,47.8113,109.6872],[17.7472,47.8086,110.0549],[17.7342,47.8109,109.4425],[17.7292,47.8098,109.948],[17.7266,47.8073,109.7703],[17.7264,47.8041,109.867],[17.7312,47.7936,114.5302],[17.7307,47.789,111.5332],[17.721,47.7798,115.6285],[17.7032,47.7697,112.5133],[17.7007,47.7668,104.0],[17.7093,47.7604,104.0],[17.725,47.7543,104.0],[17.7635,47.7494,105.0107],[17.7705,47.7446,103.5],[17.7807,47.7417,103.5],[17.8045,47.7444,103.5],[17.848,47.7424,103.5],[17.8619,47.745,103.5],[17.8695,47.7448,103.5],[17.8862,47.7393,103.5],[17.8989,47.7382,103.5],[17.9053,47.7407,103.5]]]]}}