{"type": "Feature","bbox": [19.4219,49.1908,19.8228,49.4586],"geometry": {"type": "MultiPolygon","coordinates": [[[[19.7763,49.4123,715.9426],[19.7676,49.413,707.9672],[19.7463,49.4079,709.2098],[19.7413,49.4048,716.5721],[19.7385,49.4,718.5288],[19.7296,49.3917,732.592],[19.7171,49.3865,676.7867],[19.7162,49.3873,671.9072],[19.7181,49.388,672.2349],[19.7164,49.3885,672.2349],[19.7182,49.3888,668.9202],[19.7165,49.391,688.8107],[19.7139,49.3921,685.8737],[19.7096,49.3909,666.3333],[19.7088,49.3919,666.3333],[19.7106,49.3928,666.2279],[19.7078,49.3949,659.5406],[19.7067,49.3939,659.5406],[19.7065,49.396,667.3288],[19.7034,49.3952,663.6741],[19.7045,49.3982,673.1174],[19.7002,49.3982,653.6544],[19.6997,49.3997,654.8901],[19.6983,49.398,655.3854],[19.6969,49.3995,651.8984],[19.6932,49.3993,650.5792],[19.6928,49.4009,651.5438],[19.6901,49.3999,653.4493],[19.6916,49.401,651.5438],[19.6887,49.4011,646.8784],[19.6871,49.4031,646.9476],[19.6858,49.4023,646.9476],[19.6854,49.4036,643.7874],[19.6837,49.4026,643.7874],[19.6821,49.404,652.6639],[19.6801,49.4022,642.7869],[19.6788,49.4043,641.7051],[19.6765,49.4031,643.0219],[19.6751,49.4048,636.6447],[19.6721,49.4045,637.0935],[19.6717,49.4061,635.6065],[19.667,49.4056,631.6904],[19.6628,49.4077,639.6552],[19.6612,49.4065,630.4045],[19.6603,49.4085,631.4797],[19.6528,49.408,626.241],[19.6506,49.41,633.1435],[19.6443,49.4082,628.4761],[19.6448,49.4106,640.6052],[19.6412,49.4098,616.8364],[19.6395,49.4113,624.542],[19.6387,49.4086,620.2792],[19.6359,49.4104,615.4811],[19.6317,49.4088,614.6731],[19.6407,49.4261,646.9056],[19.6486,49.4354,619.0795],[19.6424,49.4381,612.6511],[19.6423,49.4477,606.4564],[19.6378,49.4476,602.0526],[19.6416,49.4495,601.3457],[19.6429,49.4546,599.5419],[19.6411,49.4576,602.4958],[19.6254,49.4496,609.9471],[19.6114,49.4469,600.3555],[19.6091,49.4501,613.5413],[19.6061,49.4513,607.046],[19.6061,49.4536,607.5729],[19.5974,49.4586,622.4666],[19.5909,49.4584,636.7749],[19.5848,49.4498,619.8336],[19.5917,49.4431,598.0],[19.595,49.4356,598.0],[19.5948,49.4321,598.0],[19.5908,49.4283,598.0],[19.5688,49.4122,600.675],[19.5527,49.4063,598.5281],[19.5232,49.3839,687.347],[19.5074,49.3767,821.933],[19.5016,49.3673,979.5099],[19.4944,49.3635,897.9973],[19.4841,49.3547,914.9714],[19.44,49.3377,1163.2413],[19.4371,49.334,1160.7461],[19.4376,49.3264,915.1265],[19.4219,49.3162,1032.4578],[19.4336,49.3111,928.485],[19.4536,49.2941,777.4753],[19.4619,49.2895,745.4943],[19.4689,49.2879,579.5604],[19.4878,49.2901,544.5634],[19.4966,49.2836,695.9772],[19.4993,49.2789,762.528],[19.5067,49.2747,644.8066],[19.5192,49.2727,681.3787],[19.5367,49.2668,851.4626],[19.5426,49.261,969.4971],[19.5448,49.2478,1193.1089],[19.5518,49.2389,1102.0175],[19.5747,49.2375,981.7859],[19.5867,49.2324,898.2191],[19.5935,49.2256,920.9467],[19.6046,49.2225,1034.5054],[19.6097,49.2168,1282.8916],[19.6334,49.2109,1567.7947],[19.6459,49.2104,1612.4814],[19.6534,49.213,1403.1256],[19.6654,49.2203,1694.4346],[19.6796,49.2222,1883.9574],[19.6874,49.2184,1737.3431],[19.6929,49.2094,1896.2258],[19.7102,49.2026,1836.297],[19.7164,49.1952,1831.7156],[19.7477,49.1908,1836.0712],[19.7555,49.1918,1792.5709],[19.766,49.1965,1603.0026],[19.7684,49.1991,1808.1499],[19.7673,49.1999,1837.7678],[19.7672,49.2253,1679.2887],[19.7676,49.227,1654.6638],[19.774,49.227,1377.1647],[19.774,49.2397,1456.8789],[19.7784,49.2454,1505.5345],[19.785,49.2467,1639.501],[19.7891,49.2538,1397.6952],[19.7945,49.2541,1322.3765],[19.7944,49.2631,1409.718],[19.8013,49.2631,1185.1824],[19.8013,49.2676,1186.1401],[19.815,49.2677,1041.2268],[19.815,49.2722,1074.9781],[19.8218,49.2722,957.9579],[19.8228,49.2768,1048.338],[19.8218,49.2812,951.3505],[19.8098,49.2954,1160.1436],[19.8011,49.2957,1164.7346],[19.8011,49.3128,1042.5775],[19.8079,49.3128,996.6464],[19.8079,49.3263,957.0666],[19.8035,49.3263,974.1473],[19.8023,49.3303,966.3336],[19.7991,49.3336,954.6393],[19.798,49.3408,927.7649],[19.7948,49.346,887.5243],[19.7953,49.3475,880.0468],[19.8009,49.349,860.2788],[19.8009,49.3527,896.9581],[19.8078,49.3534,883.8036],[19.8078,49.3579,858.7219],[19.8018,49.3579,852.3644],[19.8038,49.3648,809.0626],[19.8008,49.3714,794.5519],[19.8008,49.3759,773.6674],[19.7956,49.3759,784.4633],[19.7939,49.3774,782.0952],[19.7938,49.403,733.3047],[19.7893,49.403,739.48],[19.7906,49.4107,711.8176],[19.7763,49.4123,715.9426]]]]}
,"properties": {"GID_2": "SVK.8.10_1","GID_0": "SVK","country": "Slovakia","GID_1": "SVK.8_1","province": "Žilinský","NL_NAME_1": "NA","county": "Tvrdošín","VARNAME_2": "NA","NL_NAME_2": "NA","TYPE_2": "Okres","ENGTYPE_2": "District","CC_2": "510","HASC_2": "SK.ZI.TS","name": "Tvrdošín.county","area_km2": 480.2786,"hist_schema_id": "Elevation0-9000","hist_area_km2": {"550": 2.7927,"575": 8.6646,"600": 32.6266,"625": 28.1069,"650": 28.5952,"675": 27.6191,"700": 23.7153,"725": 26.3106,"750": 25.7197,"775": 22.495,"800": 19.7101,"825": 20.1688,"850": 19.6588,"875": 18.664,"900": 16.9089,"925": 15.1119,"950": 13.7165,"975": 11.3246,"1000": 10.0262,"1025": 9.2797,"1050": 8.8103,"1075": 8.0918,"1100": 7.0685,"1125": 6.6676,"1150": 5.5198,"1175": 4.8285,"1200": 4.2758,"1225": 3.3764,"1250": 3.2661,"1275": 3.1417,"1300": 2.7544,"1325": 2.7406,"1350": 2.8238,"1375": 2.3256,"1400": 2.4918,"1425": 2.4918,"1450": 2.3119,"1475": 2.2982,"1500": 2.2291,"1525": 1.8137,"1550": 2.0216,"1575": 1.7171,"1600": 1.6755,"1625": 1.5094,"1650": 1.4957,"1675": 1.288,"1700": 1.3019,"1725": 1.108,"1750": 0.9003,"1775": 0.8865,"1800": 0.9973,"1825": 0.7342,"1850": 0.6926,"1875": 0.6649,"1900": 0.6234,"1925": 0.4433,"1950": 0.4572,"1975": 0.2355,"2000": 0.2909,"2025": 0.3048,"2050": 0.1385,"2075": 0.1385,"2100": 0.0693,"2125": 0.0277,"2150": 0.0139}}}