{"type":"Feature","properties":{"GID_2":"SVK.8.5_1","GID_0":"SVK","country":"Slovakia","GID_1":"SVK.8_1","province":"Žilinský","NL_NAME_1":"NA","county":"LiptovskýMikuláš","VARNAME_2":"NA","NL_NAME_2":"NA","TYPE_2":"Okres","ENGTYPE_2":"District","CC_2":"505","HASC_2":"SK.ZI.LM","name":"Liptovský_Mikuláš.county"},
"geometry":{"type": "MultiPolygon","coordinates": [[[[19.7673,49.206,1909.2355],[19.7684,49.1991,1808.1499],[19.7674,49.1976,1706.1973],[19.7555,49.1918,1792.5709],[19.7477,49.1908,1836.0712],[19.7352,49.1934,1780.3665],[19.7191,49.1944,1825.8679],[19.7143,49.1966,1877.6279],[19.7102,49.2026,1836.297],[19.6929,49.2094,1896.2258],[19.6874,49.2184,1737.3431],[19.6809,49.2219,1825.1475],[19.6654,49.2203,1694.4346],[19.6479,49.2107,1606.3455],[19.6349,49.2106,1590.4764],[19.6097,49.2168,1282.8916],[19.6046,49.2225,1034.5054],[19.5935,49.2256,920.9467],[19.5867,49.2324,898.2191],[19.5747,49.2375,981.7859],[19.5488,49.2387,1121.9543],[19.5395,49.237,1137.3806],[19.5336,49.2341,1090.2021],[19.5283,49.2292,962.8389],[19.5206,49.2151,973.7336],[19.5164,49.2103,924.6863],[19.5023,49.2005,870.1583],[19.4858,49.1937,976.7529],[19.4838,49.1892,952.1094],[19.4842,49.1831,930.3438],[19.4791,49.1752,1017.7448],[19.4597,49.1723,1127.5442],[19.4515,49.1696,1157.2966],[19.4427,49.1702,939.3879],[19.4343,49.1684,768.2347],[19.4313,49.1709,754.6889],[19.4287,49.1701,916.1242],[19.4273,49.1676,962.4653],[19.4277,49.1554,806.3254],[19.4299,49.1473,927.4711],[19.4434,49.1309,816.4141],[19.4482,49.1285,705.0013],[19.4572,49.1281,700.3871],[19.4598,49.1265,717.9585],[19.4617,49.1058,658.7007],[19.4561,49.0957,520.0],[19.4458,49.088,551.4977],[19.4373,49.0836,537.5683],[19.4183,49.0778,586.9598],[19.4144,49.075,624.7261],[19.4142,49.0725,629.3014],[19.4223,49.0584,592.0778],[19.4223,49.0525,599.1988],[19.4195,49.0485,659.0532],[19.406,49.0379,848.9524],[19.401,49.0296,872.9374],[19.389,49.0179,1064.1199],[19.3726,49.008,1230.7917],[19.368,49.003,1249.1355],[19.3619,48.9875,1407.4739],[19.3619,48.9704,1263.7712],[19.3589,48.9637,1386.2448],[19.3599,48.9555,1475.0857],[19.3723,48.9538,1350.5768],[19.3834,48.9456,1162.7971],[19.382,48.93,1496.9701],[19.3832,48.923,1524.5885],[19.3945,48.9279,1511.7828],[19.43,48.9316,1454.894],[19.4386,48.9341,1307.3247],[19.452,48.9321,1662.915],[19.5114,48.9372,1774.5526],[19.5391,48.9369,1404.907],[19.5715,48.9407,1960.5693],[19.5999,48.9415,1824.031],[19.6271,48.9348,1648.8604],[19.6354,48.9297,1570.5439],[19.6418,48.9234,1637.3698],[19.6676,48.9107,1469.2166],[19.7142,48.9107,1567.8066],[19.7432,48.9047,1147.2285],[19.7599,48.9078,1327.135],[19.7815,48.9146,1314.6288],[19.7863,48.9194,1438.057],[19.8062,48.9236,1091.2329],[19.8188,48.9243,1210.7261],[19.8461,48.9212,1187.8008],[19.8811,48.9226,1411.5234],[19.9019,48.921,1136.8992],[19.9474,48.9228,1179.9285],[19.9523,48.9247,1237.5284],[19.9605,48.9318,1229.5387],[19.9637,48.9325,1333.0502],[19.9684,48.931399999999996,1435.7983],[19.9767,48.9251,1522.5234],[19.9919,48.9205,1434.558],[20.0015,48.9253,1232.3622],[20.0202,48.9268,1295.6438],[20.0476,48.9326,1326.3372],[20.0551,48.9371,1381.1671],[20.0578,48.9438,1334.1499],[20.0542,48.9472,1344.7483],[20.0463,48.948,1253.739],[20.0316,48.9455,1302.1276],[20.0259,48.948,1326.0234],[20.0052,48.9717,1258.2074],[20.0015,48.9801,1265.2358],[19.9937,48.9915,1240.8066],[19.9901,49.0007,1036.4631],[19.9689,49.0187,819.3694],[19.9746,49.0232,963.8394],[19.998,49.0236,847.5814],[20.0095,49.0266,918.1147],[20.0096,49.0493,882.1105],[20.0161,49.0675,831.5797],[20.016,49.0728,832.3294],[20.0137,49.0774,856.1132],[20.0203,49.0838,869.9409],[20.0253,49.0967,925.1145],[20.0321,49.1057,1027.2208],[20.0341,49.1132,1141.8868],[20.0338,49.1211,1299.6907],[20.0238,49.123,1300.1663],[20.0144,49.1175,1152.8092],[20.0032,49.1168,1044.6047],[19.9928,49.1129,1000.1429],[19.9811,49.1123,1100.3367],[19.9717,49.1099,1015.7125],[19.9665,49.1114,1008.5156],[19.9581,49.1205,1043.2863],[19.9555,49.1198,981.6196],[19.9529,49.115,927.2405],[19.9472,49.1146,957.1519],[19.9385,49.128,986.9565],[19.9378,49.1343,1016.3618],[19.9358,49.1361,1029.2611],[19.9128,49.1366,996.8594],[19.9039,49.1318,957.8078],[19.8991,49.134,923.0651],[19.8955,49.1418,957.5125],[19.8932,49.1666,1652.6724],[19.8785,49.1851,1869.2549],[19.8658,49.198,1898.3118],[19.8675,49.1961,2030.562],[19.8511,49.1963,1832.4905],[19.8447,49.1951,1951.5254],[19.841,49.1926,2106.8596],[19.84,49.1959,1892.7031],[19.8339,49.1968,1911.1039],[19.8294,49.2017,1932.9932],[19.8227,49.2014,2030.9174],[19.8198,49.1995,2139.6453],[19.8075,49.2057,1956.9257],[19.8037,49.2046,1929.7412],[19.795,49.1984,2101.0952],[19.7823,49.1999,1805.6108],[19.7786,49.205,1934.4631],[19.7673,49.206,1909.2355]]]]}}