{"type": "Feature","bbox": [17.844,48.4198,18.2991,48.714],"geometry": {"type": "MultiPolygon","coordinates": [[[[18.1803,48.4366,352.4652],[18.1916,48.4397,441.1447],[18.2079,48.4494,396.3511],[18.2166,48.4591,412.8516],[18.2276,48.4653,547.1055],[18.2492,48.482,664.0389],[18.2659,48.4847,683.6023],[18.2781,48.4904,681.9351],[18.2926,48.4932,693.5844],[18.2991,48.4963,679.3562],[18.2969,48.5077,519.975],[18.2882,48.5204,395.4152],[18.2776,48.5304,331.3321],[18.2692,48.5355,262.0053],[18.2653,48.5404,244.1539],[18.2485,48.5535,178.6109],[18.2335,48.5547,188.0506],[18.2238,48.5526,179.77],[18.2191,48.5555,174.6618],[18.2185,48.5616,172.904],[18.2228,48.5649,171.5338],[18.223,48.5667,169.9114],[18.2196,48.5703,168.2778],[18.2099,48.5755,169.1852],[18.209,48.5775,169.1429],[18.2125,48.5812,168.6589],[18.2258,48.589,169.7374],[18.2281,48.5951,170.5402],[18.2381,48.6015,172.0795],[18.2377,48.6057,172.3052],[18.2307,48.6181,208.6958],[18.2244,48.6216,185.0296],[18.1987,48.6266,255.6246],[18.1899,48.6334,254.1322],[18.1723,48.6393,253.3726],[18.1606,48.6472,281.0916],[18.1489,48.6517,255.5283],[18.1436,48.6562,284.4724],[18.1381,48.6732,267.5847],[18.1294,48.6807,314.8757],[18.1115,48.6911,337.5964],[18.0818,48.6929,388.3924],[18.0588,48.7002,669.1306],[18.0364,48.701,815.1241],[18.0196,48.7094,828.0955],[18.0022,48.714,808.2277],[18.0,48.704,730.2576],[17.9932,48.6939,663.0469],[17.9928,48.6855,578.6817],[17.9969,48.6786,626.0432],[17.9964,48.6669,534.9517],[18.0019,48.6535,343.9934],[18.0093,48.6408,498.6297],[18.0172,48.6337,343.3754],[18.0171,48.6237,271.7128],[18.0088,48.6171,421.6451],[17.9667,48.6131,539.6888],[17.9682,48.6,635.9329],[17.9611,48.5931,657.228],[17.9435,48.5935,448.8034],[17.9302,48.5896,526.2443],[17.9152,48.5923,356.4804],[17.9055,48.5916,397.0753],[17.8952,48.596,396.8778],[17.8866,48.5926,316.479],[17.8829,48.5893,340.9039],[17.8809,48.5833,336.9788],[17.8762,48.5788,303.0213],[17.8715,48.5707,344.9364],[17.864,48.5644,315.5144],[17.8583,48.5489,277.117],[17.8575,48.5379,288.727],[17.844,48.524,236.9034],[17.8452,48.5221,214.8269],[17.8643,48.511,329.9185],[17.8764,48.5069,320.8314],[17.8821,48.5024,311.9537],[17.9044,48.494,221.6553],[17.9311,48.4738,184.0676],[17.9405,48.4692,194.785],[17.9537,48.4591,188.0772],[17.9663,48.4559,179.196],[17.9868,48.4542,181.6781],[17.9916,48.4555,195.0201],[18.0031,48.4638,217.417],[18.0157,48.464,180.8546],[18.0298,48.4603,170.2978],[18.0386,48.4522,171.0676],[18.0493,48.4483,208.3],[18.0501,48.4433,206.7699],[18.0479,48.4346,213.6474],[18.0513,48.4313,200.3972],[18.0578,48.4291,212.0439],[18.0731,48.4271,181.1974],[18.0857,48.422,154.4516],[18.1054,48.4198,149.069],[18.1221,48.4439,151.3703],[18.1268,48.4461,151.3336],[18.1458,48.4439,197.7226],[18.1803,48.4366,352.4652]]]]}
,"properties": {"GID_2": "SVK.4.6_1","GID_0": "SVK","country": "Slovakia","GID_1": "SVK.4_1","province": "Nitriansky","NL_NAME_1": "NA","county": "Topolcany","VARNAME_2": "NA","NL_NAME_2": "NA","TYPE_2": "Okres","ENGTYPE_2": "District","CC_2": "406","HASC_2": "SK.NI.TO","name": "Topolcany.county","area_km2": 593.7679,"hist_schema_id": "Elevation0-9000","hist_area_km2": {"150": 40.6471,"175": 96.7723,"200": 115.2829,"225": 89.5526,"250": 46.6332,"275": 33.4474,"300": 29.2615,"325": 24.6333,"350": 19.4175,"375": 15.9523,"400": 13.7342,"425": 12.2742,"450": 10.5757,"475": 8.3568,"500": 6.8399,"525": 6.4056,"550": 5.3267,"575": 4.065,"600": 3.6168,"625": 3.0423,"650": 2.2569,"675": 1.6397,"700": 1.2759,"725": 0.995,"750": 0.5319,"775": 0.4198,"800": 0.3498,"825": 0.1959,"850": 0.1259,"875": 0.0839,"900": 0.028,"925": 0.028}}}