{"type": "Feature","bbox": [16.9476,48.1403,17.1213,48.2638],"geometry": {"type": "MultiPolygon","coordinates": [[[[17.0012,48.2492,156.3711],[16.9784,48.2524,168.1246],[16.9586,48.2638,137.7909],[16.9531,48.2578,138.1303],[16.9511,48.2527,138.31],[16.9476,48.2358,138.9538],[16.9503,48.2324,139.4855],[16.9588,48.227,137.106],[16.9631,48.2213,139.7419],[16.9637,48.2141,143.1739],[16.9777,48.1898,172.0501],[16.9787,48.1824,146.9868],[16.9768,48.1771,146.5824],[16.9775,48.1723,180.6507],[16.9974,48.1606,134.0],[17.0144,48.1535,133.5],[17.0235,48.1446,134.5237],[17.0286,48.1417,133.0],[17.0391,48.1403,135.3093],[17.0585,48.1442,135.941],[17.0586,48.1422,132.0],[17.0611,48.141,147.7868],[17.0643,48.1432,132.0],[17.0667,48.1491,161.0528],[17.0653,48.1649,226.8751],[17.0665,48.1766,196.3326],[17.0652,48.1807,231.0399],[17.0554,48.189,262.6075],[17.0525,48.2074,335.957],[17.0544,48.2154,308.608],[17.0571,48.2191,295.5659],[17.0628,48.2219,353.5747],[17.0782,48.2216,393.1454],[17.0917,48.2239,408.9836],[17.0943,48.2258,364.5041],[17.0976,48.2337,429.4769],[17.1013,48.238,402.2171],[17.1213,48.2453,440.6944],[17.1204,48.2479,421.2047],[17.1034,48.2467,437.5696],[17.0687,48.2493,264.8171],[17.0662,48.2474,253.8238],[17.0633,48.238,310.0295],[17.0599,48.2367,295.9025],[17.051,48.2421,193.942],[17.0269,48.2505,162.304],[17.0095,48.2486,156.9975],[17.0012,48.2492,156.3711]]]]}
,"properties": {"GID_2": "SVK.2.4_1","GID_0": "SVK","country": "Slovakia","GID_1": "SVK.2_1","province": "Bratislavský","NL_NAME_1": "NA","county": "BratislavaIV","VARNAME_2": "NA","NL_NAME_2": "NA","TYPE_2": "Okres","ENGTYPE_2": "District","CC_2": "104","HASC_2": "SK.BL.B4","name": "Bratislava_I_V.county","area_km2": 84.37148,"hist_schema_id": "Elevation0-9000","hist_area_km2": {"125": 0.89106,"150": 25.42883,"175": 14.93226,"200": 7.67506,"225": 7.02541,"250": 4.73543,"275": 4.16992,"300": 3.50529,"325": 3.5617,"350": 2.88298,"375": 2.33116,"400": 2.47196,"425": 3.16386,"450": 1.14428,"475": 0.28269,"500": 0.15548,"525": 0.01413}}}