{"type": "Feature","bbox": [19.0781,49.1354,19.5518,49.3289],"geometry": {"type": "MultiPolygon","coordinates": [[[[19.1272,49.3096,977.4188],[19.1153,49.3013,986.3666],[19.1082,49.2931,822.6724],[19.1048,49.2863,901.7369],[19.1042,49.2731,941.9663],[19.1084,49.2486,1266.6875],[19.1023,49.2331,1526.4994],[19.1047,49.2216,1292.5885],[19.1039,49.2175,1321.5464],[19.0976,49.2123,1543.1453],[19.0908,49.2155,1408.6975],[19.0844,49.2152,1271.8131],[19.0781,49.2086,1080.6658],[19.0819,49.1977,976.6716],[19.0831,49.1829,824.9156],[19.0792,49.1733,652.3811],[19.0794,49.1684,594.7372],[19.0974,49.144,594.3954],[19.1042,49.1389,756.5322],[19.129,49.1395,982.0575],[19.1413,49.1378,1094.1799],[19.146,49.1354,1079.6705],[19.1489,49.1434,695.7036],[19.1488,49.1486,519.4117],[19.1425,49.1531,430.5225],[19.1374,49.1643,564.356],[19.1405,49.1668,646.0843],[19.1526,49.17,591.1473],[19.1669,49.1638,1071.1919],[19.1843,49.1645,1094.3818],[19.1982,49.1605,801.8585],[19.201,49.1572,784.3887],[19.2008,49.1446,818.8026],[19.2052,49.1407,846.9403],[19.2101,49.1395,938.1078],[19.2148,49.1409,843.3469],[19.2385,49.157,615.0554],[19.2532,49.1628,650.4695],[19.2707,49.1628,653.391],[19.2774,49.1536,757.1253],[19.2814,49.1517,730.7689],[19.3053,49.1528,903.7886],[19.3398,49.1495,1509.8458],[19.3492,49.1542,1219.0504],[19.3604,49.1694,929.1582],[19.3694,49.1759,951.6762],[19.3783,49.1734,807.6859],[19.4013,49.1732,1023.0428],[19.4135,49.1756,992.79],[19.4217,49.1711,856.6887],[19.4306,49.1746,762.2329],[19.4322,49.1737,766.6204],[19.4313,49.1709,754.6889],[19.4343,49.1684,768.2347],[19.4427,49.1702,939.3879],[19.4515,49.1696,1157.2966],[19.4597,49.1723,1127.5442],[19.4767,49.1744,1087.1267],[19.48,49.176,1007.3774],[19.4842,49.1831,930.3438],[19.4838,49.1892,952.1094],[19.4858,49.1937,976.7529],[19.5023,49.2005,870.1583],[19.5164,49.2103,924.6863],[19.5206,49.2151,973.7336],[19.5283,49.2292,962.8389],[19.5336,49.2341,1090.2021],[19.5395,49.237,1137.3806],[19.5518,49.2389,1102.0175],[19.5448,49.2478,1193.1089],[19.5426,49.261,969.4971],[19.5367,49.2668,851.4626],[19.5192,49.2727,681.3787],[19.5067,49.2747,644.8066],[19.4993,49.2789,762.528],[19.4966,49.2836,695.9772],[19.4878,49.2901,544.5634],[19.4689,49.2879,579.5604],[19.4619,49.2895,745.4943],[19.4536,49.2941,777.4753],[19.4336,49.3111,928.485],[19.4219,49.3162,1032.4578],[19.3943,49.2929,939.3782],[19.3862,49.2937,1020.7576],[19.3808,49.2996,934.5944],[19.3746,49.3013,880.0385],[19.3631,49.3006,854.7917],[19.3433,49.3048,992.7815],[19.3217,49.302,928.3988],[19.3009,49.3051,806.7025],[19.2684,49.2961,888.0787],[19.2616,49.2908,946.2709],[19.2556,49.2813,1114.1083],[19.2519,49.2796,1208.4952],[19.2492,49.2813,1246.5847],[19.2495,49.2908,1105.1704],[19.2435,49.3022,1085.6733],[19.2444,49.3139,1188.373],[19.2425,49.3166,1251.6885],[19.238,49.3184,1203.8765],[19.2127,49.3209,1210.0271],[19.1809,49.313,941.3726],[19.1738,49.3162,1060.8204],[19.1683,49.3251,974.0262],[19.1603,49.3289,954.8044],[19.1462,49.3175,991.3066],[19.1333,49.311,976.9951],[19.1272,49.3096,977.4188]]]]}
,"properties": {"GID_2": "SVK.8.3_1","GID_0": "SVK","country": "Slovakia","GID_1": "SVK.8_1","province": "Žilinský","NL_NAME_1": "NA","county": "DolnýKubín","VARNAME_2": "NA","NL_NAME_2": "NA","TYPE_2": "Okres","ENGTYPE_2": "District","CC_2": "503","HASC_2": "SK.ZI.DK","name": "Dolný_Kubín.county","area_km2": 487.5933,"hist_schema_id": "Elevation0-9000","hist_area_km2": {"425": 1.9414,"450": 6.6515,"475": 11.3179,"500": 15.0276,"525": 19.6099,"550": 21.0776,"575": 21.8125,"600": 24.3452,"625": 26.5311,"650": 27.9287,"675": 28.9658,"700": 29.1156,"725": 27.661,"750": 24.3927,"775": 21.4018,"800": 19.9466,"825": 18.4379,"850": 15.89,"875": 15.405,"900": 13.9245,"925": 12.0701,"950": 10.8927,"975": 10.0485,"1000": 9.1069,"1025": 7.972,"1050": 7.0862,"1075": 6.3943,"1100": 5.9648,"1125": 5.3702,"1150": 4.9275,"1175": 3.5987,"1200": 2.5607,"1225": 2.3116,"1250": 1.7442,"1275": 1.5226,"1300": 1.5225,"1325": 1.0241,"1350": 0.6092,"1375": 0.3323,"1400": 0.3047,"1425": 0.1663,"1450": 0.1385,"1475": 0.1524,"1500": 0.097,"1525": 0.1247,"1550": 0.0416,"1575": 0.0831,"1600": 0.0416}}}