{"type":"Feature","properties":{"ISO3166-1-Alpha-3":"SVK","country":"Slovakia","fill":"#000","id":"1056","name":"Trnavský"},
"geometry":{"type": "Polygon","coordinates": [[[17.37437,48.81961,463.8353],[17.26027,48.85779,193.1011],[17.21221,48.86606,164.7008],[17.16746,48.85976,162.5763],[17.11371,48.83392,180.1301],[17.10462,48.82462,172.6985],[17.09873,48.80576,169.7045],[17.08436,48.79372,172.2884],[17.04995,48.77403,166.0889],[17.02535,48.74633,167.7664],[16.97481,48.64987,172.0688],[16.96334,48.63595,163.9124],[16.94752,48.62316,153.4049],[16.94504,48.60417,178.016],[16.95434,48.5574,149.5752],[16.94905,48.54484,166.4673],[16.95243,48.54513,164.1545],[17.01295,48.5575,176.7601],[17.05811,48.55882,175.1913],[17.06137,48.55926,173.1488],[17.06199,48.56091,178.4124],[17.0609,48.56337,165.8827],[17.05796,48.56804,162.3864],[17.064,48.5683,165.17],[17.07708,48.56592,169.7853],[17.12095,48.55197,217.0183],[17.13077,48.54985,206.8524],[17.13666,48.55078,221.7583],[17.17821,48.56275,229.782],[17.19175,48.5683,242.1948],[17.20973,48.57166,239.1783],[17.22213,48.57205,235.5657],[17.22988,48.57352,235.3786],[17.23422,48.57642,246.1161],[17.23826,48.58282,239.7983],[17.24203,48.58582,237.7063],[17.24637,48.58773,236.1367],[17.25552,48.59042,233.2775],[17.26327,48.59393,231.7957],[17.26528,48.59533,230.9684],[17.26699,48.59711,238.9849],[17.26916,48.6013,252.9248],[17.27071,48.60336,253.1949],[17.27319,48.60546,252.3004],[17.27768,48.60833,247.3063],[17.28373,48.6113,248.2229],[17.28575,48.61181,245.9865],[17.28776,48.61205,245.9571],[17.28931,48.61249,249.1994],[17.2904,48.61342,249.0959],[17.29138,48.61486,248.214],[17.31959,48.64522,214.946],[17.32843,48.65266,190.4848],[17.33494,48.65623,188.3734],[17.33975,48.65538,188.7776],[17.34238,48.65406,188.6771],[17.3444,48.65266,189.3544],[17.34641,48.6516,189.9371],[17.35685,48.64956,190.7488],[17.36042,48.64832,191.6507],[17.36398,48.64644,192.3904],[17.36817,48.64318,202.9667],[17.37205,48.63951,218.9913],[17.37577,48.63481,210.1421],[17.37825,48.62768,216.2401],[17.37871,48.61827,196.7871],[17.37298,48.6068,216.9556],[17.36771,48.5999,200.941],[17.34998,48.58404,209.347],[17.34672,48.58179,208.5412],[17.34378,48.58096,206.5378],[17.34037,48.58076,202.5],[17.33711,48.58096,204.2468],[17.3337,48.5806,216.0894],[17.33169,48.57895,213.2764],[17.32471,48.56644,203.2064],[17.323,48.56463,201.3196],[17.32068,48.56321,200.4484],[17.30952,48.55941,213.3973],[17.30983,48.55311,194.0788],[17.30471,48.54525,204.0313],[17.35902,48.50944,571.1128],[17.34967,48.50533,480.3239],[17.34564,48.50257,504.3221],[17.34068,48.49813,610.5481],[17.32564,48.48226,558.0672],[17.31711,48.47079,459.3602],[17.32052,48.45955,493.9295],[17.33339,48.45622,461.5298],[17.34709,48.45637,400.416],[17.34936,48.45616,375.9244],[17.35143,48.45544,368.7452],[17.3536,48.4542,322.0111],[17.35639,48.45211,301.4852],[17.36367,48.44846,371.3975],[17.36941,48.44469,415.2249],[17.3722,48.4435,434.2503],[17.37639,48.44283,464.9332],[17.39422,48.44244,452.9513],[17.39732,48.44118,404.2534],[17.39778,48.43906,383.8706],[17.39546,48.43518,330.0426],[17.39344,48.43322,318.3148],[17.39297,48.43115,315.724],[17.39484,48.42898,275.0215],[17.40434,48.42381,220.002],[17.40775,48.42131,204.3932],[17.41458,48.41415,192.0899],[17.42233,48.40888,189.624],[17.42682,48.40413,195.7693],[17.44357,48.38175,228.4067],[17.4476,48.37829,218.4368],[17.4507,48.37653,212.163],[17.45643,48.3763,209.7567],[17.46036,48.37514,203.7294],[17.46356,48.37307,199.5054],[17.4692,48.3687,193.6199],[17.47245,48.36547,189.3488],[17.47524,48.36196,181.5058],[17.47757,48.35994,180.1745],[17.47757,48.35596,172.096],[17.47524,48.35049,173.75],[17.46672,48.33741,162.2209],[17.45922,48.32878,155.6175],[17.4586,48.32635,155.7476],[17.45845,48.32429,160.1965],[17.4645,48.31297,157.0435],[17.51865,48.28375,138.1404],[17.49106,48.26178,133.6256],[17.48625,48.25561,128.6355],[17.48532,48.25065,121.5625],[17.48734,48.24155,121.1088],[17.48935,48.23835,120.5286],[17.49183,48.23675,120.9201],[17.49633,48.23613,120.5292],[17.517,48.22974,119.7402],[17.51917,48.22633,121.7748],[17.51896,48.22186,119.9011],[17.517,48.21093,120.9507],[17.51917,48.20719,120.9443],[17.52144,48.20559,121.3896],[17.52568,48.20646,121.3265],[17.52739,48.20639,121.3311],[17.52863,48.20569,121.3311],[17.53064,48.20326,121.1774],[17.53219,48.20197,121.137],[17.53219,48.19887,120.9025],[17.5308,48.19422,121.2701],[17.52444,48.18326,120.2792],[17.52103,48.179,120.4954],[17.51731,48.17675,121.2407],[17.51199,48.17809,121.4915],[17.50082,48.17572,121.6058],[17.4692,48.15923,122.2279],[17.44264,48.1513,123.461],[17.43783,48.15122,124.577],[17.43349,48.15236,123.9088],[17.42589,48.15634,123.6989],[17.42124,48.15778,124.6057],[17.40775,48.15877,124.5919],[17.40496,48.15949,127.1791],[17.40383,48.16052,123.1787],[17.40352,48.16218,125.0145],[17.40465,48.16424,125.4128],[17.4091,48.16967,124.5415],[17.40744,48.17324,125.0193],[17.40631,48.17481,125.2737],[17.40589,48.17644,125.1506],[17.40507,48.17799,125.2214],[17.4031,48.1783,127.1177],[17.39995,48.1776,124.4506],[17.39375,48.17494,128.6679],[17.38972,48.17388,126.3699],[17.38631,48.17225,125.4194],[17.38383,48.16972,130.7302],[17.38088,48.1597,126.3011],[17.38135,48.15691,125.7905],[17.38228,48.15505,125.6492],[17.38352,48.15329,125.7309],[17.38848,48.14959,125.2393],[17.39049,48.14776,125.1767],[17.39173,48.14616,125.7534],[17.39204,48.14479,125.6972],[17.3908,48.143,125.5758],[17.38801,48.14089,125.8578],[17.38166,48.13918,125.6333],[17.37794,48.13853,125.6225],[17.37375,48.13717,125.7129],[17.36957,48.13497,125.372],[17.36197,48.13014,125.807],[17.35215,48.12574,125.6581],[17.34802,48.125,126.2969],[17.3368,48.12469,126.9902],[17.31324,48.12848,127.4125],[17.30967,48.12843,127.7946],[17.30766,48.12755,128.1186],[17.30704,48.12616,127.5892],[17.31277,48.11988,127.1255],[17.31308,48.11763,126.7868],[17.31277,48.1151,126.7049],[17.31153,48.11097,127.1632],[17.31122,48.10851,126.7272],[17.31153,48.10662,126.9734],[17.31262,48.10541,127.1296],[17.32068,48.10138,126.9695],[17.32611,48.09768,126.9334],[17.32828,48.09675,127.1413],[17.33045,48.09637,127.2764],[17.34641,48.09727,126.6928],[17.34812,48.09701,126.0048],[17.34988,48.09639,126.6558],[17.35112,48.09551,126.6558],[17.35277,48.0936,125.4133],[17.35236,48.09252,125.4133],[17.34812,48.08967,125.8176],[17.33711,48.08508,127.3263],[17.32192,48.0766,127.7761],[17.31494,48.07459,127.3951],[17.31014,48.07428,126.3201],[17.3075,48.07531,126.8614],[17.30518,48.07474,127.7536],[17.30363,48.07272,127.095],[17.30347,48.06678,126.2246],[17.30456,48.06291,126.1907],[17.30642,48.05872,126.3862],[17.30533,48.0565,126.3242],[17.30223,48.05443,126.2849],[17.29169,48.05048,127.7474],[17.28637,48.04787,127.8407],[17.26792,48.03291,126.691],[17.26239,48.00761,128.0],[17.26232,48.00728,128.0],[17.27267,48.00534,128.0],[17.33789,47.99873,127.5],[17.36941,47.98121,124.1421],[17.47204,47.88881,117.3625],[17.48186,47.88271,114.7307],[17.49219,47.87982,117.0126],[17.51731,47.87625,117.4488],[17.52661,47.87212,118.6687],[17.56041,47.83799,116.4601],[17.5726,47.82954,114.5672],[17.58294,47.82979,114.3985],[17.59296,47.8331,108.5],[17.60423,47.83424,113.1586],[17.61911,47.82923,114.2119],[17.63988,47.8192,111.7714],[17.65838,47.80732,111.3459],[17.66624,47.79703,114.1399],[17.67668,47.78918,112.742],[17.71924,47.77367,116.0269],[17.71947,47.77383,115.8534],[17.72737,47.77951,112.4648],[17.73125,47.7868,111.367],[17.73838,47.81021,110.9562],[17.74045,47.81362,110.4001],[17.74272,47.81527,113.6079],[17.7451,47.81489,110.8621],[17.74913,47.81331,109.4994],[17.75114,47.81303,109.9275],[17.75331,47.813,109.8802],[17.75549,47.81271,109.3109],[17.75781,47.81212,109.0843],[17.76355,47.81331,109.3373],[17.77176,47.81631,110.27],[17.79052,47.82618,109.9919],[17.79781,47.83088,110.2725],[17.80205,47.83496,111.2145],[17.80236,47.85643,110.6275],[17.80592,47.86315,110.8894],[17.80964,47.86793,110.3689],[17.81507,47.87186,109.9958],[17.81801,47.87367,109.8274],[17.82065,47.87429,109.833],[17.82266,47.87387,111.0726],[17.82654,47.87522,110.6438],[17.83414,47.87899,109.5591],[17.84545,47.89015,108.9557],[17.86922,47.90447,110.5897],[17.88597,47.9117,109.3301],[17.89232,47.91576,108.9229],[17.89356,47.9194,108.7956],[17.89046,47.92405,108.9547],[17.8838,47.9317,108.964],[17.88566,47.94359,108.4174],[17.88767,47.94694,110.0893],[17.88907,47.9501,110.2328],[17.88953,47.95382,109.2173],[17.88845,47.95769,109.1905],[17.88721,47.96069,109.4472],[17.87992,47.96513,109.4433],[17.8824,47.99102,109.3582],[17.87543,48.02573,109.6572],[17.88008,48.04746,110.0924],[17.87977,48.05278,110.3087],[17.87729,48.05681,110.2143],[17.87465,48.0581,110.4668],[17.87217,48.05867,110.2956],[17.86876,48.05867,110.7584],[17.8669,48.05882,110.9704],[17.86271,48.05986,110.3989],[17.85569,48.06045,111.0507],[17.85248,48.06123,110.8649],[17.84809,48.06371,111.2543],[17.84654,48.06528,110.8309],[17.84685,48.06782,111.7373],[17.85088,48.07572,112.559],[17.84902,48.07924,111.3165],[17.84592,48.08048,111.2701],[17.83987,48.07988,111.2994],[17.82344,48.07603,111.8407],[17.81801,48.07572,111.6785],[17.81367,48.07681,111.5574],[17.80685,48.08063,112.069],[17.80406,48.08311,111.7225],[17.80344,48.08626,112.2676],[17.8053,48.09004,112.041],[17.81352,48.10389,112.736],[17.81398,48.11205,113.1935],[17.80856,48.11892,114.2036],[17.76463,48.15143,115.0191],[17.76417,48.15494,116.0924],[17.76804,48.15802,115.0098],[17.78448,48.16223,115.2142],[17.78975,48.16269,114.8702],[17.79331,48.16223,115.5151],[17.80029,48.16003,114.7422],[17.80716,48.15711,115.7525],[17.80995,48.15654,115.0639],[17.81274,48.15662,114.97],[17.81584,48.15737,116.5736],[17.81863,48.15846,116.3646],[17.82111,48.16001,116.9787],[17.82297,48.16171,116.6394],[17.82545,48.16652,117.2396],[17.82592,48.17225,115.4607],[17.82282,48.17791,116.6036],[17.81429,48.189,116.5353],[17.81166,48.1936,117.6935],[17.81135,48.1967,118.2885],[17.81832,48.19892,120.0],[17.82204,48.20042,120.0],[17.82406,48.20057,120.0],[17.82685,48.19975,120.0],[17.8408,48.18833,119.5592],[17.84282,48.18742,119.3546],[17.84545,48.18776,117.5314],[17.85662,48.19391,116.8415],[17.87295,48.20026,115.6234],[17.87713,48.20274,115.459],[17.88023,48.20636,116.8147],[17.88333,48.21359,116.7254],[17.88349,48.21902,117.3571],[17.88178,48.22303,118.0755],[17.87837,48.22626,118.3903],[17.86845,48.23318,119.5609],[17.86581,48.23463,119.6125],[17.86333,48.23501,119.6613],[17.8607,48.23664,120.244],[17.85775,48.23956,120.5009],[17.85383,48.24749,122.1338],[17.8529,48.25106,125.5747],[17.85403,48.25411,129.2456],[17.85682,48.25612,130.3171],[17.85977,48.25954,132.2046],[17.85977,48.26233,136.4145],[17.85755,48.26532,137.1495],[17.85744,48.26755,137.8298],[17.85915,48.27052,143.1611],[17.86333,48.27457,151.6014],[17.87016,48.28282,160.7269],[17.84421,48.29829,139.4507],[17.84282,48.30046,140.5324],[17.84158,48.30346,141.776],[17.84421,48.30522,147.4343],[17.84623,48.30687,151.9193],[17.84778,48.30951,158.5407],[17.85196,48.3262,181.8045],[17.85248,48.33025,190.9714],[17.85352,48.33421,192.8415],[17.85476,48.3371,183.437],[17.8593,48.35193,195.3849],[17.87589,48.36309,214.8813],[17.94648,48.44805,179.0456],[17.96834,48.46417,183.0745],[17.92385,48.49428,200.2211],[17.90178,48.50624,240.5315],[17.89806,48.5075,258.2123],[17.89527,48.50779,263.3841],[17.85119,48.52288,257.2636],[17.86845,48.5359,311.856],[17.87031,48.53807,309.2869],[17.90101,48.5906,419.6561],[17.9055,48.59572,328.1627],[17.9085,48.59556,317.2279],[17.9117,48.59461,333.272],[17.92447,48.58882,462.7319],[17.93067,48.58835,549.1826],[17.93904,48.58913,568.1474],[17.98529,48.60158,586.1818],[17.99041,48.60396,493.6632],[17.99258,48.606,451.0784],[17.99165,48.60814,445.8805],[17.99056,48.60975,419.1249],[17.98808,48.61608,440.901],[17.89093,48.63011,231.7021],[17.88938,48.63223,272.5916],[17.88705,48.6345,250.2105],[17.8807,48.63905,242.1652],[17.87589,48.64055,238.6144],[17.87031,48.64096,194.2966],[17.86674,48.63993,226.4172],[17.86318,48.63863,179.9681],[17.85755,48.63724,165.0039],[17.85383,48.63791,165.1624],[17.84933,48.64091,167.8214],[17.84127,48.64928,173.9841],[17.83352,48.65424,167.6613],[17.8298,48.65605,168.2049],[17.82701,48.65662,167.9007],[17.82592,48.65584,167.9007],[17.82545,48.65468,167.6838],[17.82561,48.65331,167.5062],[17.82608,48.65186,167.11],[17.82639,48.65034,166.7445],[17.82577,48.64897,166.7445],[17.82003,48.64809,166.7401],[17.78541,48.64763,166.1756],[17.76711,48.64954,165.5989],[17.74851,48.65558,198.6266],[17.7452,48.65708,213.266],[17.74303,48.65876,217.9214],[17.73218,48.67212,278.412],[17.7235,48.67928,293.6483],[17.71001,48.6837,421.4433],[17.69342,48.68059,345.4562],[17.66205,48.67176,221.7455],[17.65601,48.66793,322.3776],[17.65322,48.66698,293.5923],[17.64981,48.66654,348.3156],[17.64019,48.66654,330.2338],[17.63771,48.66706,288.1938],[17.63069,48.67217,269.8986],[17.62852,48.67261,271.851],[17.62681,48.67217,280.009],[17.62604,48.6707,302.0346],[17.62542,48.66881,320.0244],[17.62495,48.66442,334.9108],[17.62542,48.66124,422.135],[17.62526,48.65982,428.0799],[17.62495,48.6584,402.9403],[17.62495,48.65682,386.3167],[17.62511,48.65483,380.8084],[17.622,48.6522,292.3039],[17.61921,48.64848,371.8181],[17.58681,48.64189,480.6796],[17.5725,48.64726,374.0459],[17.57048,48.64726,382.4711],[17.56769,48.64693,445.069],[17.56599,48.64569,445.069],[17.56366,48.6444,427.6359],[17.557,48.64179,416.7139],[17.53359,48.62835,369.6117],[17.51214,48.65982,259.5324],[17.50082,48.67057,359.1745],[17.49121,48.67695,373.374],[17.48703,48.68049,364.9258],[17.48424,48.68328,350.4804],[17.48129,48.69439,363.8117],[17.4785,48.69749,323.9143],[17.47292,48.70075,327.5518],[17.47106,48.70307,289.0769],[17.47059,48.70561,348.4407],[17.47214,48.70915,380.0885],[17.47385,48.7117,386.1034],[17.47772,48.71648,392.3188],[17.47958,48.71909,406.6451],[17.48098,48.72271,396.8211],[17.48238,48.72457,407.3435],[17.48641,48.72731,395.8714],[17.48796,48.73,369.9026],[17.48858,48.73687,353.7857],[17.48548,48.74317,282.6548],[17.4802,48.74958,400.8071],[17.47214,48.7571,459.1011],[17.46796,48.76033,494.7238],[17.46481,48.76204,497.5054],[17.45628,48.76343,453.9642],[17.45411,48.76405,452.6488],[17.45209,48.76493,470.4946],[17.45039,48.76586,518.6285],[17.44884,48.76658,518.6285],[17.43938,48.77372,344.9241],[17.42729,48.78488,392.0154],[17.42202,48.7886,457.2655],[17.41706,48.78906,495.0928],[17.40026,48.77521,426.9782],[17.39701,48.77325,417.6103],[17.39453,48.77279,437.3357],[17.39142,48.77279,439.7755],[17.37933,48.77467,451.2875],[17.35732,48.78028,378.5099],[17.38863,48.80002,544.26],[17.39933,48.80963,557.7783],[17.40837,48.82405,498.294],[17.41122,48.83022,505.6687],[17.39173,48.82178,434.8021],[17.37437,48.81961,463.8353]]]}}