{"type":"Feature","properties":{"GID_1":"SVK.7_1","GID_0":"SVK","country":"Slovakia","province":"Trnavský","VARNAME_1":"Trnava","NL_NAME_1":"NA","TYPE_1":"Kraj","ENGTYPE_1":"Region","CC_1":"NA","HASC_1":"SK.TA","ISO_1":"NA","name":"Trnavský.province"},
"geometry":{"type": "MultiPolygon","coordinates": [[[[17.46,48.1478,122.5902],[17.4429,48.1437,124.4925],[17.403,48.1475,124.7451],[17.3998,48.1499,125.1299],[17.4035,48.1584,125.3795],[17.4011,48.1634,121.5695],[17.3962,48.1659,124.6975],[17.3859,48.1662,134.2932],[17.3778,48.1637,126.0343],[17.3723,48.1588,126.7044],[17.371,48.1509,126.412],[17.3727,48.1382,125.7129],[17.3701,48.1316,125.0675],[17.3503,48.1286,126.7705],[17.3381,48.1296,127.1382],[17.3297,48.125,127.4465],[17.3014,48.1204,127.7199],[17.2981,48.1129,127.3891],[17.2984,48.1096,127.5849],[17.3033,48.1039,127.3762],[17.3099,48.0916,128.8092],[17.3141,48.0897,127.8199],[17.3233,48.0905,126.3725],[17.3257,48.0882,126.1651],[17.3176,48.0839,128.4688],[17.3161,48.0765,126.5813],[17.3114,48.0716,126.5597],[17.3088,48.0634,126.5106],[17.2982,48.0546,126.6928],[17.2936,48.0531,126.853],[17.2855,48.0551,127.4733],[17.2808,48.0533,127.8058],[17.2803,48.0504,127.5454],[17.2874,48.0436,128.1438],[17.2879,48.0407,128.8093],[17.272,48.0358,127.2259],[17.2486,48.0184,131.3704],[17.2511,48.0163,129.6528],[17.2509,48.0094,137.0306],[17.2584,48.0014,133.2633],[17.2863,47.9971,128.0],[17.3122,47.9997,127.5],[17.3345,47.9979,127.5],[17.348,47.991,124.9057],[17.3678,47.9723,125.4981],[17.3762,47.9613,115.6283],[17.3792,47.9597,126.156],[17.3914,47.9638,119.9879],[17.4027,47.9559,118.0],[17.4354,47.9193,136.2794],[17.4507,47.8936,128.5925],[17.4624,47.8854,114.6217],[17.4763,47.8816,117.9467],[17.5,47.8706,116.014],[17.5135,47.8673,112.499],[17.5246,47.8678,110.0],[17.5351,47.8606,117.3479],[17.5462,47.8459,113.7759],[17.5534,47.8332,115.9111],[17.567,47.8166,109.5645],[17.5744,47.8154,111.0085],[17.5957,47.8233,118.0326],[17.609,47.8224,109.6708],[17.6344,47.8046,112.7113],[17.6829,47.7789,105.6745],[17.7007,47.7668,104.0],[17.7032,47.7697,112.5133],[17.721,47.7798,115.6285],[17.7307,47.789,111.5332],[17.7312,47.7936,114.5302],[17.7264,47.8041,109.867],[17.7266,47.8073,109.7703],[17.7292,47.8098,109.948],[17.7342,47.8109,109.4425],[17.7446,47.8085,109.8589],[17.7583,47.8101,109.3694],[17.7699,47.8133,110.3469],[17.7919,47.8232,109.4393],[17.7946,47.8271,109.8004],[17.7928,47.8417,109.9865],[17.7953,47.8513,110.5057],[17.804,47.8631,110.5853],[17.8067,47.8723,110.085],[17.8119,47.8737,110.0903],[17.8226,47.8698,109.7094],[17.8369,47.8749,109.5574],[17.8476,47.8827,108.7117],[17.8615,47.8898,108.713],[17.873,47.9049,110.0639],[17.8816,47.9099,108.87],[17.8807,47.9121,110.184],[17.8709,47.9168,109.4001],[17.8687,47.9212,109.1733],[17.871,47.926,109.937],[17.8785,47.9329,109.4912],[17.8813,47.9431,109.4629],[17.8789,47.9536,109.9074],[17.8842,47.9722,109.5745],[17.8818,47.9829,109.9244],[17.8777,47.9876,109.855],[17.8759,47.9948,109.3673],[17.8838,48.0225,109.6882],[17.8843,48.0291,110.1664],[17.8738,48.0453,110.0187],[17.8563,48.0477,111.1359],[17.8479,48.0512,111.589],[17.8414,48.0571,111.9019],[17.8398,48.0596,111.7467],[17.8402,48.0624,111.2364],[17.8468,48.0699,111.1829],[17.8417,48.0764,111.1202],[17.8372,48.0762,111.2584],[17.82,48.0678,111.9936],[17.8076,48.0679,112.3986],[17.8038,48.0695,112.841],[17.8008,48.0732,112.6046],[17.8006,48.0771,112.9081],[17.8188,48.0961,112.7203],[17.8186,48.109,113.0542],[17.8023,48.1231,113.9366],[17.785,48.134,115.7023],[17.7617,48.144,115.1191],[17.7505,48.147,114.7982],[17.7473,48.1491,115.0725],[17.7472,48.151,115.0177],[17.7517,48.1548,115.4469],[17.7673,48.1612,115.2183],[17.7838,48.1604,114.9746],[17.7962,48.1546,114.9878],[17.8104,48.1554,114.7085],[17.8166,48.1609,118.439],[17.8169,48.1653,116.3097],[17.8138,48.1695,115.8348],[17.8075,48.1728,116.0896],[17.8001,48.1818,115.2523],[17.7982,48.1863,116.9034],[17.7992,48.1882,116.009],[17.807,48.1891,116.5403],[17.8233,48.1878,119.2357],[17.8338,48.1832,117.2663],[17.8378,48.1831,119.0436],[17.8689,48.1918,116.9062],[17.8739,48.1949,115.3241],[17.8824,48.2042,116.4537],[17.884,48.2083,120.2785],[17.8836,48.2143,116.4324],[17.8793,48.2217,117.371],[17.8672,48.2277,119.4467],[17.8471,48.2313,119.0093],[17.8385,48.2372,122.6492],[17.8352,48.2422,125.5524],[17.8387,48.2507,121.8689],[17.8594,48.2684,140.2195],[17.862,48.2727,149.1355],[17.8619,48.2773,156.38],[17.8318,48.2875,138.0413],[17.8248,48.2926,137.7779],[17.8241,48.2965,147.7387],[17.8358,48.3034,141.4905],[17.8408,48.3114,159.2818],[17.8439,48.3314,196.1992],[17.8519,48.3411,201.1199],[17.8484,48.352,210.9603],[17.8793,48.3795,161.6301],[17.885,48.3955,241.5635],[17.8991,48.4133,180.2175],[17.9034,48.4229,183.9193],[17.925,48.4418,181.202],[17.9293,48.4482,185.0329],[17.943,48.4516,182.9264],[17.9515,48.4599,189.7705],[17.9487,48.4636,171.159],[17.9311,48.4738,184.0676],[17.9044,48.494,221.6553],[17.8821,48.5024,311.9537],[17.8764,48.5069,320.8314],[17.8643,48.511,329.9185],[17.8452,48.5221,214.8269],[17.844,48.524,236.9034],[17.8575,48.5379,288.727],[17.8583,48.5489,277.117],[17.8611,48.5588,277.3114],[17.8645,48.5652,335.592],[17.8715,48.5707,344.9364],[17.8855,48.5919,342.7556],[17.8944,48.596,398.4737],[17.9055,48.5916,397.0753],[17.9152,48.5923,356.4804],[17.9302,48.5896,526.2443],[17.9435,48.5935,448.8034],[17.9611,48.5931,657.228],[17.9682,48.6,635.9329],[17.9658,48.6118,565.7865],[17.9671,48.6133,539.6888],[17.9565,48.6154,477.3951],[17.9462,48.6227,447.7783],[17.9096,48.6297,403.1795],[17.8779,48.6332,251.1888],[17.8639,48.6411,193.9775],[17.8478,48.6399,163.7222],[17.8379,48.6368,165.5435],[17.836,48.6387,166.1594],[17.8361,48.65,171.8535],[17.834,48.6516,167.0487],[17.8251,48.6513,166.9775],[17.8189,48.6453,166.368],[17.8159,48.6443,165.9753],[17.7617,48.6461,165.3351],[17.7489,48.6501,201.5104],[17.7297,48.6615,282.5648],[17.7135,48.6683,243.9362],[17.7073,48.6732,335.8378],[17.698,48.6756,402.6786],[17.69,48.6741,311.1911],[17.6774,48.6688,228.8716],[17.652,48.6627,345.1275],[17.6145,48.6628,340.8849],[17.6123,48.6614,402.7407],[17.605,48.6473,357.6287],[17.6001,48.6438,414.9171],[17.5577,48.6374,465.7569],[17.5371,48.631,410.9218],[17.5266,48.6309,406.662],[17.5074,48.6451,248.179],[17.4962,48.6488,283.2398],[17.4889,48.6538,326.6944],[17.4832,48.6597,400.4206],[17.4822,48.6657,414.1519],[17.4729,48.6774,306.252],[17.4597,48.6872,324.352],[17.456,48.6957,332.9221],[17.4483,48.7007,336.1229],[17.4418,48.7078,291.9265],[17.4412,48.7149,325.8405],[17.4436,48.7189,267.5328],[17.4639,48.7293,305.1703],[17.4708,48.7358,407.4249],[17.4722,48.7482,374.5715],[17.4686,48.7571,456.8201],[17.4646,48.7593,479.0435],[17.4315,48.7658,342.5287],[17.4054,48.767,323.6498],[17.3719,48.7815,425.3636],[17.3528,48.7839,351.5492],[17.3535,48.7918,414.2601],[17.3759,48.803,432.4795],[17.3837,48.8084,454.4227],[17.3995,48.8283,428.151],[17.389,48.8269,425.4142],[17.3629,48.8287,399.5656],[17.2742,48.8653,209.7531],[17.2533,48.8716,177.981],[17.1995,48.8812,164.6057],[17.1468,48.8496,164.3311],[17.1279,48.8457,166.9755],[17.1133,48.8399,164.2984],[17.106,48.8268,163.4313],[17.1039,48.8171,173.4502],[17.096,48.8088,172.8904],[17.0929,48.7964,162.5804],[17.0595,48.7819,168.7508],[17.0475,48.7747,168.4778],[17.0413,48.7612,154.6218],[17.0257,48.7536,158.1817],[17.0168,48.7429,168.0038],[17.0148,48.7364,164.0216],[17.0153,48.7278,156.7475],[16.9997,48.715,180.803],[16.9992,48.7091,154.4572],[17.0013,48.7005,179.8735],[16.9826,48.6933,160.6341],[16.9722,48.687,152.7961],[16.9603,48.6446,161.9068],[16.9551,48.635,178.3951],[16.9458,48.6277,151.2552],[16.9243,48.6214,179.8042],[16.9408,48.6184,159.1642],[16.9408,48.6144,177.5591],[16.9434,48.6107,153.212],[16.9423,48.6053,170.0021],[16.935,48.6016,175.6759],[16.9404,48.5837,172.0329],[16.9369,48.575,164.2353],[16.9371,48.5714,158.4217],[16.9399,48.5658,151.5567],[16.9459,48.5607,154.0944],[16.944,48.5529,149.6923],[16.9518,48.5473,149.3515],[16.9716,48.5505,149.1643],[16.9796,48.5567,149.9137],[16.9895,48.5591,168.0117],[17.0178,48.5603,177.3096],[17.0234,48.5593,178.0011],[17.0288,48.5563,169.4259],[17.0333,48.5565,160.3001],[17.0349,48.5579,157.6358],[17.0346,48.5599,156.9006],[17.0236,48.5707,152.8127],[17.0237,48.573,160.7663],[17.0262,48.5742,168.3234],[17.031,48.5734,158.4381],[17.0525,48.5628,160.0332],[17.0688,48.5579,184.7559],[17.0768,48.5574,193.8498],[17.0845,48.5612,196.0641],[17.091,48.5573,194.7543],[17.0972,48.5562,195.8002],[17.1461,48.5567,225.587],[17.1721,48.564,232.1857],[17.2137,48.5691,238.8233],[17.2339,48.5753,248.5877],[17.2346,48.5838,245.0492],[17.2363,48.586,245.7094],[17.2579,48.592,231.4991],[17.2634,48.5948,231.7957],[17.2657,48.6066,254.3729],[17.2864,48.6223,237.6305],[17.3188,48.6551,189.9939],[17.3229,48.6557,188.1615],[17.3309,48.6517,206.9636],[17.3496,48.648,192.2478],[17.3645,48.6324,200.5466],[17.3674,48.627,212.7261],[17.3678,48.6237,219.2862],[17.3627,48.6161,212.3966],[17.3437,48.6008,226.6445],[17.3248,48.5992,234.9214],[17.3159,48.5963,236.2717],[17.313,48.5938,240.7765],[17.3087,48.5852,230.8364],[17.2942,48.5734,247.5392],[17.2864,48.5678,244.8544],[17.2687,48.5605,231.272],[17.2636,48.5568,237.8241],[17.2617,48.5529,240.6779],[17.2982,48.5346,202.581],[17.3045,48.5263,219.065],[17.3229,48.5237,294.889],[17.3258,48.5182,358.0399],[17.3406,48.5092,439.0938],[17.3238,48.4936,425.5344],[17.3031,48.4878,474.6534],[17.2937,48.4821,472.959],[17.2924,48.4784,412.6049],[17.2931,48.4716,628.0328],[17.3,48.4622,499.5793],[17.3114,48.4558,440.2747],[17.3304,48.4517,383.4067],[17.3604,48.4483,376.058],[17.3766,48.4437,464.9332],[17.3798,48.4376,465.9346],[17.3775,48.4282,395.4419],[17.3784,48.4216,270.0089],[17.408,48.4102,202.1986],[17.4149,48.4017,199.8806],[17.4224,48.3847,242.1871],[17.4278,48.3782,222.3253],[17.4305,48.3712,209.1275],[17.4555,48.3693,195.8277],[17.463,48.3657,191.8576],[17.4663,48.3548,182.6501],[17.4653,48.3431,169.5835],[17.451,48.3257,166.0775],[17.443,48.3203,169.7695],[17.4432,48.318,168.0721],[17.4488,48.3143,163.9367],[17.4671,48.31,156.6576],[17.4789,48.2937,149.7494],[17.4902,48.2829,142.8592],[17.4937,48.2749,137.6734],[17.4925,48.269,136.4315],[17.4884,48.2626,134.1934],[17.4761,48.2572,120.8039],[17.4724,48.2539,121.6635],[17.4682,48.2447,121.593],[17.4685,48.2394,121.6696],[17.4704,48.2364,121.2678],[17.4818,48.2282,121.0183],[17.5151,48.2163,120.5208],[17.5191,48.2133,120.3279],[17.5087,48.2006,121.4902],[17.5097,48.1972,121.3413],[17.5166,48.1905,121.1419],[17.5184,48.1866,120.7177],[17.5174,48.1826,120.9853],[17.5116,48.1744,121.3366],[17.4983,48.1664,121.1315],[17.4841,48.1632,122.3173],[17.4784,48.1567,122.3456],[17.4667,48.1548,120.8693],[17.46,48.1478,122.5902]]]]}}