{"type":"Feature","properties":{"GID_2":"SVK.1.10_1","GID_0":"SVK","country":"Slovakia","GID_1":"SVK.1_1","province":"Banskobystrický","NL_NAME_1":"NA","county":"VelkýKrtíš","VARNAME_2":"NA","NL_NAME_2":"NA","TYPE_2":"Okres","ENGTYPE_2":"District","CC_2":"610","HASC_2":"SK.BC.VK","name":"Velký_Krtíš.county"},
"geometry":{"type": "MultiPolygon","coordinates": [[[[19.4689,48.0902,147.7342],[19.4724,48.1001,155.732],[19.4852,48.1054,150.1929],[19.4931,48.1133,150.0741],[19.4967,48.1339,152.38],[19.4962,48.1407,154.3055],[19.5118,48.1533,155.3637],[19.5125,48.161,157.508],[19.5085,48.1747,157.6062],[19.5176,48.1848,158.1974],[19.5245,48.1881,159.5226],[19.528,48.1944,160.8683],[19.5247,48.2,172.3756],[19.5278,48.2064,159.2779],[19.5378,48.2108,159.9251],[19.5414,48.2108,162.6986],[19.5478,48.2299,248.408],[19.547,48.2344,286.3499],[19.542,48.2411,289.7126],[19.543,48.2519,298.4681],[19.5407,48.2661,288.0295],[19.5426,48.2684,279.0676],[19.5552,48.2711,215.4594],[19.5567,48.274,251.9821],[19.5472,48.2884,281.5471],[19.5387,48.2921,287.8173],[19.5306,48.2921,288.3063],[19.514,48.2829,256.5363],[19.5041,48.2821,263.2975],[19.4968,48.2836,255.1468],[19.4922,48.2889,239.4494],[19.4882,48.3022,309.6672],[19.4857,48.3057,330.0714],[19.46,48.3273,370.5265],[19.4603,48.3389,525.8315],[19.4578,48.3464,559.572],[19.4476,48.3513,598.0075],[19.44,48.3508,473.218],[19.4271,48.3467,511.0017],[19.4233,48.3473,507.091],[19.4223,48.3557,467.6474],[19.43,48.3709,494.767],[19.4186,48.3702,351.5203],[19.4106,48.3755,524.2212],[19.4029,48.3773,575.5879],[19.3946,48.3885,464.3371],[19.3901,48.3921,497.807],[19.3874,48.3977,527.6991],[19.3655,48.3862,518.316],[19.3603,48.3861,569.7498],[19.3533,48.3886,663.3348],[19.3529,48.3826,608.0552],[19.3548,48.3792,629.5439],[19.3768,48.368899999999996,627.658],[19.3775,48.3656,619.2411],[19.3755,48.3564,543.5695],[19.3701,48.3506,515.531],[19.3529,48.347,444.0127],[19.3497,48.345,467.367],[19.3447,48.3264,398.0701],[19.336,48.3195,430.5428],[19.3345,48.3156,373.2157],[19.3346,48.3106,378.1816],[19.3373,48.3054,389.9679],[19.3371,48.3009,362.0518],[19.3396,48.2949,362.3399],[19.3359,48.2913,306.0826],[19.3189,48.2835,494.1669],[19.3091,48.2849,444.7437],[19.2945,48.2914,481.4919],[19.2828,48.2913,474.2653],[19.2707,48.2982,456.1861],[19.2575,48.317,495.8133],[19.2587,48.3343,518.0424],[19.2544,48.3441,573.2463],[19.2447,48.3509,590.8741],[19.2246,48.3595,634.6873],[19.2255,48.3528,623.4709],[19.2238,48.3484,610.8972],[19.205,48.3352,582.0488],[19.204,48.3228,570.5358],[19.2051,48.3159,544.5039],[19.1978,48.3062,517.3592],[19.1966,48.2963,523.3917],[19.1974,48.2936,492.8885],[19.2043,48.2883,503.6123],[19.2064,48.2765,549.2036],[19.2107,48.2699,537.2903],[19.216,48.2648,552.4792],[19.2274,48.2586,571.8598],[19.2279,48.2552,563.152],[19.2176,48.2511,527.8883],[19.2107,48.241,548.3846],[19.1996,48.2392,492.0831],[19.1945,48.2367,476.3593],[19.1837,48.2264,506.2108],[19.1795,48.2264,520.0981],[19.1742,48.231,470.9317],[19.1699,48.2304,436.0354],[19.1629,48.222,411.5596],[19.1611,48.2157,415.3086],[19.1577,48.2133,491.7973],[19.1526,48.2139,472.0768],[19.144,48.2182,488.8134],[19.1388,48.2239,426.457],[19.1306,48.2264,419.9995],[19.1197,48.223,416.9406],[19.1135,48.2108,451.2067],[19.1096,48.2092,465.5898],[19.0971,48.2125,459.5501],[19.0823,48.2212,364.3755],[19.0731,48.2219,329.2553],[19.0665,48.2197,220.5905],[19.0497,48.2024,259.7214],[19.0412,48.1964,191.536],[19.0506,48.1965,323.3848],[19.0551,48.1947,434.6799],[19.0567,48.192,441.1346],[19.0566,48.1839,442.2126],[19.0438,48.1799,360.1482],[19.0414,48.177,440.6877],[19.0482,48.1487,473.2157],[19.0513,48.1225,368.0095],[19.0354,48.1107,354.7324],[19.0295,48.1005,231.6081],[19.0201,48.0968,187.1436],[19.014,48.0892,245.1939],[19.0125,48.0779,157.3174],[19.0208,48.0773,126.6861],[19.0359,48.0682,128.2584],[19.0469,48.0672,128.4019],[19.0579,48.0608,133.8078],[19.0651,48.0647,133.7078],[19.0764,48.0667,129.9615],[19.0818,48.0727,135.9072],[19.089,48.0744,129.9398],[19.0992,48.0701,130.2583],[19.1131,48.0685,131.1294],[19.1198,48.0689,131.8047],[19.1248,48.0735,132.5546],[19.1343,48.0763,139.6152],[19.1536,48.0698,133.2426],[19.1872,48.0625,134.4662],[19.1985,48.0633,135.8133],[19.2058,48.0658,135.1514],[19.2253,48.0634,136.1912],[19.2268,48.0593,137.0997],[19.2354,48.0571,136.7249],[19.2444,48.0578,137.84],[19.2484,48.0644,138.5449],[19.2494,48.0694,139.06],[19.2613,48.0735,140.0968],[19.2618,48.0788,140.741],[19.2663,48.0787,138.8595],[19.27,48.0752,140.0736],[19.2775,48.0747,139.4897],[19.2828,48.0809,140.7036],[19.2934,48.0842,141.2274],[19.2984,48.0893,141.144],[19.3096,48.0898,141.3133],[19.3208,48.0883,140.928],[19.3442,48.0934,147.0343],[19.3577,48.093,141.8551],[19.372,48.0891,145.1157],[19.3754,48.0925,160.8976],[19.3874,48.0929,158.1187],[19.3935,48.0882,145.0777],[19.4034,48.0866,147.6641],[19.4094,48.0905,151.2485],[19.4207,48.0906,146.5734],[19.4285,48.0933,145.9881],[19.438,48.1025,146.6296],[19.4611,48.105,169.4303],[19.4623,48.1024,155.8229],[19.4557,48.0999,147.8123],[19.454,48.0948,148.662],[19.4567,48.0912,149.7035],[19.4613,48.0887,149.3327],[19.4686,48.0879,148.0007],[19.4689,48.0902,147.7342]]]]}}