{"type": "Feature","bbox": [17.5555,48.4709,17.9682,48.6756],"geometry": {"type": "MultiPolygon","coordinates": [[[[17.9671,48.6133,539.6888],[17.9565,48.6154,477.3951],[17.9462,48.6227,447.7783],[17.9096,48.6297,403.1795],[17.8779,48.6332,251.1888],[17.8639,48.6411,193.9775],[17.8478,48.6399,163.7222],[17.8379,48.6368,165.5435],[17.836,48.6387,166.1594],[17.8361,48.65,171.8535],[17.834,48.6516,167.0487],[17.8251,48.6513,166.9775],[17.8189,48.6453,166.368],[17.8159,48.6443,165.9753],[17.7617,48.6461,165.3351],[17.7489,48.6501,201.5104],[17.7297,48.6615,282.5648],[17.7135,48.6683,243.9362],[17.7073,48.6732,335.8378],[17.6972,48.6756,381.7078],[17.6774,48.6688,228.8716],[17.652,48.6627,345.1275],[17.6133,48.6624,340.8849],[17.6056,48.6481,377.9524],[17.6027,48.6454,380.2147],[17.5983,48.6432,437.0004],[17.5792,48.6399,493.5464],[17.5732,48.6263,446.8862],[17.5771,48.6178,370.7779],[17.5687,48.6111,289.5006],[17.5735,48.6037,298.3509],[17.5737,48.5995,342.0336],[17.5713,48.5971,330.439],[17.558,48.5915,262.7419],[17.5555,48.5829,238.2229],[17.5568,48.5785,239.9128],[17.56,48.5762,276.3001],[17.5763,48.5768,273.5975],[17.5846,48.5743,331.5867],[17.6016,48.5532,195.975],[17.6096,48.5466,201.267],[17.6127,48.541,191.3407],[17.6268,48.5305,203.0701],[17.6318,48.52,206.4985],[17.6407,48.5125,199.9072],[17.6469,48.5098,194.2588],[17.6576,48.5098,183.9286],[17.6685,48.4983,179.681],[17.6994,48.4787,169.6462],[17.7183,48.4731,161.2838],[17.7357,48.4709,144.3],[17.7422,48.4727,160.9407],[17.7497,48.4846,146.9987],[17.7616,48.4846,145.2647],[17.7654,48.4872,146.2873],[17.7642,48.4996,147.4939],[17.7593,48.5102,149.1913],[17.7594,48.5137,149.2192],[17.7613,48.5158,149.4179],[17.7672,48.5165,150.0909],[17.7752,48.5138,149.783],[17.7884,48.4989,148.5586],[17.7947,48.4955,148.5684],[17.8021,48.4955,155.6276],[17.8109,48.499,147.0],[17.8148,48.5029,147.7244],[17.8113,48.5125,150.0179],[17.8126,48.515,149.8946],[17.8214,48.5183,146.3381],[17.8363,48.5191,245.8047],[17.844,48.5238,236.9034],[17.8563,48.5361,258.7561],[17.8611,48.5588,277.3114],[17.8645,48.5652,335.592],[17.8715,48.5707,344.9364],[17.8855,48.5919,342.7556],[17.8944,48.596,398.4737],[17.9055,48.5916,397.0753],[17.9152,48.5923,356.4804],[17.9302,48.5896,526.2443],[17.9435,48.5935,448.8034],[17.9611,48.5931,657.228],[17.9682,48.6,635.9329],[17.9658,48.6118,565.7865],[17.9671,48.6133,539.6888]]]]}
,"properties": {"GID_2": "SVK.7.4_1","GID_0": "SVK","country": "Slovakia","GID_1": "SVK.7_1","province": "Trnavský","NL_NAME_1": "NA","county": "Pieštany","VARNAME_2": "NA","NL_NAME_2": "NA","TYPE_2": "Okres","ENGTYPE_2": "District","CC_2": "204","HASC_2": "SK.TA.PN","name": "Pieštany.county","area_km2": 375.0162,"hist_schema_id": "Elevation0-9000","hist_area_km2": {"150": 100.9102,"175": 98.5324,"200": 42.9114,"225": 23.4977,"250": 22.7228,"275": 16.8916,"300": 15.5605,"325": 15.0272,"350": 13.175,"375": 9.9079,"400": 5.7036,"425": 2.4948,"450": 1.7241,"475": 1.5557,"500": 1.3595,"525": 0.897,"550": 0.7149,"575": 0.8551,"600": 0.3084,"625": 0.1823,"650": 0.0701,"675": 0.014}}}