{"type":"Feature","properties":{"GID_2":"SVK.8.8_1","GID_0":"SVK","country":"Slovakia","GID_1":"SVK.8_1","province":"Žilinský","NL_NAME_1":"NA","county":"Ružomberok","VARNAME_2":"NA","NL_NAME_2":"NA","TYPE_2":"Okres","ENGTYPE_2":"District","CC_2":"508","HASC_2":"SK.ZI.RK","name":"Ružomberok.county"},
"geometry":{"type": "MultiPolygon","coordinates": [[[[19.3462,48.8999,1626.5],[19.3666,48.9114,1517.8776],[19.3831,48.9234,1524.5885],[19.382,48.93,1496.9701],[19.3834,48.9456,1162.7971],[19.3723,48.9538,1350.5768],[19.3616,48.9544,1433.9437],[19.3589,48.9579,1481.5796],[19.3589,48.9637,1386.2448],[19.3619,48.9704,1263.7712],[19.3619,48.9875,1407.4739],[19.366,48.9996,1364.6274],[19.3726,49.008,1230.7917],[19.389,49.0179,1064.1199],[19.401,49.0296,872.9374],[19.406,49.0379,848.9524],[19.4213,49.0506,616.0315],[19.4226,49.0575,592.0778],[19.4142,49.0725,629.3014],[19.415,49.0758,613.1089],[19.4458,49.088,551.4977],[19.4561,49.0957,520.0],[19.4617,49.1058,658.7007],[19.4598,49.1265,717.9585],[19.4572,49.1281,700.3871],[19.4482,49.1285,705.0013],[19.4434,49.1309,816.4141],[19.4299,49.1473,927.4711],[19.4277,49.1554,806.3254],[19.4273,49.1676,962.4653],[19.4287,49.1701,916.1242],[19.4313,49.1709,754.6889],[19.432,49.174,762.2329],[19.4296,49.1746,862.4939],[19.4217,49.1711,856.6887],[19.4135,49.1756,992.79],[19.4013,49.1732,1023.0428],[19.3783,49.1734,807.6859],[19.3694,49.1759,951.6762],[19.3604,49.1694,929.1582],[19.3492,49.1542,1219.0504],[19.3398,49.1495,1509.8458],[19.3053,49.1528,903.7886],[19.2814,49.1517,730.7689],[19.2774,49.1536,757.1253],[19.2707,49.1628,653.391],[19.2532,49.1628,650.4695],[19.2385,49.157,615.0554],[19.2148,49.1409,843.3469],[19.2101,49.1395,938.1078],[19.2052,49.1407,846.9403],[19.2008,49.1446,818.8026],[19.201,49.1572,784.3887],[19.1968,49.1611,829.3319],[19.1843,49.1645,1094.3818],[19.1669,49.1638,1071.1919],[19.1535,49.1701,591.1473],[19.1385,49.1657,615.1833],[19.1374,49.1638,564.356],[19.1425,49.1531,430.5225],[19.1488,49.1486,519.4117],[19.1489,49.1434,695.7036],[19.1404,49.1224,943.951],[19.1222,49.1058,946.0663],[19.1195,49.1014,860.9399],[19.1172,49.0866,1059.8954],[19.1172,49.0724,973.7233],[19.1229,49.0573,1169.6195],[19.113,49.0485,1326.3396],[19.113,49.0079,1251.1674],[19.1111,49.0034,1227.1013],[19.1044,48.9978,1176.6473],[19.1027,48.9933,1190.7112],[19.1051,48.9843,1261.6777],[19.1041,48.9736,1229.1243],[19.1154,48.9575,1188.5342],[19.1345,48.9512,956.5103],[19.1365,48.9479,964.6677],[19.126,48.9324,1377.9062],[19.1136,48.9308,1471.6318],[19.1015,48.9229,1295.8784],[19.0921,48.915,1324.2681],[19.0898,48.9095,1467.6818],[19.0814,48.9044,1465.1974],[19.0799,48.8976,1504.1531],[19.0823,48.8823,1491.0507],[19.079,48.8744,1467.1555],[19.0897,48.8733,1291.4647],[19.1036,48.877,1191.5713],[19.1152,48.8769,1113.3896],[19.1246,48.8796,1097.9508],[19.1501,48.8812,1012.0775],[19.1664,48.8854,1024.298],[19.1777,48.8861,978.1385],[19.2021,48.8912,1166.8181],[19.2288,48.9045,1306.3638],[19.2381,48.9054,1187.8799],[19.2472,48.895,968.0377],[19.2594,48.8846,831.8429],[19.2616,48.8754,819.0954],[19.2602,48.8695,897.8479],[19.256,48.8656,946.0403],[19.2438,48.8591,1176.21],[19.2455,48.8567,1176.8538],[19.2516,48.8559,1177.9919],[19.2926,48.8602,1292.926],[19.303,48.8629,1107.7678],[19.3118,48.8711,1403.182],[19.3137,48.8795,1502.7515],[19.316,48.8821,1412.364],[19.3355,48.8953,1697.3925],[19.3462,48.8999,1626.5]]]]}}