{"type": "Feature","bbox": [20.5188,48.6681,21.0741,48.9631],"geometry": {"type": "MultiPolygon","coordinates": [[[[20.7504,48.6681,1025.1195],[20.7545,48.6733,907.6511],[20.7557,48.6878,811.7298],[20.7593,48.6954,987.6165],[20.755,48.7034,841.3926],[20.7552,48.7071,727.0491],[20.758,48.7117,726.1027],[20.7704,48.7171,669.6115],[20.776,48.7237,727.6886],[20.7806,48.7263,790.2254],[20.7989,48.7287,746.7705],[20.8082,48.7331,851.3484],[20.821,48.7358,837.1938],[20.8265,48.7391,824.537],[20.8344,48.7393,837.7442],[20.8367,48.7443,927.881],[20.8476,48.7478,692.5032],[20.8532,48.7639,850.9263],[20.8565,48.7688,812.228],[20.8645,48.7755,1021.1465],[20.8698,48.7756,859.9694],[20.8863,48.7693,955.0287],[20.9277,48.7633,906.6942],[20.9394,48.7642,985.7173],[20.9559,48.7728,1047.407],[20.9696,48.7766,1130.36],[20.9885,48.7762,1041.024],[21.0091,48.7686,951.9448],[21.0175,48.7704,1052.0854],[21.0301,48.7765,910.6456],[21.031,48.7789,902.3687],[21.0258,48.7842,877.215],[21.0301,48.7943,778.2204],[21.0274,48.803,764.0197],[21.0366,48.8061,591.6075],[21.0467,48.8072,578.8757],[21.048,48.8098,613.7042],[21.0467,48.816,472.2825],[21.0572,48.8162,411.9993],[21.0623,48.8205,372.5964],[21.0623,48.8238,398.0189],[21.0573,48.8284,543.3253],[21.058,48.8312,441.2848],[21.0713,48.8354,353.0309],[21.0741,48.8378,330.667],[21.0727,48.8448,385.7699],[21.0648,48.8511,384.9483],[21.0622,48.8569,398.8139],[21.0447,48.8636,352.766],[21.0474,48.8732,470.7325],[21.052,48.8748,560.348],[21.0545,48.8782,467.8137],[21.0627,48.877,713.9588],[21.0653,48.8789,687.2651],[21.0644,48.8897,718.9001],[21.0593,48.8983,728.345],[21.0498,48.9059,774.5674],[21.0356,48.9056,608.4089],[21.0275,48.9074,438.8888],[21.0243,48.9111,622.3824],[21.0223,48.9188,728.4149],[21.013,48.9227,998.4212],[21.0024,48.9355,774.2302],[20.9905,48.9405,774.0848],[20.9809,48.9483,634.194],[20.9748,48.9497,572.0193],[20.9677,48.9471,596.3701],[20.9584,48.947,565.4202],[20.9382,48.9503,702.6523],[20.9249,48.9579,639.7196],[20.9008,48.9631,878.6111],[20.8867,48.9536,740.9587],[20.8864,48.9467,618.7127],[20.8917,48.9359,533.8013],[20.8918,48.9325,416.0539],[20.8877,48.9282,472.8051],[20.8801,48.9259,440.2508],[20.879,48.9242,362.6178],[20.8827,48.9224,369.7338],[20.8963,48.9231,366.0129],[20.9048,48.9205,435.6768],[20.9078,48.9178,528.4724],[20.911,48.9103,617.1912],[20.9193,48.9028,554.8406],[20.921,48.8992,593.6262],[20.9165,48.8943,614.3919],[20.888,48.8747,891.4203],[20.8682,48.8545,992.6101],[20.8442,48.848,867.9911],[20.7929,48.8404,911.2333],[20.7517,48.829,1044.2142],[20.745,48.8324,1018.4021],[20.7369,48.8399,933.9211],[20.7234,48.8429,1025.7573],[20.7128,48.8511,991.4053],[20.6948,48.854,932.2505],[20.6808,48.8602,883.2804],[20.6717,48.8612,875.7557],[20.6656,48.86,898.2197],[20.6621,48.8559,896.4221],[20.6619,48.8491,902.6487],[20.6575,48.8489,868.7969],[20.6529,48.8587,818.2092],[20.6529,48.8637,820.8599],[20.656,48.8713,650.5776],[20.6528,48.8785,644.6985],[20.6518,48.8909,636.4777],[20.6482,48.8923,628.8429],[20.6396,48.8916,582.2508],[20.6338,48.8948,488.0015],[20.6301,48.895,466.9495],[20.598,48.8875,571.2454],[20.5932,48.8827,527.3626],[20.5739,48.8699,686.328],[20.571,48.8661,703.4935],[20.571,48.8591,712.4629],[20.5759,48.8547,682.6488],[20.5759,48.8526,740.349],[20.5628,48.8472,827.1199],[20.5563,48.8371,1045.3983],[20.5419,48.8296,812.4734],[20.541,48.8273,806.2535],[20.5432,48.8213,664.6387],[20.541,48.8167,589.9213],[20.5258,48.8116,609.9923],[20.5189,48.8048,790.8287],[20.5188,48.7942,1107.1628],[20.529,48.7841,1038.3444],[20.5401,48.7826,1174.7191],[20.5439,48.7807,1162.6531],[20.5496,48.7713,976.2928],[20.5484,48.7635,1098.969],[20.5498,48.7559,1164.5273],[20.555,48.751,1132.9441],[20.5647,48.7457,1254.3885],[20.5723,48.7429,1224.2101],[20.5774,48.7429,1251.3895],[20.5887,48.7471,1206.3136],[20.6023,48.7467,1167.8734],[20.6124,48.7517,1129.5366],[20.6215,48.7525,1121.009],[20.6312,48.7486,994.0794],[20.6349,48.7434,990.7327],[20.6471,48.7385,1157.9741],[20.6521,48.7201,1159.3506],[20.6472,48.7097,1025.2329],[20.6483,48.6994,985.7093],[20.6581,48.6865,1040.2881],[20.672,48.684,1129.6567],[20.6877,48.6848,1031.2366],[20.698,48.6795,1022.0087],[20.734,48.6693,1148.0518],[20.7504,48.6681,1025.1195]]]]}
,"properties": {"GID_2": "SVK.3.1_1","GID_0": "SVK","country": "Slovakia","GID_1": "SVK.3_1","province": "Košický","NL_NAME_1": "NA","county": "Gelnica","VARNAME_2": "NA","NL_NAME_2": "NA","TYPE_2": "Okres","ENGTYPE_2": "District","CC_2": "801","HASC_2": "SK.KI.GL","name": "Gelnica.county","area_km2": 592.8149,"hist_schema_id": "Elevation0-9000","hist_area_km2": {"325": 3.8066,"350": 8.8239,"375": 9.0907,"400": 10.6272,"425": 14.3119,"450": 16.2959,"475": 18.7951,"500": 21.4344,"525": 25.3985,"550": 25.2322,"575": 26.0295,"600": 26.1421,"625": 26.5763,"650": 28.365,"675": 27.3621,"700": 28.5222,"725": 26.5981,"750": 25.9589,"775": 24.7042,"800": 22.8358,"825": 21.3017,"850": 19.6821,"875": 19.0546,"900": 16.3879,"925": 15.147,"950": 13.2893,"975": 11.6135,"1000": 10.2444,"1025": 9.3226,"1050": 7.5889,"1075": 6.4569,"1100": 5.4088,"1125": 4.6962,"1150": 4.1371,"1175": 3.6062,"1200": 3.7459,"1225": 2.3761,"1250": 1.3278,"1275": 0.3634,"1300": 0.1258,"1325": 0.028}}}