{"type":"Feature","properties":{"GID_2":"SVK.7.2_1","GID_0":"SVK","country":"Slovakia","GID_1":"SVK.7_1","province":"Trnavský","NL_NAME_1":"NA","county":"Galanta","VARNAME_2":"NA","NL_NAME_2":"NA","TYPE_2":"Okres","ENGTYPE_2":"District","CC_2":"202","HASC_2":"SK.TA.GA","name":"Galanta.county"},
"geometry":{"type": "MultiPolygon","coordinates": [[[[17.4589,48.1471,122.789],[17.4695,48.1408,121.6786],[17.4816,48.1372,122.1645],[17.4863,48.1277,121.4394],[17.493,48.1229,122.5631],[17.5114,48.1184,120.6112],[17.5236,48.1129,120.124],[17.5286,48.1139,120.7693],[17.535,48.1194,119.6559],[17.5436,48.118,119.9478],[17.5459,48.114,116.965],[17.5399,48.1079,123.9783],[17.5417,48.1052,118.568],[17.5538,48.1054,118.196],[17.5709,48.1108,122.7284],[17.5732,48.1094,120.8988],[17.5739,48.1038,117.4954],[17.5847,48.1048,116.4959],[17.5922,48.0959,117.2858],[17.5953,48.0947,120.8702],[17.5984,48.096,123.4226],[17.6074,48.108,117.0993],[17.6131,48.1095,117.0455],[17.6165,48.1059,116.6489],[17.6159,48.0959,116.8692],[17.617,48.0938,117.2187],[17.6386,48.0907,129.4355],[17.6609,48.0839,115.2944],[17.6665,48.0739,114.6597],[17.6795,48.0687,114.263],[17.6828,48.0608,114.6167],[17.6904,48.0602,114.3513],[17.702,48.0558,114.3681],[17.7269,48.0548,113.3483],[17.7453,48.0487,112.8417],[17.7583,48.0473,112.5909],[17.7627,48.0397,112.572],[17.7673,48.0355,111.2153],[17.771,48.0273,112.2824],[17.786,48.0165,113.0047],[17.7945,48.0124,111.148],[17.8015,48.0047,115.5934],[17.8101,48.0031,112.1251],[17.8183,47.9976,111.8675],[17.8254,47.9911,110.5978],[17.8371,47.9763,112.2048],[17.8621,47.9691,108.6069],[17.8678,47.9643,114.0282],[17.8715,47.9565,110.9683],[17.8789,47.9536,109.9074],[17.88,47.9557,117.4078],[17.8842,47.9722,109.5745],[17.8818,47.9829,109.9244],[17.8777,47.9876,109.855],[17.8759,47.9948,109.3673],[17.8838,48.0225,109.6882],[17.883,48.0329,109.7552],[17.8777,48.0377,110.0043],[17.8738,48.0453,110.0187],[17.8563,48.0477,111.1359],[17.8438,48.0546,111.8841],[17.8398,48.0611,111.3508],[17.8468,48.0699,111.1829],[17.8417,48.0764,111.1202],[17.8372,48.0762,111.2584],[17.82,48.0678,111.9936],[17.8076,48.0679,112.3986],[17.8038,48.0695,112.841],[17.8008,48.0732,112.6046],[17.8006,48.0771,112.9081],[17.8188,48.0961,112.7203],[17.8186,48.109,113.0542],[17.8023,48.1231,113.9366],[17.785,48.134,115.7023],[17.7617,48.144,115.1191],[17.7505,48.147,114.7982],[17.7471,48.1499,115.0725],[17.7517,48.1548,115.4469],[17.7673,48.1612,115.2183],[17.7838,48.1604,114.9746],[17.7962,48.1546,114.9878],[17.8104,48.1554,114.7085],[17.8166,48.1609,118.439],[17.8169,48.1653,116.3097],[17.8138,48.1695,115.8348],[17.8075,48.1728,116.0896],[17.8001,48.1818,115.2523],[17.7982,48.1863,116.9034],[17.7992,48.1882,116.009],[17.807,48.1891,116.5403],[17.8233,48.1878,119.2357],[17.8338,48.1832,117.2663],[17.8378,48.1831,119.0436],[17.8689,48.1918,116.9062],[17.8739,48.1949,115.3241],[17.8824,48.2042,116.4537],[17.884,48.2083,120.2785],[17.8836,48.2143,116.4324],[17.8793,48.2217,117.371],[17.8672,48.2277,119.4467],[17.8471,48.2313,119.0093],[17.8385,48.2372,122.6492],[17.8352,48.2422,125.5524],[17.8387,48.2507,121.8689],[17.8572,48.2661,137.6207],[17.8625,48.2747,151.6014],[17.8619,48.2773,156.38],[17.8573,48.2794,155.9721],[17.8318,48.2875,138.0413],[17.824,48.2943,139.7824],[17.8252,48.2981,147.2497],[17.8342,48.302,133.9626],[17.8402,48.3101,155.473],[17.8431,48.3198,176.3999],[17.8439,48.3314,196.1992],[17.8516,48.3401,198.1297],[17.8511,48.3453,203.3997],[17.8382,48.338,166.0475],[17.8354,48.3395,165.3987],[17.8339,48.3452,184.3349],[17.8237,48.3527,190.9305],[17.8185,48.3528,194.9087],[17.8012,48.3487,140.4067],[17.7975,48.3468,170.0703],[17.7965,48.3441,199.8396],[17.8032,48.3352,183.5954],[17.8042,48.33,168.9695],[17.7863,48.323,199.4699],[17.7808,48.3245,193.7504],[17.7537,48.3405,132.3864],[17.7472,48.3179,130.3099],[17.7423,48.3171,125.756],[17.7384,48.3219,130.7873],[17.7342,48.3225,130.4485],[17.7227,48.3164,130.8688],[17.7068,48.3147,129.7963],[17.6959,48.3104,128.5218],[17.6914,48.3068,127.8734],[17.6903,48.304,128.366],[17.6977,48.2976,127.3979],[17.6974,48.2952,127.7386],[17.689,48.2899,127.3778],[17.6871,48.284,126.8034],[17.6849,48.282,126.3293],[17.6539,48.2758,125.5716],[17.653,48.2734,125.519],[17.6562,48.2665,124.3689],[17.6552,48.2645,124.4046],[17.6409,48.2672,124.8296],[17.6185,48.2666,131.9802],[17.6063,48.2686,137.1529],[17.5964,48.2621,137.1143],[17.5861,48.2499,126.1691],[17.5633,48.2406,125.2314],[17.5573,48.2409,130.4048],[17.5492,48.2449,131.355],[17.5328,48.2627,132.6772],[17.5125,48.2773,142.0497],[17.506,48.2791,143.4644],[17.4928,48.2786,139.9257],[17.4936,48.2734,136.2687],[17.4904,48.2651,137.0214],[17.4866,48.261,133.0769],[17.4743,48.2559,121.2779],[17.4706,48.2505,121.5749],[17.4679,48.2412,120.9701],[17.4704,48.2364,121.2678],[17.4818,48.2282,121.0183],[17.5184,48.2145,120.4116],[17.5187,48.2115,121.788],[17.5087,48.2006,121.4902],[17.5097,48.1972,121.3413],[17.5178,48.1886,121.0453],[17.5183,48.1848,120.4434],[17.511,48.1738,121.3366],[17.4983,48.1664,121.1315],[17.4841,48.1632,122.3173],[17.4784,48.1567,122.3456],[17.4667,48.1548,120.8693],[17.4589,48.1471,122.789]]]]}}