{"type": "Feature","bbox": [21.1225,48.7138,21.3095,48.8218],"geometry": {"type": "MultiPolygon","coordinates": [[[[21.1828,48.7204,281.4855],[21.1849,48.7294,345.1028],[21.1881,48.7312,344.0452],[21.1992,48.7249,326.9334],[21.2228,48.7279,272.3391],[21.2531,48.7138,208.8909],[21.2663,48.7153,205.1131],[21.2749,48.7186,205.0398],[21.2788,48.7212,208.6665],[21.2806,48.7261,222.6051],[21.276,48.7369,223.5952],[21.2759,48.7433,263.2399],[21.2799,48.7501,277.6956],[21.2955,48.7647,332.4159],[21.2965,48.7815,278.9134],[21.3019,48.7849,227.5284],[21.3095,48.7834,198.857],[21.3089,48.7852,202.184],[21.306,48.7887,226.6407],[21.2978,48.7937,255.4848],[21.2829,48.7932,285.6135],[21.2818,48.7989,275.6626],[21.2789,48.8004,282.2228],[21.2703,48.7929,335.6006],[21.2669,48.7843,320.2735],[21.2473,48.7788,270.3087],[21.2468,48.7763,277.9583],[21.2491,48.7724,329.0251],[21.2477,48.7705,313.723],[21.2362,48.7745,294.5421],[21.2243,48.7737,383.1044],[21.2202,48.7771,425.5054],[21.2266,48.7799,398.4747],[21.2271,48.7827,395.9536],[21.2237,48.7869,403.3378],[21.2141,48.7917,386.418],[21.2115,48.7977,415.0688],[21.1997,48.7987,500.5724],[21.179,48.8037,709.9589],[21.1758,48.806,757.9458],[21.1747,48.8117,723.8156],[21.1682,48.8149,746.7773],[21.1604,48.8215,780.9919],[21.1541,48.8218,765.5422],[21.1471,48.8191,723.8691],[21.1371,48.8114,546.3755],[21.1356,48.8086,594.2052],[21.137,48.8006,657.486],[21.1435,48.7897,620.5588],[21.145,48.7836,559.5601],[21.1425,48.7823,568.4823],[21.1319,48.7842,460.6577],[21.1266,48.7817,461.2421],[21.1258,48.7773,512.2478],[21.1291,48.7693,613.5211],[21.1274,48.7663,689.0144],[21.1228,48.7634,712.0112],[21.1225,48.7598,651.9762],[21.1282,48.7553,553.9047],[21.1444,48.7534,478.7089],[21.1616,48.7411,430.3035],[21.169,48.7324,380.331],[21.1748,48.7298,366.2202],[21.1733,48.7249,317.075],[21.1741,48.7231,330.1229],[21.1828,48.7204,281.4855]]]]}
,"properties": {"GID_2": "SVK.3.3_1","GID_0": "SVK","country": "Slovakia","GID_1": "SVK.3_1","province": "Košický","NL_NAME_1": "NA","county": "KošiceI","VARNAME_2": "NA","NL_NAME_2": "NA","TYPE_2": "Okres","ENGTYPE_2": "District","CC_2": "802","HASC_2": "SK.KI.K1","name": "Košice_I.county","area_km2": 87.20793,"hist_schema_id": "Elevation0-9000","hist_area_km2": {"200": 4.46129,"225": 7.49445,"250": 3.49481,"275": 3.4243,"300": 4.22072,"325": 5.01747,"350": 6.21977,"375": 5.45121,"400": 5.47842,"425": 6.31681,"450": 5.24032,"475": 5.71551,"500": 5.42193,"525": 5.07217,"550": 3.82823,"575": 3.14335,"600": 2.48664,"625": 1.87179,"650": 0.86587,"675": 0.6843,"700": 0.48875999999999997,"725": 0.50264,"750": 0.20943,"775": 0.05584,"800": 0.04188}}}