{"type":"Feature","properties":{"GID_2":"SVK.6.7_1","GID_0":"SVK","country":"Slovakia","GID_1":"SVK.6_1","province":"Trenčiansky","NL_NAME_1":"NA","county":"Prievidza","VARNAME_2":"NA","NL_NAME_2":"NA","TYPE_2":"Okres","ENGTYPE_2":"District","CC_2":"307","HASC_2":"SK.TC.PD","name":"Prievidza.county"},
"geometry":{"type": "MultiPolygon","coordinates": [[[[18.6312,48.6288,1133.2726],[18.6375,48.6355,1204.7367],[18.6469,48.6377,1179.7157],[18.6671,48.6344,970.7291],[18.6934,48.6264,783.5953],[18.7147,48.6277,785.4436],[18.718,48.6317,732.9553],[18.7202,48.643,608.7657],[18.7388,48.6718,621.2415],[18.7668,48.6831,577.5653],[18.7803,48.6926,904.6929],[18.7919,48.7119,707.5854],[18.8027,48.7242,724.0603],[18.8135,48.7403,684.9935],[18.8126,48.744,612.9637],[18.8077,48.7488,560.3493],[18.8048,48.7558,565.8911],[18.8006,48.7608,618.137],[18.7771,48.7783,702.2699],[18.7722,48.7851,717.0383],[18.7626,48.7923,700.8525],[18.7586,48.8027,836.4402],[18.7525,48.8103,760.1046],[18.7412,48.8182,747.1306],[18.7291,48.8234,638.4583],[18.7242,48.8295,722.1858],[18.7173,48.8346,664.5248],[18.6931,48.8476,615.8688],[18.6846,48.859,590.7227],[18.6833,48.8636,512.3561],[18.684,48.8696,585.916],[18.6906,48.886,535.9693],[18.6881,48.8926,439.9787],[18.6813,48.9006,646.4966],[18.6821,48.9098,586.4504],[18.6883,48.9196,546.1279],[18.6976,48.928,729.295],[18.7045,48.9379,748.1418],[18.704,48.9443,600.66],[18.697,48.9463,698.7679],[18.6829,48.947,618.8682],[18.6576,48.9558,944.5795],[18.6364,48.958,950.1998],[18.6064,48.9585,917.304],[18.5908,48.9563,974.9379],[18.58,48.9522,709.8228],[18.5777,48.9547,637.6644],[18.5754,48.9644,866.3688],[18.5699,48.9671,874.2269],[18.5655,48.9672,820.2128],[18.532,48.9456,953.8204],[18.5086,48.938,832.0126],[18.4884,48.9379,704.3513],[18.4892,48.933,729.228],[18.4873,48.9231,677.4188],[18.4817,48.9159,636.9999],[18.4776,48.9139,694.2782],[18.4551,48.9122,541.4216],[18.4524,48.9103,600.4045],[18.4484,48.9035,633.6215],[18.441,48.8999,444.7288],[18.4246,48.9126,680.4216],[18.4115,48.9169,721.1094],[18.4014,48.9331,677.8705],[18.3923,48.938,624.7855],[18.3695,48.9438,800.1755],[18.3575,48.943,771.2253],[18.3464,48.9384,685.4258],[18.338,48.9387,661.7866],[18.3287,48.9425,706.3832],[18.3233,48.9414,790.5438],[18.3223,48.9374,736.1696],[18.3233,48.9273,662.168],[18.3215,48.9202,694.7313],[18.3228,48.896,719.1771],[18.3411,48.8925,758.5952],[18.3431,48.8864,683.1682],[18.3511,48.8804,717.9922],[18.3529,48.8716,575.8236],[18.3634,48.8645,814.7368],[18.3771,48.8638,728.3995],[18.4037,48.8525,839.5084],[18.4077,48.8462,789.1457],[18.4088,48.8395,752.2754],[18.4071,48.8324,779.33],[18.4008,48.8201,791.1058],[18.4028,48.8072,844.8561],[18.4045,48.8046,789.9385],[18.4151,48.7981,674.5694],[18.4183,48.7888,540.0355],[18.4292,48.7828,685.6389],[18.4247,48.7748,743.7859],[18.4249,48.7638,705.6702],[18.4215,48.7566,796.2387],[18.4199,48.7481,852.8507],[18.4004,48.7399,725.5477],[18.3726,48.7393,496.1317],[18.3602,48.7343,460.2232],[18.3565,48.7304,484.9225],[18.3569,48.7176,342.0578],[18.3696,48.7049,305.3918],[18.3749,48.6953,233.086],[18.3809,48.6911,215.255],[18.3924,48.6916,377.5566],[18.401,48.6833,256.833],[18.4085,48.6799,319.8021],[18.4153,48.6796,332.9801],[18.4363,48.6837,435.6506],[18.4429,48.6811,357.6556],[18.4471,48.6715,371.4153],[18.4488,48.6479,416.0927],[18.4358,48.6371,202.3159],[18.4255,48.6346,199.7166],[18.4247,48.6333,199.789],[18.4447,48.6228,223.2599],[18.4527,48.6168,235.6698],[18.4549,48.6121,272.4728],[18.4544,48.6028,341.3242],[18.4564,48.5902,278.0249],[18.464,48.5812,322.1589],[18.4817,48.5694,470.5084],[18.4832,48.5611,478.1519],[18.4888,48.5659,528.8491],[18.4938,48.5625,584.1745],[18.5404,48.569,631.9553],[18.5533,48.569,742.3234],[18.5638,48.5663,869.616],[18.5728,48.5665,811.3055],[18.5813,48.5687,825.6381],[18.587,48.5732,815.2506],[18.5871,48.5814,867.2607],[18.5901,48.5891,900.5359],[18.6088,48.5982,1151.8479],[18.6285,48.62,1233.9771],[18.6312,48.6288,1133.2726]]]]}}