{"type":"Feature","properties":{"GID_2":"SVK.8.4_1","GID_0":"SVK","country":"Slovakia","GID_1":"SVK.8_1","province":"Žilinský","NL_NAME_1":"NA","county":"KysuckéNovéMesto","VARNAME_2":"NA","NL_NAME_2":"NA","TYPE_2":"Okres","ENGTYPE_2":"District","CC_2":"504","HASC_2":"SK.ZI.KM","name":"Kysucké_Nové_Mesto.county"},
"geometry":{"type": "MultiPolygon","coordinates": [[[[18.6728,49.3469,851.6542],[18.6783,49.34,792.4954],[18.6801,49.3325,779.6896],[18.6908,49.3183,697.6158],[18.6975,49.3051,660.9746],[18.7069,49.2941,572.4294],[18.7161,49.2776,498.0309],[18.7219,49.2722,553.082],[18.7271,49.2701,580.1104],[18.7457,49.2706,369.7652],[18.758,49.2778,343.4844],[18.769,49.2763,353.3451],[18.7742,49.2729,568.2664],[18.7766,49.2648,476.4041],[18.7927,49.253,484.4304],[18.8046,49.2596,538.3274],[18.8086,49.2683,588.1049],[18.8111,49.27,629.6562],[18.8294,49.271,572.8535],[18.8355,49.2663,578.9241],[18.8485,49.2697,455.6321],[18.853,49.2676,485.8358],[18.8597,49.2595,498.9189],[18.8802,49.2539,658.1928],[18.8929,49.2556,573.8614],[18.9138,49.2658,670.6866],[18.9261,49.2746,707.0919],[18.9274,49.2855,748.4311],[18.9206,49.2972,733.3134],[18.9104,49.3034,748.8945],[18.9004,49.3057,784.7205],[18.8956,49.3091,687.3787],[18.8943,49.3189,821.6877],[18.9008,49.3249,655.3792],[18.8943,49.3382,746.6772],[18.8739,49.3457,729.2855],[18.863,49.3533,592.8622],[18.8517,49.3568,496.2013],[18.833,49.3543,564.2498],[18.8223,49.3572,389.0671],[18.8035,49.3532,477.4736],[18.7982,49.361,584.8996],[18.7831,49.3686,766.3792],[18.7693,49.3822,878.0961],[18.7515,49.3889,775.888],[18.7437,49.3894,743.4152],[18.7379,49.3848,707.5151],[18.7299,49.3816,743.7591],[18.7276,49.3782,771.4862],[18.7266,49.3717,754.924],[18.721,49.3678,813.7244],[18.7038,49.372,749.8746],[18.6985,49.3699,781.7636],[18.692,49.3641,761.0104],[18.6802,49.3627,795.6854],[18.671,49.3557,784.0695],[18.6735,49.3495,810.1162],[18.6728,49.3469,851.6542]]]]}}