{"type":"Feature","properties":{"GID_2":"SVK.6.4_1","GID_0":"SVK","country":"Slovakia","GID_1":"SVK.6_1","province":"Trenčiansky","NL_NAME_1":"NA","county":"NovéMestonadVáhom","VARNAME_2":"NA","NL_NAME_2":"NA","TYPE_2":"Okres","ENGTYPE_2":"District","CC_2":"304","HASC_2":"SK.TC.NM","name":"Nové_Mestonad_Váhom.county"},
"geometry":{"type": "MultiPolygon","coordinates": [[[[17.6117,48.8547,601.662],[17.6132,48.8445,698.8875],[17.6099,48.8313,614.0273],[17.6164,48.8221,565.7862],[17.6188,48.8123,508.1682],[17.6153,48.8066,414.9448],[17.6154,48.8031,456.7087],[17.6257,48.7909,436.0252],[17.622,48.7839,415.7446],[17.6286,48.777,370.6134],[17.6459,48.7715,297.5596],[17.6445,48.7702,291.7707],[17.6334,48.7696,325.9032],[17.6331,48.7667,373.3634],[17.6378,48.7641,376.5907],[17.6583,48.7615,316.1659],[17.6782,48.7633,334.3839],[17.6873,48.7574,340.5547],[17.697,48.7543,297.2482],[17.706,48.7389,236.6245],[17.7071,48.7304,255.8771],[17.6954,48.7276,287.451],[17.6896,48.722,248.1501],[17.6906,48.7183,252.4761],[17.6965,48.7112,246.1849],[17.6984,48.6999,243.6537],[17.7066,48.6929,317.0759],[17.7013,48.6803,421.1254],[17.6972,48.6756,381.7078],[17.7073,48.6732,335.8378],[17.7135,48.6683,243.9362],[17.7297,48.6615,282.5648],[17.7489,48.6501,201.5104],[17.7617,48.6461,165.3351],[17.8159,48.6443,165.9753],[17.8189,48.6453,166.368],[17.8251,48.6513,166.9775],[17.834,48.6516,167.0487],[17.8361,48.65,171.8535],[17.836,48.6387,166.1594],[17.8379,48.6368,165.5435],[17.8478,48.6399,163.7222],[17.8639,48.6411,193.9775],[17.8779,48.6332,251.1888],[17.9096,48.6297,403.1795],[17.9462,48.6227,447.7783],[17.9565,48.6154,477.3951],[17.9671,48.6133,539.6888],[18.0088,48.6171,421.6451],[18.0174,48.6241,295.0007],[18.017,48.6341,376.0349],[18.0093,48.6408,498.6297],[17.9966,48.6662,534.9517],[17.9969,48.6786,626.0432],[17.9925,48.6875,560.4734],[17.9932,48.6939,663.0469],[17.9995,48.7031,709.4023],[18.0021,48.7102,807.983],[18.0022,48.714,808.2277],[17.9955,48.7283,797.4919],[17.9966,48.74,750.9047],[18.0,48.7479,786.593],[17.9937,48.7497,659.4941],[17.9834,48.7486,577.8864],[17.9748,48.7511,473.0969],[17.9652,48.7503,445.1136],[17.9581,48.7581,391.6102],[17.9483,48.7761,315.9464],[17.9478,48.7926,424.941],[17.9423,48.7957,335.7159],[17.9189,48.7979,343.4738],[17.9148,48.8029,296.1862],[17.9139,48.8076,254.4204],[17.9107,48.8101,193.0437],[17.8988,48.8131,190.9101],[17.8826,48.8127,189.8001],[17.8628,48.8079,309.3912],[17.8556,48.8108,209.8594],[17.8549,48.8165,224.3176],[17.8639,48.8264,287.7899],[17.8638,48.8319,345.6085],[17.8588,48.8385,403.9865],[17.8498,48.8461,357.7755],[17.8452,48.8585,429.3447],[17.8319,48.8677,432.4748],[17.8241,48.8796,507.7776],[17.8212,48.8887,620.0246],[17.8219,48.901,452.8813],[17.8242,48.9041,557.4161],[17.8322,48.9089,598.4814],[17.831,48.9262,578.1257],[17.8034,48.9242,542.3907],[17.7756,48.9196,752.4364],[17.7619,48.9124,610.4318],[17.7503,48.9035,361.0231],[17.728,48.8805,351.6181],[17.7137,48.8692,563.8022],[17.6969,48.8603,863.8998],[17.6258,48.8579,684.833],[17.6117,48.8547,601.662]]]]}}