{"type":"Feature","properties":{"GID_2":"SVK.1.5_1","GID_0":"SVK","country":"Slovakia","GID_1":"SVK.1_1","province":"Banskobystrický","NL_NAME_1":"NA","county":"Krupina","VARNAME_2":"NA","NL_NAME_2":"NA","TYPE_2":"Okres","ENGTYPE_2":"District","CC_2":"605","HASC_2":"SK.BC.KA","name":"Krupina.county"},
"geometry":{"type": "MultiPolygon","coordinates": [[[[18.8397,48.2989,550.137],[18.8377,48.295,529.2529],[18.8244,48.2815,563.2455],[18.8262,48.2704,481.7518],[18.8251,48.2662,437.3548],[18.8205,48.2629,414.0723],[18.8065,48.2606,421.1187],[18.8003,48.2565,366.3158],[18.795,48.2498,360.9566],[18.7961,48.2445,356.7038],[18.8023,48.2385,337.6629],[18.7936,48.233,319.6389],[18.7936,48.2269,318.1931],[18.7973,48.2214,287.6945],[18.8042,48.2161,261.2947],[18.808,48.2092,204.0116],[18.8147,48.2037,182.1797],[18.8156,48.1978,160.7754],[18.8144,48.1953,162.2412],[18.7966,48.1868,218.6655],[18.7919,48.1806,221.4937],[18.7911,48.176,208.2082],[18.7951,48.1723,202.7211],[18.8031,48.1688,252.5556],[18.8157,48.1677,222.7844],[18.827,48.1691,158.2019],[18.8649,48.1545,138.5425],[18.8996,48.1561,192.876],[18.9287,48.16,248.0448],[18.939,48.1649,243.4933],[18.9696,48.1678,162.4343],[18.9939,48.1774,344.0264],[18.9983,48.1822,360.0291],[19.0116,48.1898,315.8419],[19.041,48.1962,191.536],[19.0497,48.2024,259.7214],[19.0665,48.2197,220.5905],[19.0704,48.2216,221.7776],[19.0823,48.2212,364.3755],[19.0971,48.2125,459.5501],[19.1096,48.2092,465.5898],[19.1135,48.2108,451.2067],[19.1197,48.223,416.9406],[19.1306,48.2264,419.9995],[19.1388,48.2239,426.457],[19.144,48.2182,488.8134],[19.1526,48.2139,472.0768],[19.1586,48.2135,491.7973],[19.1611,48.2157,415.3086],[19.1629,48.222,411.5596],[19.1699,48.2304,436.0354],[19.1742,48.231,470.9317],[19.1795,48.2264,520.0981],[19.1837,48.2264,506.2108],[19.1923,48.2351,502.3985],[19.198,48.2386,501.7],[19.2107,48.241,548.3846],[19.2176,48.2511,527.8883],[19.2271,48.2547,563.152],[19.2285,48.2568,569.1942],[19.2107,48.2699,537.2903],[19.2064,48.2765,549.2036],[19.2043,48.2883,503.6123],[19.1974,48.2936,492.8885],[19.1966,48.2963,523.3917],[19.1978,48.3062,517.3592],[19.2051,48.3159,544.5039],[19.204,48.3228,570.5358],[19.205,48.3352,582.0488],[19.2238,48.3484,610.8972],[19.2255,48.3528,623.4709],[19.2246,48.3595,634.6873],[19.2028,48.3663,615.8269],[19.1944,48.3704,701.949],[19.1891,48.3805,691.8702],[19.1776,48.3872,630.0698],[19.1587,48.385,552.4238],[19.1522,48.388,628.9366],[19.1286,48.3837,530.4001],[19.1155,48.3961,592.2554],[19.1144,48.4071,544.9708],[19.1102,48.4116,534.2444],[19.104,48.414,461.6285],[19.0961,48.4146,429.2135],[19.092,48.4134,434.2712],[19.086,48.4085,412.5144],[19.0803,48.4076,517.2491],[19.0559,48.4141,504.5889],[19.0425,48.4204,511.8583],[19.038,48.4311,591.6473],[19.0318,48.4332,613.7672],[19.0211,48.4335,704.9438],[19.0154,48.432,778.9489],[19.0038,48.4215,713.6662],[18.9858,48.4163,690.4552],[18.9734,48.4051,677.9904],[18.9583,48.3995,587.8663],[18.9528,48.3939,623.4214],[18.9473,48.3799,634.5859],[18.9371,48.3816,504.7136],[18.9336,48.3808,411.0003],[18.9353,48.3764,484.3431],[18.9448,48.3731,488.457],[18.9472,48.3705,529.1517],[18.9471,48.3682,607.6451],[18.9438,48.3648,528.3298],[18.9335,48.3597,489.8233],[18.9341,48.3539,432.6837],[18.931,48.3498,286.2936],[18.9396,48.3391,419.0712],[18.948,48.333,485.0205],[18.9467,48.3294,440.7968],[18.9419,48.3279,434.5731],[18.9302,48.3292,529.9834],[18.9192,48.3261,471.1628],[18.9083,48.3163,534.8954],[18.908,48.314,505.7971],[18.9115,48.3105,493.3248],[18.9114,48.3085,520.3267],[18.9008,48.3039,431.9372],[18.8954,48.3039,498.3462],[18.8886,48.3085,554.838],[18.8796,48.311,500.0958],[18.874,48.3148,453.7334],[18.8719,48.3131,368.5658],[18.8748,48.3066,381.2904],[18.8735,48.3031,491.1436],[18.8641,48.3031,455.1174],[18.8576,48.2988,492.8094],[18.8526,48.2978,507.3171],[18.8397,48.2989,550.137]]]]}}